{"version": 0.6, "generator": "Overpass API 0.7.61.5 4133829e", "osm3s": {"timestamp_osm_base": "2024-02-28T05:49:11Z", "copyright": "The data included in this document is from www.openstreetmap.org. The data is made available under ODbL."}, "elements": [{"type": "node", "id": 440621215, "lat": 34.1017216, "lon": -118.3373325, "tags": {"amenity": "cafe", "brand": "Starbucks", "brand:wikidata": "Q37158", "contact:website": "https://www.starbucks.com/store-locator/store/9009/hollywood-mc-cadden-6745-hollywood-blvd-hollywood-ca-900284604-us", "cuisine": "coffee_shop", "name": "Starbucks", "official_name": "Starbucks Coffee", "opening_hours": "Mo-Sa 05:00-22:00; Su 05:00-20:00", "takeaway": "yes"}}, {"type": "node", "id": 470897912, "lat": 34.0406343, "lon": -118.2696008, "tags": {"amenity": "cafe", "brand": "Starbucks", "brand:wikidata": "Q37158", "cuisine": "coffee_shop", "name": "Starbucks", "official_name": "Starbucks Coffee", "takeaway": "yes"}}, {"type": "node", "id": 471255273, "lat": 34.0480163, "lon": -118.2617582, "tags": {"amenity": "cafe", "brand": "Corner Bakery", "brand:wikidata": "Q5171598", "cuisine": "coffee_shop", "name": "Corner Bakery", "takeaway": "yes"}}, {"type": "node", "id": 594171613, "lat": 34.121259, "lon": -118.206804, "tags": {"addr:city": "Los Angeles", "addr:housenumber": "5000", "addr:postcode": "90042", "addr:street": "York Boulevard", "amenity": "cafe", "cuisine": "coffee_shop", "name": "Caf\u00e9 de Leche", "phone": "+1 323 551-6828", "website": "https://www.cafedeleche.net/"}}, {"type": "node", "id": 609065118, "lat": 34.0614545, "lon": -118.306404, "tags": {"amenity": "cafe", "brand": "Starbucks", "brand:wikidata": "Q37158", "contact:website": "https://www.starbucks.com/store-locator/store/15618/wilshire-serrano-3680-wilshire-blvd-102-los-angeles-ca-900102709-us", "cuisine": "coffee_shop", "name": "Starbucks", "official_name": "Starbucks Coffee", "source": "survey;image;usgs_imagery", "source_ref": "AM909_DSCR0466", "takeaway": "yes"}}, {"type": "node", "id": 610178476, "lat": 34.0630316, "lon": -118.2722924, "tags": {"addr:city": "Los Angeles", "addr:housenumber": "230", "addr:postcode": "90057", "addr:state": "CA", "addr:street": "Alvarado Street", "amenity": "cafe", "brand": "Starbucks", "brand:wikidata": "Q37158", "contact:website": "https://www.starbucks.com/store-locator/store/1023630/alvarado-3rd-230-s-alvarado-los-angeles-ca-900572306-us", "cuisine": "coffee_shop", "internet_access": "wlan", "name": "Starbucks", "official_name": "Starbucks Coffee", "phone": "2134341379", "takeaway": "yes"}}, {"type": "node", "id": 672908896, "lat": 34.0624873, "lon": -118.4473927, "tags": {"amenity": "cafe", "brand": "Starbucks", "brand:wikidata": "Q37158", "contact:website": "https://www.starbucks.com/store-locator/store/13351/broxton-weyburn-10955-west-weyburn-los-angeles-ca-900242811-us", "cuisine": "coffee_shop", "name": "Starbucks", "official_name": "Starbucks Coffee", "takeaway": "yes", "wheelchair": "limited"}}, {"type": "node", "id": 732741444, "lat": 34.0624774, "lon": -118.345318, "tags": {"addr:housenumber": "5353", "addr:street": "Wilshire Boulevard", "amenity": "cafe", "brand": "Starbucks", "brand:wikidata": "Q37158", "contact:website": "https://www.starbucks.com/store-locator/store/7232/wilshire-detroit-5353-wilshire-blvd-los-angeles-ca-900364284-us", "cuisine": "coffee_shop", "name": "Starbucks", "official_name": "Starbucks Coffee", "phone": "3239392071", "takeaway": "yes"}}, {"type": "node", "id": 902322536, "lat": 34.1098325, "lon": -118.287797, "tags": {"addr:city": "Los Angeles", "addr:housenumber": "2081", "addr:postcode": "90027", "addr:state": "CA", "addr:street": "Hillhurst Avenue", "amenity": "cafe", "brand": "The Coffee Bean & Tea Leaf", "brand:wikidata": "Q1141384", "cuisine": "coffee_shop", "internet_access": "yes", "name": "The Coffee Bean & Tea Leaf", "opening_hours": "Mo-Th 05:30-23:00; Fr 05:30-24:00; Sa 06:00-24:00; Su 06:00-23:00", "phone": "+1-323-913-3457", "takeaway": "yes", "website": "https://www.coffeebean.com/"}}, {"type": "node", "id": 902322539, "lat": 34.10191, "lon": -118.291465, "tags": {"addr:city": "Los Angeles", "addr:housenumber": "1700", "addr:postcode": "90027", "addr:street": "North Vermont Avenue", "amenity": "cafe", "brand": "Starbucks", "brand:wikidata": "Q37158", "contact:website": "https://www.starbucks.com/store-locator/store/15113/vermont-prospect-1700-n-vermont-avenue-los-angeles-ca-900274306-us", "cuisine": "coffee_shop", "internet_access": "wlan", "name": "Starbucks", "official_name": "Starbucks Coffee", "phone": "(323) 662-7705", "takeaway": "yes"}}, {"type": "node", "id": 1028915996, "lat": 34.0668178, "lon": -118.4101526, "tags": {"amenity": "cafe", "brand": "Starbucks", "brand:wikidata": "Q37158", "contact:website": "https://www.starbucks.com/store-locator/store/13341/wilshire-santa-monica-9811-s-santa-monica-blvd-beverly-hills-ca-90212160", "cuisine": "coffee_shop", "name": "Starbucks", "official_name": "Starbucks Coffee", "takeaway": "yes"}}, {"type": "node", "id": 1036344074, "lat": 34.098277, "lon": -118.3110997, "tags": {"amenity": "cafe", "brand": "Starbucks", "brand:wikidata": "Q37158", "contact:website": "https://www.starbucks.com/store-locator/store/9649/sunset-blvd-st-andrews-place-5545-w-sunset-blvd-106-hollywood-ca-900288521-us", "cuisine": "coffee_shop", "name": "Starbucks", "official_name": "Starbucks Coffee", "takeaway": "yes"}}, {"type": "node", "id": 1040764267, "lat": 34.0700464, "lon": -118.3508864, "tags": {"addr:city": "Los Angeles", "addr:housenumber": "5979", "addr:postcode": "90036", "addr:state": "CA", "addr:street": "West 3rd Street", "amenity": "cafe", "brand": "The Coffee Bean & Tea Leaf", "brand:wikidata": "Q1141384", "cuisine": "coffee_shop", "name": "The Coffee Bean & Tea Leaf", "outdoor_seating": "yes", "takeaway": "yes"}}, {"type": "node", "id": 1098290641, "lat": 34.0736918, "lon": -118.3233838, "tags": {"amenity": "cafe", "brand": "Peet's Coffee", "brand:wikidata": "Q1094101", "cuisine": "coffee_shop", "name": "Peet's Coffee", "takeaway": "yes"}}, {"type": "node", "id": 1098375972, "lat": 34.0749988, "lon": -118.3234084, "tags": {"amenity": "cafe", "brand": "Starbucks", "brand:wikidata": "Q37158", "contact:website": "https://www.starbucks.com/store-locator/store/9035/larchmont-beverly-206-north-larchmont-los-angeles-ca-900043707-us", "cuisine": "coffee_shop", "name": "Starbucks", "official_name": "Starbucks Coffee", "takeaway": "yes"}}, {"type": "node", "id": 1098396788, "lat": 34.0741657, "lon": -118.323907, "tags": {"amenity": "cafe", "brand": "The Coffee Bean & Tea Leaf", "brand:wikidata": "Q1141384", "cuisine": "coffee_shop", "name": "The Coffee Bean & Tea Leaf", "takeaway": "yes"}}, {"type": "node", "id": 1098404823, "lat": 34.0843522, "lon": -118.3269636, "tags": {"amenity": "cafe", "brand": "Starbucks", "brand:wikidata": "Q37158", "contact:website": "https://www.starbucks.com/store-locator/store/16222/pavilions-los-angeles-2229-727-n-vine-st-los-angeles-ca-900383713-us", "cuisine": "coffee_shop", "name": "Starbucks", "official_name": "Starbucks Coffee", "takeaway": "yes"}}, {"type": "node", "id": 1145238068, "lat": 34.1390734, "lon": -118.215246, "tags": {"amenity": "cafe", "brand": "Starbucks", "brand:wikidata": "Q37158", "contact:website": "https://www.starbucks.com/store-locator/store/15819/colorado-eagle-rock-eagle-r-2218-w-colorado-blvd-los-angeles-ca-900411143-us", "cuisine": "coffee_shop", "name": "Starbucks", "official_name": "Starbucks Coffee", "takeaway": "yes"}}, {"type": "node", "id": 1419803138, "lat": 34.0310728, "lon": -118.4009784, "tags": {"amenity": "cafe", "brand": "Starbucks", "brand:wikidata": "Q37158", "contact:website": "https://www.starbucks.com/store-locator/store/9247/national-castle-heights-9824-national-blvd-los-angeles-ca-900342739-us", "cuisine": "coffee_shop", "internet_access": "wlan", "name": "Starbucks", "official_name": "Starbucks Coffee", "takeaway": "yes"}}, {"type": "node", "id": 1472144012, "lat": 34.1788247, "lon": -118.5958461}, {"type": "node", "id": 1472144022, "lat": 34.1788571, "lon": -118.5957368}, {"type": "node", "id": 1472144023, "lat": 34.1788572, "lon": -118.595846}, {"type": "node", "id": 1472144044, "lat": 34.178969, "lon": -118.5957366}, {"type": "node", "id": 1472144045, "lat": 34.178968, "lon": -118.5958471}, {"type": "node", "id": 1472144049, "lat": 34.1790034, "lon": -118.595847}, {"type": "node", "id": 1472144050, "lat": 34.1790035, "lon": -118.5959701}, {"type": "node", "id": 1513006667, "lat": 34.1867524, "lon": -118.6242294, "tags": {"amenity": "cafe", "brand": "Starbucks", "brand:wikidata": "Q37158", "contact:website": "https://www.starbucks.com/store-locator/store/9304/fallbrook-victory-22815-victory-blvd-a-west-hills-ca-913073953-us", "cuisine": "coffee_shop", "name": "Starbucks", "official_name": "Starbucks Coffee", "takeaway": "yes"}}, {"type": "node", "id": 1537567635, "lat": 34.1877801, "lon": -118.5992363, "tags": {"addr:housenumber": "21504", "addr:street": "Victory Boulevard", "amenity": "cafe", "brand": "Starbucks", "brand:wikidata": "Q37158", "contact:website": "https://www.starbucks.com/store-locator/store/14702/victory-canoga-21504-victory-blvd-woodland-hills-ca-913672423-us", "cuisine": "coffee_shop", "internet_access": "yes", "name": "Starbucks", "official_name": "Starbucks Coffee", "outdoor_seating": "yes", "takeaway": "yes"}}, {"type": "node", "id": 1564024398, "lat": 34.0744303, "lon": -118.4423483, "tags": {"amenity": "cafe", "cuisine": "coffee_shop", "name": "Northern Lights"}}, {"type": "node", "id": 1564041926, "lat": 34.0748497, "lon": -118.441283, "tags": {"addr:floor": "1", "amenity": "cafe", "cuisine": "coffee_shop", "internet_access": "wlan", "internet_access:fee": "no", "level": "0", "name": "Cafe 451", "outdoor_seating": "no", "smoking": "no"}}, {"type": "node", "id": 1564058356, "lat": 34.0737093, "lon": -118.4394346, "tags": {"amenity": "cafe", "cuisine": "coffee_shop", "internet_access": "wlan", "name": "Jimmy's Coffee House"}}, {"type": "node", "id": 1564094000, "lat": 34.0701867, "lon": -118.4439673, "tags": {"addr:floor": "A", "amenity": "cafe", "cuisine": "coffee_shop", "level": "1", "name": "Bruin Buzz"}}, {"type": "node", "id": 1584153811, "lat": 34.0453231, "lon": -118.260413, "tags": {"addr:housenumber": "645 (Suite #108)", "addr:postcode": "90015", "addr:street": "W. 9th St.", "amenity": "cafe", "brand": "The Coffee Bean & Tea Leaf", "brand:wikidata": "Q1141384", "cuisine": "coffee_shop", "name": "The Coffee Bean & Tea Leaf", "phone": "(213) 627-3816", "takeaway": "yes", "website": "https://www.coffeebean.com/"}}, {"type": "node", "id": 1706143203, "lat": 34.1647435, "lon": -118.374243, "tags": {"addr:housenumber": "5166 A", "addr:postcode": "91601", "addr:street": "Lankershim", "amenity": "cafe", "brand": "Starbucks", "brand:wikidata": "Q37158", "contact:website": "https://www.starbucks.com/store-locator/store/15922/lankershim-magnolia-5166-a-lankershim-blvd-north-hollywood-ca-91601379", "cuisine": "coffee_shop", "internet_access": "wlan", "internet_access:fee": "no", "name": "Starbucks", "official_name": "Starbucks Coffee", "takeaway": "yes"}}, {"type": "node", "id": 1770936966, "lat": 34.026787, "lon": -118.3718808, "tags": {"amenity": "cafe", "brand": "Starbucks", "brand:wikidata": "Q37158", "contact:website": "https://www.starbucks.com/store-locator/store/18674/la-cienega-jefferson-3344-s-la-cienega-blvd-los-angeles-ca-900163115-us", "cuisine": "coffee_shop", "name": "Starbucks", "official_name": "Starbucks Coffee", "takeaway": "yes"}}, {"type": "node", "id": 1771061796, "lat": 34.0272116, "lon": -118.3928443, "tags": {"amenity": "cafe", "brand": "Starbucks", "brand:wikidata": "Q37158", "contact:website": "https://www.starbucks.com/store-locator/store/13312/venice-culver-8985-venice-blvd-ste-cb-2-los-angeles-ca-900343344", "cuisine": "coffee_shop", "name": "Starbucks", "official_name": "Starbucks Coffee", "takeaway": "yes"}}, {"type": "node", "id": 1840693411, "lat": 33.7793052, "lon": -118.309127, "tags": {"addr:housename": "Starbucks", "addr:housenumber": "26650", "addr:postcode": "90710", "addr:street": "Western Ave # O", "amenity": "cafe", "brand": "Starbucks", "brand:wikidata": "Q37158", "cuisine": "coffee_shop", "internet_access": "wlan", "internet_access:fee": "no", "name": "Starbucks", "official_name": "Starbucks Coffee", "takeaway": "yes"}}, {"type": "node", "id": 1898409087, "lat": 34.0637237, "lon": -118.399308, "tags": {"amenity": "cafe", "brand": "The Coffee Bean & Tea Leaf", "brand:wikidata": "Q1141384", "cuisine": "coffee_shop", "name": "The Coffee Bean & Tea Leaf", "takeaway": "yes"}}, {"type": "node", "id": 1955171366, "lat": 34.0594135, "lon": -118.444746, "tags": {"addr:housenumber": "1161", "addr:postcode": "90024", "addr:street": "Westwood Boulevard", "amenity": "cafe", "brand": "Starbucks", "brand:wikidata": "Q37158", "contact:website": "https://www.starbucks.com/store-locator/store/9205/westwood-lindbrook-1161-westwood-blvd-los-angeles-ca-900243419-us", "cuisine": "coffee_shop", "name": "Starbucks", "official_name": "Starbucks Coffee", "opening_hours": "Mo-Fr 04:30-21:30; Sa 05:00-20:30; Su 05:30-20:30", "phone": "+3102085505", "takeaway": "yes"}}, {"type": "node", "id": 1957158147, "lat": 34.0916276, "lon": -118.2798212, "tags": {"addr:city": "Los Angeles", "addr:housenumber": "3900", "addr:postcode": "90029", "addr:state": "CA", "addr:street": "Sunset Boulevard", "amenity": "cafe", "brand": "La Colombe Coffee Roasters", "brand:wikidata": "Q23461663", "check_date:opening_hours": "2023-03-13", "cuisine": "coffee_shop", "name": "La Colombe Coffee Roasters", "opening_hours": "Mo-Fr 06:30-19:00; Sa-Su 07:00-19:00", "phone": "+1-323-375-5370", "short_name": "La Colombe", "takeaway": "yes", "website": "https://www.lacolombe.com"}}, {"type": "node", "id": 1996096482, "lat": 34.0648599, "lon": -118.398915, "tags": {"amenity": "cafe", "brand": "Starbucks", "brand:wikidata": "Q37158", "contact:website": "https://www.starbucks.com/store-locator/store/16545/s-beverly-charleville-202-south-beverly-drive-beverly-hills-ca-902123805", "cuisine": "coffee_shop", "name": "Starbucks", "official_name": "Starbucks Coffee", "takeaway": "yes"}}, {"type": "node", "id": 2134181443, "lat": 34.1050774, "lon": -118.3306101, "tags": {"amenity": "cafe", "cuisine": "coffee_shop", "name": "Solar de Cahuenga", "opening_hours": "Mo-Su 08:00-16:00"}}, {"type": "node", "id": 2164946875, "lat": 34.101337, "lon": -118.3412439, "tags": {"amenity": "cafe", "brand": "The Coffee Bean & Tea Leaf", "brand:wikidata": "Q1141384", "cuisine": "coffee_shop", "name": "The Coffee Bean & Tea Leaf", "takeaway": "yes", "website": "https://www.coffeebean.com/"}}, {"type": "node", "id": 2168596081, "lat": 34.052811, "lon": -118.2570048, "tags": {"amenity": "cafe", "brand": "Starbucks", "brand:wikidata": "Q37158", "cuisine": "coffee_shop", "name": "Starbucks", "official_name": "Starbucks Coffee", "takeaway": "yes"}}, {"type": "node", "id": 2329493333, "lat": 34.0482835, "lon": -118.4912206, "tags": {"amenity": "cafe", "brand": "Blue Bottle Coffee", "brand:wikidata": "Q4928917", "cuisine": "coffee_shop", "name": "Blue Bottle Coffee", "opening_hours": "Mo-Su 06:00-16:00", "takeaway": "yes"}}, {"type": "node", "id": 2329493334, "lat": 34.0483124, "lon": -118.491081, "tags": {"amenity": "cafe", "brand": "Le Pain Quotidien", "brand:wikidata": "Q2046903", "cuisine": "coffee_shop", "name": "Le Pain Quotidien", "takeaway": "yes"}}, {"type": "node", "id": 2487341963, "lat": 34.105349, "lon": -118.3368528, "tags": {"addr:city": "Los Angeles", "addr:country": "US", "addr:housenumber": "1900", "addr:state": "CA", "addr:street": "Highland Avenue", "addr:suburb": "Hollywood", "amenity": "cafe", "brand": "Starbucks", "brand:wikidata": "Q37158", "cuisine": "coffee_shop", "name": "Starbucks", "official_name": "Starbucks Coffee", "takeaway": "yes"}}, {"type": "node", "id": 2604732612, "lat": 34.0697992, "lon": -118.290693, "tags": {"amenity": "cafe", "brand": "Starbucks", "brand:wikidata": "Q37158", "contact:website": "https://www.starbucks.com/store-locator/store/8885/vons-los-angeles-2261-3461-w-3rd-st-los-angeles-ca-900201604-us", "cuisine": "coffee_shop", "name": "Starbucks", "official_name": "Starbucks Coffee", "takeaway": "yes"}}, {"type": "node", "id": 2615832157, "lat": 34.2845649, "lon": -118.441503}, {"type": "node", "id": 2707561693, "lat": 34.0391125, "lon": -118.554115, "tags": {"amenity": "cafe", "brand": "Starbucks", "brand:wikidata": "Q37158", "contact:website": "https://www.starbucks.com/store-locator/store/20223/vons-pacific-palisades-2266-17380-sunset-blvd-pacific-palisades-ca-902724102-u", "cuisine": "coffee_shop", "name": "Starbucks", "official_name": "Starbucks Coffee", "takeaway": "yes"}}, {"type": "node", "id": 2707749946, "lat": 33.9815679, "lon": -118.4090115, "tags": {"addr:city": "Los Angeles", "addr:housenumber": "12313", "addr:postcode": "90230", "addr:state": "CA", "addr:street": "Jefferson Boulevard", "amenity": "cafe", "brand": "Starbucks", "brand:wikidata": "Q37158", "contact:website": "https://www.starbucks.com/store-locator/store/6747/jefferson-centinela-12313-jefferson-blvd-los-angeles-ca-902306225-us", "cuisine": "coffee_shop", "internet_access": "wlan", "name": "Starbucks", "official_name": "Starbucks Coffee", "opening_hours": "Mo-Fr 04:30-21:00; Sa-Su 05:00-21:00", "phone": "310-823-3479", "takeaway": "yes"}}, {"type": "node", "id": 2715023548, "lat": 34.0618164, "lon": -118.3388852}, {"type": "node", "id": 2715023549, "lat": 34.0618448, "lon": -118.3389998}, {"type": "node", "id": 2715023553, "lat": 34.0619708, "lon": -118.3388294}, {"type": "node", "id": 2715023554, "lat": 34.0619715, "lon": -118.3389476}, {"type": "node", "id": 2791749179, "lat": 34.0197206, "lon": -118.4221949}, {"type": "node", "id": 2791749180, "lat": 34.0196132, "lon": -118.4221088}, {"type": "node", "id": 2791749181, "lat": 34.0196615, "lon": -118.422022}, {"type": "node", "id": 2791749182, "lat": 34.0197688, "lon": -118.4221081}, {"type": "node", "id": 2812582564, "lat": 34.0472715, "lon": -118.5261305, "tags": {"amenity": "cafe", "brand": "Starbucks", "brand:wikidata": "Q37158", "contact:website": "https://www.starbucks.com/store-locator/store/15800/sunset-swarthmore-15300-sunset-boulevard-pacific-palisades-ca-902723", "cuisine": "coffee_shop", "name": "Starbucks", "official_name": "Starbucks Coffee", "takeaway": "yes"}}, {"type": "node", "id": 2819286068, "lat": 33.7092251, "lon": -118.28835}, {"type": "node", "id": 2838988398, "lat": 34.157097, "lon": -118.60558, "tags": {"addr:city": "Woodland Hills", "addr:housenumber": "4900", "addr:postcode": "91364", "addr:state": "CA", "addr:street": "Topanga Canyon Boulevard", "amenity": "cafe", "brand": "Starbucks", "brand:wikidata": "Q37158", "cuisine": "coffee_shop", "internet_access": "wlan", "name": "Starbucks", "official_name": "Starbucks Coffee", "opening_hours": "Mo-Fr 05:30-19:00; Sa-Su 06:00-19:00", "outdoor_seating": "yes", "phone": "+1-818-704-1730", "takeaway": "yes", "website": "https://www.starbucks.com/store-locator/store/18669/topanga-canyon-dumetz-4900-topanga-canyon-blvd-woodland-hills-ca-9136431"}}, {"type": "node", "id": 2857397990, "lat": 34.0048333, "lon": -118.33128, "tags": {"addr:city": "Los Angeles", "addr:housenumber": "4336", "addr:postcode": "90008", "addr:street": "Degnan Boulevard", "amenity": "cafe", "cuisine": "coffee_shop", "name": "Harun Coffee"}}, {"type": "node", "id": 2894755518, "lat": 34.0579591, "lon": -118.3637572, "tags": {"amenity": "cafe", "brand": "Starbucks", "brand:wikidata": "Q37158", "contact:website": "https://www.starbucks.com/store-locator/store/14753/fairfax-olympic-6066-west-olympic-boulevard-los-angeles-ca-9003644", "cuisine": "coffee_shop", "name": "Starbucks", "official_name": "Starbucks Coffee", "takeaway": "yes"}}, {"type": "node", "id": 2930473434, "lat": 34.1494258, "lon": -118.3788411, "tags": {"addr:city": "Studio City", "addr:housenumber": "4360", "addr:postcode": "91604", "addr:street": "Tujunga Avenue", "amenity": "cafe", "cuisine": "coffee_shop", "internet_access": "no", "name": "Aroma Coffee & Tea", "smoking": "no"}}, {"type": "node", "id": 3013308271, "lat": 34.0980305, "lon": -118.2865976, "tags": {"addr:city": "Los Angeles", "addr:housenumber": "4459", "addr:postcode": "90027", "addr:street": "Sunset Boulevard", "amenity": "cafe", "cuisine": "coffee_shop", "internet_access": "wlan", "name": "Caffe Vita", "phone": "+1-323-663-6340", "website": "https://www.caffevita.com/"}}, {"type": "node", "id": 3013312920, "lat": 34.1049593, "lon": -118.2916486, "tags": {"addr:city": "Los Angeles", "addr:housenumber": "1866", "addr:postcode": "90027", "addr:state": "CA", "addr:street": "North Vermont Avenue", "amenity": "cafe", "cuisine": "coffee_shop", "internet_access": "wlan", "name": "Bru Coffeebar", "opening_hours": "Mo-Su 07:00-20:00", "phone": "+1-323-664\u20137500", "website": "https://www.brucoffeebar.com/"}}, {"type": "node", "id": 3020603016, "lat": 34.1371826, "lon": -118.3551344, "tags": {"amenity": "cafe", "brand": "Starbucks", "brand:wikidata": "Q37158", "cuisine": "coffee_shop", "name": "Starbucks", "official_name": "Starbucks Coffee", "takeaway": "yes"}}, {"type": "node", "id": 3083678349, "lat": 34.2209281, "lon": -118.5022055}, {"type": "node", "id": 3083678350, "lat": 34.2209294, "lon": -118.5021397}, {"type": "node", "id": 3083678351, "lat": 34.2209303, "lon": -118.5021397}, {"type": "node", "id": 3083678352, "lat": 34.2209369, "lon": -118.5019182}, {"type": "node", "id": 3083678354, "lat": 34.2209785, "lon": -118.5019591}, {"type": "node", "id": 3083678356, "lat": 34.2209798, "lon": -118.5019203}, {"type": "node", "id": 3083678357, "lat": 34.2210016, "lon": -118.5019603}, {"type": "node", "id": 3083678358, "lat": 34.221002, "lon": -118.5019495}, {"type": "node", "id": 3083678367, "lat": 34.2210376, "lon": -118.5022108}, {"type": "node", "id": 3083678368, "lat": 34.2210213, "lon": -118.5020665}, {"type": "node", "id": 3083678369, "lat": 34.2210424, "lon": -118.5020675}, {"type": "node", "id": 3143527519, "lat": 34.0839326, "lon": -118.294756, "tags": {"addr:city": "Los Angeles", "addr:housenumber": "710", "addr:postcode": "90029", "addr:street": "North Heliotrope Drive", "amenity": "cafe", "cuisine": "coffee_shop", "internet_access": "wlan", "lgbtq": "primary", "name": "Cuties", "opening_hours": "Mo-Fr 07:00-14:00", "website": "https://www.hicuties.com/"}}, {"type": "node", "id": 3150099608, "lat": 33.9463266, "lon": -118.390939, "tags": {"amenity": "cafe", "brand": "Starbucks", "brand:wikidata": "Q37158", "contact:website": "https://www.starbucks.com/store-locator/store/9805/sheraton-gateway-hotel-6101-w-century-blvd-los-angeles-ca-900455310-us", "cuisine": "coffee_shop", "name": "Starbucks", "official_name": "Starbucks Coffee", "takeaway": "yes"}}, {"type": "node", "id": 3189210033, "lat": 33.9796599, "lon": -118.4654803}, {"type": "node", "id": 3189210034, "lat": 33.979548, "lon": -118.4653903}, {"type": "node", "id": 3189210035, "lat": 33.9796762, "lon": -118.4651585}, {"type": "node", "id": 3189210036, "lat": 33.9797881, "lon": -118.4652486}, {"type": "node", "id": 3230208662, "lat": 33.9914411, "lon": -118.4467097}, {"type": "node", "id": 3230208663, "lat": 33.9915136, "lon": -118.44653}, {"type": "node", "id": 3230208664, "lat": 33.9913587, "lon": -118.4464484}, {"type": "node", "id": 3230208665, "lat": 33.9912839, "lon": -118.4465977}, {"type": "node", "id": 3235183217, "lat": 34.1865368, "lon": -118.4134446}, {"type": "node", "id": 3235183218, "lat": 34.1865374, "lon": -118.4136089}, {"type": "node", "id": 3235183219, "lat": 34.1863577, "lon": -118.4136104}, {"type": "node", "id": 3235183220, "lat": 34.1863577, "lon": -118.413445}, {"type": "node", "id": 3285424880, "lat": 34.1724315, "lon": -118.447529, "tags": {"amenity": "cafe", "brand": "Starbucks", "brand:wikidata": "Q37158", "contact:website": "https://www.starbucks.com/store-locator/store/17685/burbank-van-nuys-14431-burbank-blvd-van-nuys-ca-914014825-us", "cuisine": "coffee_shop", "name": "Starbucks", "official_name": "Starbucks Coffee", "takeaway": "yes"}}, {"type": "node", "id": 3297494613, "lat": 34.0515291, "lon": -118.2514177, "tags": {"amenity": "cafe", "brand": "Starbucks", "brand:wikidata": "Q37158", "contact:website": "https://www.starbucks.com/store-locator/store/16708/two-cal-plaza-350-south-grand-avenue-suite-b-5-los-angeles-ca-90", "cuisine": "coffee_shop", "name": "Starbucks", "official_name": "Starbucks Coffee", "source": "survey;bing_imagery", "source_ref": "The Temecula Mapper", "takeaway": "yes"}}, {"type": "node", "id": 3368990234, "lat": 34.1363258, "lon": -118.189417, "tags": {"addr:city": "Los Angeles", "addr:housenumber": "7311", "addr:postcode": "90041", "addr:state": "CA", "addr:street": "Figueroa Street", "amenity": "cafe", "brand": "Starbucks", "brand:wikidata": "Q37158", "contact:website": "https://www.starbucks.com/store-locator/store/17741/vons-los-angeles-2655-7311-n-figueroa-st-los-angeles-ca-900412512-us", "cuisine": "coffee_shop", "name": "Starbucks", "official_name": "Starbucks Coffee", "takeaway": "yes"}}, {"type": "node", "id": 3386890107, "lat": 34.0480144, "lon": -118.2390974, "tags": {"amenity": "cafe", "brand": "Starbucks", "brand:wikidata": "Q37158", "contact:website": "https://www.starbucks.com/store-locator/store/11382/2nd-central-138-s-central-avenue-los-angeles-ca-900123913-us", "cuisine": "coffee_shop", "name": "Starbucks", "official_name": "Starbucks Coffee", "takeaway": "yes"}}, {"type": "node", "id": 3418373764, "lat": 33.9729547, "lon": -118.42264, "tags": {"amenity": "cafe", "brand": "The Coffee Bean & Tea Leaf", "brand:wikidata": "Q1141384", "cuisine": "coffee_shop", "name": "The Coffee Bean & Tea Leaf", "takeaway": "yes"}}, {"type": "node", "id": 3448133706, "lat": 33.9406138, "lon": -118.4099781, "tags": {"amenity": "cafe", "brand": "Starbucks", "brand:wikidata": "Q37158", "cuisine": "coffee_shop", "level": "4", "name": "Starbucks", "official_name": "Starbucks Coffee", "takeaway": "yes"}}, {"type": "node", "id": 3449745087, "lat": 34.0390904, "lon": -118.2326722, "tags": {"addr:city": "Los Angeles", "addr:housenumber": "582", "addr:postcode": "90013", "addr:state": "CA", "addr:street": "Mateo Street", "amenity": "cafe", "brand": "Blue Bottle Coffee", "brand:wikidata": "Q4928917", "cuisine": "coffee_shop", "internet_access": "wlan", "internet_access:fee": "no", "name": "Blue Bottle Coffee", "takeaway": "yes"}}, {"type": "node", "id": 3472319865, "lat": 34.1510006, "lon": -118.4520629}, {"type": "node", "id": 3472319866, "lat": 34.1512946, "lon": -118.4519912}, {"type": "node", "id": 3472319867, "lat": 34.1513066, "lon": -118.4520649}, {"type": "node", "id": 3472319868, "lat": 34.1510148, "lon": -118.4521378}, {"type": "node", "id": 3472319883, "lat": 34.1512574, "lon": -118.452}, {"type": "node", "id": 3472383707, "lat": 34.1512588, "lon": -118.4520768}, {"type": "node", "id": 3567233817, "lat": 34.1450709, "lon": -118.4144843, "tags": {"amenity": "cafe", "cuisine": "coffee_shop", "name": "Coffee Bean"}}, {"type": "node", "id": 3577490879, "lat": 34.2145339, "lon": -118.4484706, "tags": {"amenity": "cafe", "brand": "Starbucks", "brand:wikidata": "Q37158", "contact:website": "https://www.starbucks.com/store-locator/store/7779/van-nuys-michaels-7902-van-nuys-blvd-b-2-panorama-city-ca-914026084-", "cuisine": "coffee_shop", "name": "Starbucks", "official_name": "Starbucks Coffee", "takeaway": "yes"}}, {"type": "node", "id": 3699296779, "lat": 33.9766329, "lon": -118.417592, "tags": {"addr:city": "Los Angeles", "addr:housenumber": "12746", "addr:postcode": "90094", "addr:state": "CA", "addr:street": "West Jefferson Boulevard", "addr:unit": "2150", "amenity": "cafe", "brand": "Starbucks", "brand:wikidata": "Q37158", "contact:website": "https://www.starbucks.com/store-locator/store/1008772/runway-mc-connell-12746-jefferson-blvd-2150-playa-vista-ca-900942776", "cuisine": "coffee_shop", "name": "Starbucks", "official_name": "Starbucks Coffee", "takeaway": "yes"}}, {"type": "node", "id": 3785833193, "lat": 34.1858571, "lon": -118.604599, "tags": {"amenity": "cafe", "brand": "The Coffee Bean & Tea Leaf", "brand:wikidata": "Q1141384", "cuisine": "coffee_shop", "name": "The Coffee Bean & Tea Leaf", "takeaway": "yes"}}, {"type": "node", "id": 3807721020, "lat": 34.1909034, "lon": -118.604521, "tags": {"amenity": "cafe", "brand": "Starbucks", "brand:wikidata": "Q37158", "contact:website": "https://www.starbucks.com/store-locator/store/16032/westfield-topanga-level-1-6600-topanga-canyon-blvd-49-f-canoga-park-ca-91303", "cuisine": "coffee_shop", "name": "Starbucks", "official_name": "Starbucks Coffee", "takeaway": "yes"}}, {"type": "node", "id": 3807737614, "lat": 34.1786969, "lon": -118.603642, "tags": {"amenity": "cafe", "brand": "Starbucks", "brand:wikidata": "Q37158", "contact:website": "https://www.starbucks.com/store-locator/store/14240/marriott-warner-center-lobby-21850-oxnard-st-woodland-hills-ca-913673631-us", "cuisine": "coffee_shop", "diet:vegan": "yes", "diet:vegetarian": "yes", "indoor_seating": "yes", "name": "Starbucks", "official_name": "Starbucks Coffee", "opening_hours": "Mo-Su 06:00-18:00", "outdoor_seating": "no", "takeaway": "yes"}}, {"type": "node", "id": 3810143804, "lat": 34.0390615, "lon": -118.261117, "tags": {"amenity": "cafe", "brand": "Starbucks", "brand:wikidata": "Q37158", "cuisine": "coffee_shop", "name": "Starbucks", "official_name": "Starbucks Coffee", "takeaway": "yes"}}, {"type": "node", "id": 3810145650, "lat": 34.0489595, "lon": -118.2518516, "tags": {"addr:country": "US", "amenity": "cafe", "brand": "Starbucks", "brand:wikidata": "Q37158", "cuisine": "coffee_shop", "name": "Starbucks", "official_name": "Starbucks Coffee", "takeaway": "yes"}}, {"type": "node", "id": 3820322084, "lat": 34.1832281, "lon": -118.575827, "tags": {"amenity": "restaurant", "cuisine": "coffee_shop", "name": "Brahma Cafe"}}, {"type": "node", "id": 3832225183, "lat": 34.1686467, "lon": -118.603289, "tags": {"amenity": "cafe", "brand": "The Coffee Bean & Tea Leaf", "brand:wikidata": "Q1141384", "cuisine": "coffee_shop", "name": "The Coffee Bean & Tea Leaf", "takeaway": "yes"}}, {"type": "node", "id": 3833300156, "lat": 34.0835038, "lon": -118.3561809, "tags": {"amenity": "cafe", "brand": "Starbucks", "brand:wikidata": "Q37158", "contact:website": "https://www.starbucks.com/store-locator/store/11488/melrose-stanley-7624-melrose-avenue-los-angeles-ca-900467420-us", "cuisine": "coffee_shop", "name": "Starbucks", "official_name": "Starbucks Coffee", "takeaway": "yes"}}, {"type": "node", "id": 3834333239, "lat": 34.1686044, "lon": -118.6159153, "tags": {"amenity": "cafe", "brand": "Starbucks", "brand:wikidata": "Q37158", "contact:website": "https://www.starbucks.com/store-locator/store/10212/ventura-shoup-22435-ventura-blvd-b-woodland-hills-ca-913641580-u", "cuisine": "coffee_shop", "name": "Starbucks", "official_name": "Starbucks Coffee", "takeaway": "yes"}}, {"type": "node", "id": 3839971772, "lat": 34.1692326, "lon": -118.6054837, "tags": {"amenity": "cafe", "brand": "Starbucks", "brand:wikidata": "Q37158", "contact:website": "https://www.starbucks.com/store-locator/store/11957/topanga-cyn-ventura-5422-topanga-canyon-blvd-woodland-hills-ca-9136763", "cuisine": "coffee_shop", "name": "Starbucks", "official_name": "Starbucks Coffee", "takeaway": "yes"}}, {"type": "node", "id": 3840429394, "lat": 34.202856, "lon": -118.597515}, {"type": "node", "id": 3840429395, "lat": 34.2028564, "lon": -118.59735}, {"type": "node", "id": 3840429396, "lat": 34.2027775, "lon": -118.597334}, {"type": "node", "id": 3840429397, "lat": 34.2027757, "lon": -118.597516}, {"type": "node", "id": 3847799482, "lat": 34.1726977, "lon": -118.5469889, "tags": {"amenity": "cafe", "brand": "Peet's Coffee", "brand:wikidata": "Q1094101", "cuisine": "coffee_shop", "name": "Peet's Coffee", "takeaway": "yes"}}, {"type": "node", "id": 3886657135, "lat": 34.1788249, "lon": -118.5959704}, {"type": "node", "id": 3887073533, "lat": 34.165943, "lon": -118.6241093, "tags": {"amenity": "restaurant", "cuisine": "coffee_shop", "name": "Bobby's"}}, {"type": "node", "id": 3947002639, "lat": 34.178746, "lon": -118.602085, "tags": {"amenity": "cafe", "brand": "Aroma", "brand:wikidata": "Q2909872", "cuisine": "coffee_shop", "name": "Aroma", "takeaway": "yes"}}, {"type": "node", "id": 3949418895, "lat": 34.0238857, "lon": -118.3986805, "tags": {"amenity": "cafe", "brand": "The Coffee Bean & Tea Leaf", "brand:wikidata": "Q1141384", "cuisine": "coffee_shop", "drive_through": "yes", "name": "The Coffee Bean & Tea Leaf", "takeaway": "yes"}}, {"type": "node", "id": 4008496489, "lat": 34.1669548, "lon": -118.5887094}, {"type": "node", "id": 4008496490, "lat": 34.1668094, "lon": -118.5887318}, {"type": "node", "id": 4008496491, "lat": 34.1667896, "lon": -118.5885293}, {"type": "node", "id": 4008496492, "lat": 34.1669687, "lon": -118.588504}, {"type": "node", "id": 4043067030, "lat": 34.1042154, "lon": -118.2590369}, {"type": "node", "id": 4043067031, "lat": 34.1042152, "lon": -118.2589131}, {"type": "node", "id": 4043067032, "lat": 34.1041387, "lon": -118.2588048}, {"type": "node", "id": 4043067033, "lat": 34.104041, "lon": -118.258806}, {"type": "node", "id": 4043067034, "lat": 34.1040415, "lon": -118.2590475}, {"type": "node", "id": 4064504887, "lat": 34.2507414, "lon": -118.6063101, "tags": {"amenity": "cafe", "brand": "Starbucks", "brand:wikidata": "Q37158", "contact:website": "https://www.starbucks.com/store-locator/store/14850/topanga-canyon-lassen-9935-topanga-canyon-boulevard-chatsworth-ca-913113", "cuisine": "coffee_shop", "name": "Starbucks", "official_name": "Starbucks Coffee", "takeaway": "yes"}}, {"type": "node", "id": 4075193955, "lat": 33.9968767, "lon": -118.394214, "tags": {"amenity": "cafe", "brand": "Starbucks", "brand:wikidata": "Q37158", "contact:website": "https://www.starbucks.com/store-locator/store/11275/pavilions-culver-city-2212-11030-jefferson-blvd-culver-city-ca-902305520-us", "cuisine": "coffee_shop", "internet_access": "wlan", "name": "Starbucks", "official_name": "Starbucks Coffee", "takeaway": "yes"}}, {"type": "node", "id": 4084452081, "lat": 34.1428971, "lon": -118.4054294, "tags": {"addr:city": "Studio City", "addr:housenumber": "12501", "addr:postcode": "91604", "addr:state": "CA", "addr:street": "Ventura Boulevard", "amenity": "cafe", "brand": "The Coffee Bean & Tea Leaf", "brand:wikidata": "Q1141384", "cuisine": "coffee_shop", "internet_access": "wlan", "name": "The Coffee Bean & Tea Leaf", "phone": "(818) 763-72711", "takeaway": "yes"}}, {"type": "node", "id": 4084467875, "lat": 34.1679614, "lon": -118.375889, "tags": {"amenity": "cafe", "brand": "The Coffee Bean & Tea Leaf", "brand:wikidata": "Q1141384", "cuisine": "coffee_shop", "internet_access": "wlan", "name": "The Coffee Bean & Tea Leaf", "takeaway": "yes"}}, {"type": "node", "id": 4089377369, "lat": 34.1875628, "lon": -118.553751, "tags": {"amenity": "cafe", "brand": "Starbucks", "brand:wikidata": "Q37158", "contact:website": "https://www.starbucks.com/store-locator/store/12475/tampa-victory-19313-victory-boulevard-1-reseda-ca-913356302-us", "cuisine": "coffee_shop", "name": "Starbucks", "official_name": "Starbucks Coffee", "takeaway": "yes"}}, {"type": "node", "id": 4089614984, "lat": 34.0195019, "lon": -118.282247, "tags": {"amenity": "cafe", "cuisine": "coffee_shop", "name": "Ground Zero", "opening_hours": "Mo-Fr 08:30-23:30, Sa,Su 13:00-20:00"}}, {"type": "node", "id": 4093859370, "lat": 33.7091376, "lon": -118.2883445}, {"type": "node", "id": 4093859371, "lat": 33.7091384, "lon": -118.2882714}, {"type": "node", "id": 4093859372, "lat": 33.7091428, "lon": -118.2882562}, {"type": "node", "id": 4093859373, "lat": 33.7091429, "lon": -118.2881726}, {"type": "node", "id": 4093859374, "lat": 33.7091431, "lon": -118.2882292}, {"type": "node", "id": 4093859375, "lat": 33.7091432, "lon": -118.2881378}, {"type": "node", "id": 4093859376, "lat": 33.7091432, "lon": -118.2884353}, {"type": "node", "id": 4093859377, "lat": 33.7091439, "lon": -118.2882141}, {"type": "node", "id": 4093859378, "lat": 33.709144, "lon": -118.2882028}, {"type": "node", "id": 4093859379, "lat": 33.7091442, "lon": -118.2883446}, {"type": "node", "id": 4093859693, "lat": 33.7091489, "lon": -118.2885039}, {"type": "node", "id": 4093859696, "lat": 33.7091496, "lon": -118.2884354}, {"type": "node", "id": 4093859699, "lat": 33.7091501, "lon": -118.2882716}, {"type": "node", "id": 4093859700, "lat": 33.7091502, "lon": -118.2882029}, {"type": "node", "id": 4093859701, "lat": 33.7091503, "lon": -118.2882293}, {"type": "node", "id": 4093859702, "lat": 33.7091503, "lon": -118.2882563}, {"type": "node", "id": 4093859703, "lat": 33.7091504, "lon": -118.2882142}, {"type": "node", "id": 4093859704, "lat": 33.7091505, "lon": -118.2881727}, {"type": "node", "id": 4093859705, "lat": 33.709151, "lon": -118.2881379}, {"type": "node", "id": 4093859706, "lat": 33.7091511, "lon": -118.2881208}, {"type": "node", "id": 4093859737, "lat": 33.709163, "lon": -118.2881209}, {"type": "node", "id": 4093859739, "lat": 33.7091631, "lon": -118.2881064}, {"type": "node", "id": 4093859752, "lat": 33.7091982, "lon": -118.2881229}, {"type": "node", "id": 4093859753, "lat": 33.7091984, "lon": -118.2881069}, {"type": "node", "id": 4093859758, "lat": 33.7092113, "lon": -118.2885049}, {"type": "node", "id": 4093859759, "lat": 33.7092121, "lon": -118.2884363}, {"type": "node", "id": 4093860191, "lat": 33.7092256, "lon": -118.2883018}, {"type": "node", "id": 4093860228, "lat": 33.7092521, "lon": -118.2883022}, {"type": "node", "id": 4093860229, "lat": 33.7092525, "lon": -118.2882711}, {"type": "node", "id": 4093860233, "lat": 33.7092552, "lon": -118.2882711}, {"type": "node", "id": 4093860234, "lat": 33.7092568, "lon": -118.2881237}, {"type": "node", "id": 4093860238, "lat": 33.7092613, "lon": -118.2883507}, {"type": "node", "id": 4093860239, "lat": 33.7092613, "lon": -118.2884371}, {"type": "node", "id": 4093860243, "lat": 33.7092678, "lon": -118.2884372}, {"type": "node", "id": 4093860244, "lat": 33.7092687, "lon": -118.2883508}, {"type": "node", "id": 4094519221, "lat": 34.1817007, "lon": -118.6037228}, {"type": "node", "id": 4094519244, "lat": 34.1817267, "lon": -118.6036979}, {"type": "node", "id": 4094934866, "lat": 34.181719, "lon": -118.6036659}, {"type": "node", "id": 4094934881, "lat": 34.1817102, "lon": -118.6037369}, {"type": "node", "id": 4094934882, "lat": 34.1816652, "lon": -118.6037583}, {"type": "node", "id": 4094934883, "lat": 34.181679, "lon": -118.6037745}, {"type": "node", "id": 4096409095, "lat": 34.0414627, "lon": -118.2513558, "tags": {"addr:city": "Los Angeles", "addr:housenumber": "305", "addr:postcode": "90014", "addr:street": "East 8th Street", "addr:unit": "3", "amenity": "cafe", "cuisine": "coffee_shop", "name": "No Ghost Bears", "website": "http://www.coffeecolab.com"}}, {"type": "node", "id": 4096433794, "lat": 34.0423785, "lon": -118.2544884, "tags": {"addr:city": "Los Angeles", "addr:housenumber": "833", "addr:postcode": "90014", "addr:street": "South Spring Street", "amenity": "cafe", "cuisine": "coffee_shop", "name": "Verve Coffee"}}, {"type": "node", "id": 4100350872, "lat": 34.1610925, "lon": -118.5100253, "tags": {"addr:city": "Encino", "addr:housenumber": "17301", "addr:postcode": "91316", "addr:state": "CA", "addr:street": "Ventura Boulevard", "amenity": "cafe", "brand": "The Coffee Bean & Tea Leaf", "brand:wikidata": "Q1141384", "cuisine": "coffee_shop", "name": "The Coffee Bean & Tea Leaf", "takeaway": "yes"}}, {"type": "node", "id": 4100376309, "lat": 34.1607091, "lon": -118.5103836, "tags": {"addr:city": "Encino", "addr:housenumber": "17308", "addr:postcode": "91316", "addr:state": "CA", "addr:street": "Ventura Boulevard", "amenity": "cafe", "brand": "Starbucks", "brand:wikidata": "Q37158", "contact:website": "https://www.starbucks.com/store-locator/store/16036/ventura-louise-17308-ventura-blvd-encino-ca-913163904-us", "cuisine": "coffee_shop", "name": "Starbucks", "official_name": "Starbucks Coffee", "takeaway": "yes"}}, {"type": "node", "id": 4102956765, "lat": 34.1702927, "lon": -118.5404429, "tags": {"addr:city": "Tarzana", "addr:housenumber": "18700", "addr:postcode": "91356", "addr:state": "CA", "addr:street": "Ventura Boulevard", "amenity": "cafe", "brand": "Starbucks", "brand:wikidata": "Q37158", "cuisine": "coffee_shop", "name": "Starbucks", "official_name": "Starbucks Coffee", "takeaway": "yes"}}, {"type": "node", "id": 4129160728, "lat": 34.1719185, "lon": -118.3968179, "tags": {"amenity": "cafe", "brand": "Starbucks", "brand:wikidata": "Q37158", "contact:website": "https://www.starbucks.com/store-locator/store/1008743/laurel-canyon-burbank-12106-west-burbank-blvd-valley-village-ca-91607170", "cuisine": "coffee_shop", "drive_through": "yes", "internet_access": "wlan", "name": "Starbucks", "official_name": "Starbucks Coffee", "takeaway": "yes"}}, {"type": "node", "id": 4140126370, "lat": 34.1265428, "lon": -118.263506, "tags": {"amenity": "cafe", "brand": "Starbucks", "brand:wikidata": "Q37158", "contact:website": "https://www.starbucks.com/store-locator/store/15047/los-feliz-seneca-2919-los-feliz-blvd-6-los-angeles-ca-900391544-us", "cuisine": "coffee_shop", "indoor_seating": "yes", "name": "Starbucks", "official_name": "Starbucks Coffee", "opening_hours": "Mo-Fr 04:30-20:30; Sa,Su 05:00-20:30", "outdoor_seating": "yes", "takeaway": "yes"}}, {"type": "node", "id": 4160530656, "lat": 34.1521001, "lon": -118.3665593}, {"type": "node", "id": 4160530657, "lat": 34.1521309, "lon": -118.3665958}, {"type": "node", "id": 4160530658, "lat": 34.1521326, "lon": -118.3666496}, {"type": "node", "id": 4160530659, "lat": 34.1521029, "lon": -118.3666888}, {"type": "node", "id": 4160530660, "lat": 34.1520589, "lon": -118.3666914}, {"type": "node", "id": 4162647227, "lat": 34.0185773, "lon": -118.281862, "tags": {"amenity": "cafe", "brand": "Starbucks", "brand:wikidata": "Q37158", "contact:website": "https://www.starbucks.com/store-locator/store/91220/figueroa-exposition-3584-s-figueroa-st-1-b-los-angeles-ca-900074313-us", "cuisine": "coffee_shop", "internet_access": "wlan", "name": "Starbucks", "official_name": "Starbucks Coffee", "opening_hours": "Mo-Su 09:00-23:00", "smoking": "no", "takeaway": "yes"}}, {"type": "node", "id": 4182142889, "lat": 34.0032672, "lon": -118.433698, "tags": {"addr:housenumber": "12404", "addr:postcode": "90065", "addr:street": "Venice Boulevard", "amenity": "cafe", "brand": "Starbucks", "brand:wikidata": "Q37158", "contact:website": "https://www.starbucks.com/store-locator/store/1006874/venice-centinela-12404-w-venice-blvd-suite-a-los-angeles-ca-9006638", "cuisine": "coffee_shop", "internet_access": "wlan", "name": "Starbucks", "official_name": "Starbucks Coffee", "opening_hours": "Mo-Su 05:00-20:00", "phone": "+1 (310) 390-2354", "takeaway": "yes"}}, {"type": "node", "id": 4200928960, "lat": 34.0803458, "lon": -118.2842114}, {"type": "node", "id": 4200928961, "lat": 34.0803462, "lon": -118.2842687}, {"type": "node", "id": 4200928963, "lat": 34.0803463, "lon": -118.2843004}, {"type": "node", "id": 4200928964, "lat": 34.0803467, "lon": -118.2843471}, {"type": "node", "id": 4200928972, "lat": 34.0803641, "lon": -118.2842685}, {"type": "node", "id": 4200928973, "lat": 34.0803643, "lon": -118.2843002}, {"type": "node", "id": 4200928974, "lat": 34.0803651, "lon": -118.2842082}, {"type": "node", "id": 4200928975, "lat": 34.0803651, "lon": -118.2842112}, {"type": "node", "id": 4200928979, "lat": 34.0803911, "lon": -118.2842022}, {"type": "node", "id": 4200928980, "lat": 34.0803911, "lon": -118.2842079}, {"type": "node", "id": 4200928981, "lat": 34.0803927, "lon": -118.2843194}, {"type": "node", "id": 4200928982, "lat": 34.0803929, "lon": -118.2843476}, {"type": "node", "id": 4200928984, "lat": 34.0804134, "lon": -118.284202}, {"type": "node", "id": 4200928985, "lat": 34.0804134, "lon": -118.284208}, {"type": "node", "id": 4200928986, "lat": 34.0804143, "lon": -118.2843061}, {"type": "node", "id": 4200928987, "lat": 34.0804143, "lon": -118.2843191}, {"type": "node", "id": 4200928988, "lat": 34.080431, "lon": -118.2843059}, {"type": "node", "id": 4200928989, "lat": 34.0804314, "lon": -118.284348}, {"type": "node", "id": 4200928994, "lat": 34.0804612, "lon": -118.2842075}, {"type": "node", "id": 4200929002, "lat": 34.0805052, "lon": -118.2843486}, {"type": "node", "id": 4200929003, "lat": 34.0805065, "lon": -118.2843459}, {"type": "node", "id": 4200929004, "lat": 34.0805119, "lon": -118.2843342}, {"type": "node", "id": 4211961513, "lat": 33.9912809, "lon": -118.4465677}, {"type": "node", "id": 4211961518, "lat": 33.9912941, "lon": -118.4465771}, {"type": "node", "id": 4211961521, "lat": 33.9913008, "lon": -118.4465273}, {"type": "node", "id": 4211961527, "lat": 33.9913148, "lon": -118.4465373}, {"type": "node", "id": 4211961542, "lat": 33.9913454, "lon": -118.4464389}, {"type": "node", "id": 4211961546, "lat": 33.9913558, "lon": -118.4464178}, {"type": "node", "id": 4211961554, "lat": 33.9913709, "lon": -118.4464285}, {"type": "node", "id": 4211961560, "lat": 33.9913792, "lon": -118.4464119}, {"type": "node", "id": 4211961567, "lat": 33.9913967, "lon": -118.4464467}, {"type": "node", "id": 4211961570, "lat": 33.9914049, "lon": -118.4464302}, {"type": "node", "id": 4211961589, "lat": 33.9914466, "lon": -118.4466656}, {"type": "node", "id": 4211961595, "lat": 33.9914586, "lon": -118.4466742}, {"type": "node", "id": 4231137013, "lat": 34.0718226, "lon": -118.3608013, "tags": {"amenity": "cafe", "brand": "Starbucks", "brand:wikidata": "Q37158", "contact:website": "https://www.starbucks.com/store-locator/store/8832/3rd-fairfax-farmers-market-6333-w-3rd-street-los-angeles-ca-900363109-us", "cuisine": "coffee_shop", "name": "Starbucks", "official_name": "Starbucks Coffee", "phone": "+1 323 9659594", "takeaway": "yes"}}, {"type": "node", "id": 4243330946, "lat": 34.0671845, "lon": -118.4446638, "tags": {"amenity": "cafe", "cuisine": "coffee_shop", "name": "Cafe Synapse", "outdoor_seating": "yes", "source": "local knowledge"}}, {"type": "node", "id": 4244533282, "lat": 34.0254377, "lon": -118.4312583}, {"type": "node", "id": 4244533283, "lat": 34.0254457, "lon": -118.4311816}, {"type": "node", "id": 4244533284, "lat": 34.0254545, "lon": -118.4311921}, {"type": "node", "id": 4244533285, "lat": 34.0254561, "lon": -118.4311888}, {"type": "node", "id": 4244533286, "lat": 34.0254598, "lon": -118.4311526}, {"type": "node", "id": 4244533287, "lat": 34.0254659, "lon": -118.4312001}, {"type": "node", "id": 4244533290, "lat": 34.0254701, "lon": -118.4311599}, {"type": "node", "id": 4244533291, "lat": 34.0254794, "lon": -118.4311407}, {"type": "node", "id": 4244533292, "lat": 34.0254917, "lon": -118.4311492}, {"type": "node", "id": 4244533293, "lat": 34.0254947, "lon": -118.4311328}, {"type": "node", "id": 4244533295, "lat": 34.0254984, "lon": -118.4311354}, {"type": "node", "id": 4244533296, "lat": 34.025505, "lon": -118.4311117}, {"type": "node", "id": 4244533297, "lat": 34.0255086, "lon": -118.4311142}, {"type": "node", "id": 4244533298, "lat": 34.0255122, "lon": -118.431107}, {"type": "node", "id": 4244533300, "lat": 34.0255194, "lon": -118.431112}, {"type": "node", "id": 4244533301, "lat": 34.0255206, "lon": -118.4311095}, {"type": "node", "id": 4244533302, "lat": 34.0255356, "lon": -118.4311234}, {"type": "node", "id": 4244533303, "lat": 34.0255369, "lon": -118.4311209}, {"type": "node", "id": 4244533308, "lat": 34.0255617, "lon": -118.4311417}, {"type": "node", "id": 4244533309, "lat": 34.025563, "lon": -118.4311389}, {"type": "node", "id": 4244533310, "lat": 34.0255639, "lon": -118.4313467}, {"type": "node", "id": 4244533313, "lat": 34.0255902, "lon": -118.4312926}, {"type": "node", "id": 4244533314, "lat": 34.0255947, "lon": -118.4312957}, {"type": "node", "id": 4244533319, "lat": 34.0256329, "lon": -118.4311915}, {"type": "node", "id": 4244533320, "lat": 34.0256338, "lon": -118.4312028}, {"type": "node", "id": 4244533321, "lat": 34.0256343, "lon": -118.4311888}, {"type": "node", "id": 4244533322, "lat": 34.0256376, "lon": -118.4311948}, {"type": "node", "id": 4244533323, "lat": 34.0256383, "lon": -118.431206}, {"type": "node", "id": 4244564905, "lat": 34.047514, "lon": -118.4452872}, {"type": "node", "id": 4244564906, "lat": 34.0475237, "lon": -118.4453173}, {"type": "node", "id": 4244564907, "lat": 34.0475301, "lon": -118.4452233}, {"type": "node", "id": 4244564908, "lat": 34.0475323, "lon": -118.4453014}, {"type": "node", "id": 4244564909, "lat": 34.0475373, "lon": -118.4452298}, {"type": "node", "id": 4244564910, "lat": 34.0475509, "lon": -118.4452037}, {"type": "node", "id": 4244564912, "lat": 34.0475696, "lon": -118.4453569}, {"type": "node", "id": 4244564913, "lat": 34.0475843, "lon": -118.4451679}, {"type": "node", "id": 4244564917, "lat": 34.0476482, "lon": -118.4452251}, {"type": "node", "id": 4247507069, "lat": 34.0540248, "lon": -118.440375}, {"type": "node", "id": 4247507076, "lat": 34.0540961, "lon": -118.4402573}, {"type": "node", "id": 4247507080, "lat": 34.0541161, "lon": -118.440275}, {"type": "node", "id": 4247507081, "lat": 34.0541198, "lon": -118.4404587}, {"type": "node", "id": 4247507082, "lat": 34.054127, "lon": -118.4402569}, {"type": "node", "id": 4247507088, "lat": 34.0541651, "lon": -118.4403181}, {"type": "node", "id": 4247507089, "lat": 34.054176, "lon": -118.4403001}, {"type": "node", "id": 4247507093, "lat": 34.0541911, "lon": -118.4403409}, {"type": "node", "id": 4248538529, "lat": 34.0402566, "lon": -118.4633694}, {"type": "node", "id": 4248538534, "lat": 34.0402648, "lon": -118.4633552}, {"type": "node", "id": 4248538540, "lat": 34.0402746, "lon": -118.4633318}, {"type": "node", "id": 4248538543, "lat": 34.0402817, "lon": -118.4633115}, {"type": "node", "id": 4248538545, "lat": 34.0402862, "lon": -118.4632943}, {"type": "node", "id": 4248538546, "lat": 34.0402876, "lon": -118.4632779}, {"type": "node", "id": 4248538560, "lat": 34.040311, "lon": -118.463299}, {"type": "node", "id": 4248538561, "lat": 34.0403116, "lon": -118.4632849}, {"type": "node", "id": 4248538585, "lat": 34.0403621, "lon": -118.4634364}, {"type": "node", "id": 4248538594, "lat": 34.0403778, "lon": -118.4633856}, {"type": "node", "id": 4248538598, "lat": 34.0403831, "lon": -118.4633889}, {"type": "node", "id": 4248538602, "lat": 34.0403873, "lon": -118.4633324}, {"type": "node", "id": 4253188252, "lat": 34.0560893, "lon": -118.247013}, {"type": "node", "id": 4253188258, "lat": 34.0561068, "lon": -118.2470459}, {"type": "node", "id": 4253188259, "lat": 34.056111, "lon": -118.2470393}, {"type": "node", "id": 4253188267, "lat": 34.056153, "lon": -118.2471151}, {"type": "node", "id": 4253188270, "lat": 34.0561661, "lon": -118.2469368}, {"type": "node", "id": 4253188274, "lat": 34.0561718, "lon": -118.246945}, {"type": "node", "id": 4253188278, "lat": 34.0561867, "lon": -118.2469289}, {"type": "node", "id": 4253188287, "lat": 34.0562326, "lon": -118.247001}, {"type": "node", "id": 4259758781, "lat": 34.0797281, "lon": -118.2598037}, {"type": "node", "id": 4259758782, "lat": 34.0797381, "lon": -118.2598416}, {"type": "node", "id": 4259758783, "lat": 34.0797433, "lon": -118.2598383}, {"type": "node", "id": 4259758784, "lat": 34.0797469, "lon": -118.2598617}, {"type": "node", "id": 4259758785, "lat": 34.0797481, "lon": -118.2598643}, {"type": "node", "id": 4259758786, "lat": 34.0797512, "lon": -118.259859}, {"type": "node", "id": 4259758787, "lat": 34.0797524, "lon": -118.2598616}, {"type": "node", "id": 4259758788, "lat": 34.0797588, "lon": -118.2598887}, {"type": "node", "id": 4259759689, "lat": 34.0797602, "lon": -118.2598921}, {"type": "node", "id": 4259759690, "lat": 34.0797626, "lon": -118.2598863}, {"type": "node", "id": 4259759691, "lat": 34.079764, "lon": -118.2598896}, {"type": "node", "id": 4259759692, "lat": 34.0797704, "lon": -118.2599155}, {"type": "node", "id": 4259759693, "lat": 34.0797714, "lon": -118.2599179}, {"type": "node", "id": 4259759694, "lat": 34.0797746, "lon": -118.2599129}, {"type": "node", "id": 4259759695, "lat": 34.0797756, "lon": -118.2599153}, {"type": "node", "id": 4259759696, "lat": 34.0797817, "lon": -118.2599415}, {"type": "node", "id": 4259759697, "lat": 34.0797869, "lon": -118.2599383}, {"type": "node", "id": 4259759698, "lat": 34.0797887, "lon": -118.2599425}, {"type": "node", "id": 4259759699, "lat": 34.0797939, "lon": -118.2599423}, {"type": "node", "id": 4259759700, "lat": 34.0797941, "lon": -118.2599499}, {"type": "node", "id": 4259759701, "lat": 34.0798116, "lon": -118.2599433}, {"type": "node", "id": 4259759702, "lat": 34.0798118, "lon": -118.2599491}, {"type": "node", "id": 4259759703, "lat": 34.0798152, "lon": -118.2599432}, {"type": "node", "id": 4259759704, "lat": 34.0798393, "lon": -118.2597336}, {"type": "node", "id": 4259759705, "lat": 34.0798398, "lon": -118.2599421}, {"type": "node", "id": 4259759706, "lat": 34.07984, "lon": -118.2599482}, {"type": "node", "id": 4259759707, "lat": 34.0798565, "lon": -118.2599396}, {"type": "node", "id": 4259759708, "lat": 34.0798568, "lon": -118.2599475}, {"type": "node", "id": 4259759710, "lat": 34.0798913, "lon": -118.2599382}, {"type": "node", "id": 4259759711, "lat": 34.079893, "lon": -118.2598566}, {"type": "node", "id": 4259759712, "lat": 34.0799, "lon": -118.2598521}, {"type": "node", "id": 4259759713, "lat": 34.0799008, "lon": -118.259854}, {"type": "node", "id": 4259759714, "lat": 34.0799114, "lon": -118.2598471}, {"type": "node", "id": 4259759716, "lat": 34.079917, "lon": -118.2598907}, {"type": "node", "id": 4259759719, "lat": 34.0799277, "lon": -118.2599146}, {"type": "node", "id": 4259759720, "lat": 34.0799278, "lon": -118.2598837}, {"type": "node", "id": 4276093258, "lat": 34.0401239, "lon": -118.3304495}, {"type": "node", "id": 4276093279, "lat": 34.0401555, "lon": -118.3305342}, {"type": "node", "id": 4276093413, "lat": 34.0402337, "lon": -118.3303878}, {"type": "node", "id": 4276093414, "lat": 34.0402346, "lon": -118.3303901}, {"type": "node", "id": 4276093429, "lat": 34.0402599, "lon": -118.3303738}, {"type": "node", "id": 4276093434, "lat": 34.0402615, "lon": -118.330378}, {"type": "node", "id": 4276093444, "lat": 34.0402697, "lon": -118.3304688}, {"type": "node", "id": 4276093445, "lat": 34.0402709, "lon": -118.3304722}, {"type": "node", "id": 4276093455, "lat": 34.0402864, "lon": -118.3303646}, {"type": "node", "id": 4276093477, "lat": 34.0403159, "lon": -118.330444}, {"type": "node", "id": 4278753919, "lat": 33.9918798, "lon": -118.470387, "tags": {"addr:city": "Venice", "addr:housenumber": "1103", "addr:postcode": "90291", "addr:state": "CA", "addr:street": "Abbot Kinney Boulevard", "amenity": "cafe", "branch": "Venice", "brand": "Blue Bottle Coffee", "brand:en": "Blue Bottle Coffee", "brand:ja": "\u30d6\u30eb\u30fc\u30dc\u30c8\u30eb\u30b3\u30fc\u30d2\u30fc", "brand:wikidata": "Q4928917", "cuisine": "coffee_shop", "name": "Blue Bottle Coffee", "name:en": "Blue Bottle Coffee", "name:ja": "\u30d6\u30eb\u30fc\u30dc\u30c8\u30eb\u30b3\u30fc\u30d2\u30fc", "opening_hours": "Mo-Su 06:00-19:00", "phone": "+1 (510) 653-3394", "takeaway": "yes", "website": "https://bluebottlecoffee.com/"}}, {"type": "node", "id": 4281438171, "lat": 34.1041603, "lon": -118.2590371}, {"type": "node", "id": 4281438172, "lat": 34.1041603, "lon": -118.2590471}, {"type": "node", "id": 4281438291, "lat": 34.1041762, "lon": -118.2588665}, {"type": "node", "id": 4281438299, "lat": 34.1041832, "lon": -118.258858}, {"type": "node", "id": 4282369288, "lat": 34.0863968, "lon": -118.2194806}, {"type": "node", "id": 4282369498, "lat": 34.0864929, "lon": -118.2193904}, {"type": "node", "id": 4282369504, "lat": 34.0865004, "lon": -118.2196415}, {"type": "node", "id": 4282369569, "lat": 34.0865484, "lon": -118.2195964}, {"type": "node", "id": 4282369582, "lat": 34.0865544, "lon": -118.2196057}, {"type": "node", "id": 4282369624, "lat": 34.0865838, "lon": -118.2195621}, {"type": "node", "id": 4282369626, "lat": 34.0865902, "lon": -118.2195721}, {"type": "node", "id": 4282369633, "lat": 34.086596, "lon": -118.2195506}, {"type": "node", "id": 4284320266, "lat": 34.0956926, "lon": -118.3721512}, {"type": "node", "id": 4284320270, "lat": 34.0957156, "lon": -118.3720672}, {"type": "node", "id": 4284320282, "lat": 34.0957822, "lon": -118.3721869}, {"type": "node", "id": 4284320286, "lat": 34.0958051, "lon": -118.3721029}, {"type": "node", "id": 4299504769, "lat": 34.2076624, "lon": -118.5096948}, {"type": "node", "id": 4299504770, "lat": 34.2076632, "lon": -118.5096148}, {"type": "node", "id": 4299505123, "lat": 34.2077472, "lon": -118.5096158}, {"type": "node", "id": 4299505124, "lat": 34.2077474, "lon": -118.5096038}, {"type": "node", "id": 4299505129, "lat": 34.2077512, "lon": -118.5096038}, {"type": "node", "id": 4299505130, "lat": 34.2077513, "lon": -118.5095928}, {"type": "node", "id": 4299505131, "lat": 34.2077537, "lon": -118.5097068}, {"type": "node", "id": 4299505132, "lat": 34.2077538, "lon": -118.5096968}, {"type": "node", "id": 4299505176, "lat": 34.2077809, "lon": -118.5097078}, {"type": "node", "id": 4299505177, "lat": 34.2077815, "lon": -118.5096528}, {"type": "node", "id": 4299505178, "lat": 34.2077829, "lon": -118.5096058}, {"type": "node", "id": 4299505180, "lat": 34.207783, "lon": -118.5095928}, {"type": "node", "id": 4299505195, "lat": 34.2077898, "lon": -118.5096538}, {"type": "node", "id": 4299505199, "lat": 34.2077903, "lon": -118.5096058}, {"type": "node", "id": 4299728234, "lat": 34.2027699, "lon": -118.597503}, {"type": "node", "id": 4299728235, "lat": 34.2027701, "lon": -118.597445}, {"type": "node", "id": 4299728238, "lat": 34.2027703, "lon": -118.597436}, {"type": "node", "id": 4299728239, "lat": 34.2027705, "lon": -118.597395}, {"type": "node", "id": 4299728244, "lat": 34.2027758, "lon": -118.597503}, {"type": "node", "id": 4299728249, "lat": 34.2027772, "lon": -118.597436}, {"type": "node", "id": 4299728250, "lat": 34.2027772, "lon": -118.597445}, {"type": "node", "id": 4299728251, "lat": 34.2027773, "lon": -118.597395}, {"type": "node", "id": 4299728258, "lat": 34.2028385, "lon": -118.597334}, {"type": "node", "id": 4299728259, "lat": 34.2028385, "lon": -118.59735}, {"type": "node", "id": 4299728260, "lat": 34.202856, "lon": -118.597496}, {"type": "node", "id": 4299728261, "lat": 34.2028564, "lon": -118.59737}, {"type": "node", "id": 4299728262, "lat": 34.2028647, "lon": -118.59737}, {"type": "node", "id": 4299728263, "lat": 34.2028648, "lon": -118.597431}, {"type": "node", "id": 4299728264, "lat": 34.202865, "lon": -118.597468}, {"type": "node", "id": 4299728265, "lat": 34.2028651, "lon": -118.597496}, {"type": "node", "id": 4299728266, "lat": 34.2028711, "lon": -118.597431}, {"type": "node", "id": 4299728267, "lat": 34.2028712, "lon": -118.597468}, {"type": "node", "id": 4300511456, "lat": 34.2006675, "lon": -118.5706227}, {"type": "node", "id": 4300511457, "lat": 34.2006679, "lon": -118.5705587}, {"type": "node", "id": 4300511464, "lat": 34.2006954, "lon": -118.5705597}, {"type": "node", "id": 4300511465, "lat": 34.200696, "lon": -118.5704727}, {"type": "node", "id": 4300511466, "lat": 34.2006984, "lon": -118.5706227}, {"type": "node", "id": 4300511467, "lat": 34.2006985, "lon": -118.5706177}, {"type": "node", "id": 4300511480, "lat": 34.2007156, "lon": -118.5704527}, {"type": "node", "id": 4300511595, "lat": 34.2007462, "lon": -118.5706177}, {"type": "node", "id": 4300511596, "lat": 34.2007462, "lon": -118.5706227}, {"type": "node", "id": 4300511601, "lat": 34.2007628, "lon": -118.5704467}, {"type": "node", "id": 4300511602, "lat": 34.2007628, "lon": -118.5704527}, {"type": "node", "id": 4300511669, "lat": 34.200872, "lon": -118.5706247}, {"type": "node", "id": 4300511670, "lat": 34.2008721, "lon": -118.5706047}, {"type": "node", "id": 4300511671, "lat": 34.2008734, "lon": -118.5704667}, {"type": "node", "id": 4300511672, "lat": 34.2008735, "lon": -118.5704477}, {"type": "node", "id": 4300511674, "lat": 34.2008862, "lon": -118.5706047}, {"type": "node", "id": 4300511675, "lat": 34.2008871, "lon": -118.5704667}, {"type": "node", "id": 4302256174, "lat": 34.2352156, "lon": -118.4859147}, {"type": "node", "id": 4302639933, "lat": 34.2651094, "lon": -118.5239421}, {"type": "node", "id": 4302639934, "lat": 34.2651097, "lon": -118.5237903}, {"type": "node", "id": 4302639983, "lat": 34.2651833, "lon": -118.5239423}, {"type": "node", "id": 4302639984, "lat": 34.2651834, "lon": -118.5239262}, {"type": "node", "id": 4302640031, "lat": 34.2652207, "lon": -118.5237867}, {"type": "node", "id": 4302640032, "lat": 34.2652207, "lon": -118.5237907}, {"type": "node", "id": 4302640038, "lat": 34.2652274, "lon": -118.5237817}, {"type": "node", "id": 4302640039, "lat": 34.2652274, "lon": -118.5237867}, {"type": "node", "id": 4302640070, "lat": 34.2652577, "lon": -118.5237818}, {"type": "node", "id": 4302640071, "lat": 34.2652577, "lon": -118.5237869}, {"type": "node", "id": 4302640083, "lat": 34.2652637, "lon": -118.5238006}, {"type": "node", "id": 4302640084, "lat": 34.2652638, "lon": -118.523787}, {"type": "node", "id": 4302640121, "lat": 34.2653156, "lon": -118.5239089}, {"type": "node", "id": 4302640122, "lat": 34.2653158, "lon": -118.5238008}, {"type": "node", "id": 4302640123, "lat": 34.265321, "lon": -118.5239089}, {"type": "node", "id": 4302640124, "lat": 34.265321, "lon": -118.5239267}, {"type": "node", "id": 4303894100, "lat": 34.2346423, "lon": -118.4671669}, {"type": "node", "id": 4303894102, "lat": 34.2346426, "lon": -118.467236}, {"type": "node", "id": 4303894226, "lat": 34.2346357, "lon": -118.4672361}, {"type": "node", "id": 4303894227, "lat": 34.2346361, "lon": -118.4673164}, {"type": "node", "id": 4303894268, "lat": 34.2347025, "lon": -118.46731}, {"type": "node", "id": 4303894269, "lat": 34.2347026, "lon": -118.4673159}, {"type": "node", "id": 4303894280, "lat": 34.2347126, "lon": -118.4672976}, {"type": "node", "id": 4303894389, "lat": 34.2347212, "lon": -118.4673077}, {"type": "node", "id": 4303894406, "lat": 34.2347338, "lon": -118.4672737}, {"type": "node", "id": 4303894409, "lat": 34.2347415, "lon": -118.4672829}, {"type": "node", "id": 4303894423, "lat": 34.2347507, "lon": -118.467253}, {"type": "node", "id": 4304007489, "lat": 34.1668023, "lon": -118.5886684}, {"type": "node", "id": 4304007493, "lat": 34.1668042, "lon": -118.5886908}, {"type": "node", "id": 4304007500, "lat": 34.1668285, "lon": -118.5884711}, {"type": "node", "id": 4304007518, "lat": 34.1668752, "lon": -118.5885151}, {"type": "node", "id": 4304007587, "lat": 34.1669547, "lon": -118.5887084}, {"type": "node", "id": 4304007695, "lat": 34.1669856, "lon": -118.5887038}, {"type": "node", "id": 4304036161, "lat": 34.1578361, "lon": -118.3786631}, {"type": "node", "id": 4304036162, "lat": 34.1578363, "lon": -118.3786319}, {"type": "node", "id": 4304036163, "lat": 34.157846, "lon": -118.3787332}, {"type": "node", "id": 4304036164, "lat": 34.1578463, "lon": -118.3786632}, {"type": "node", "id": 4304036169, "lat": 34.157898, "lon": -118.3787956}, {"type": "node", "id": 4304036172, "lat": 34.1579769, "lon": -118.3787957}, {"type": "node", "id": 4304036173, "lat": 34.157977, "lon": -118.3787069}, {"type": "node", "id": 4304036174, "lat": 34.1579815, "lon": -118.3786332}, {"type": "node", "id": 4304036175, "lat": 34.1579815, "lon": -118.3786419}, {"type": "node", "id": 4304036178, "lat": 34.1579883, "lon": -118.378642}, {"type": "node", "id": 4304036181, "lat": 34.1579875, "lon": -118.3787068}, {"type": "node", "id": 4304066527, "lat": 34.1650028, "lon": -118.5252567}, {"type": "node", "id": 4304066528, "lat": 34.1650048, "lon": -118.5253654}, {"type": "node", "id": 4304066529, "lat": 34.1650294, "lon": -118.5252122}, {"type": "node", "id": 4304066530, "lat": 34.1650302, "lon": -118.525256}, {"type": "node", "id": 4304066533, "lat": 34.1651007, "lon": -118.5252104}, {"type": "node", "id": 4304066534, "lat": 34.1651009, "lon": -118.5252171}, {"type": "node", "id": 4304066538, "lat": 34.1651299, "lon": -118.5253511}, {"type": "node", "id": 4304066539, "lat": 34.1651301, "lon": -118.5253621}, {"type": "node", "id": 4304066548, "lat": 34.1651729, "lon": -118.52535}, {"type": "node", "id": 4304066550, "lat": 34.1651731, "lon": -118.525362}, {"type": "node", "id": 4304066555, "lat": 34.1651774, "lon": -118.5252151}, {"type": "node", "id": 4304066556, "lat": 34.1651776, "lon": -118.5252219}, {"type": "node", "id": 4304066563, "lat": 34.1651982, "lon": -118.5253499}, {"type": "node", "id": 4304066564, "lat": 34.1651984, "lon": -118.5253614}, {"type": "node", "id": 4304066566, "lat": 34.165222, "lon": -118.5252208}, {"type": "node", "id": 4304066567, "lat": 34.1652243, "lon": -118.5253493}, {"type": "node", "id": 4304124225, "lat": 34.2198904, "lon": -118.6053783}, {"type": "node", "id": 4304124226, "lat": 34.2198908, "lon": -118.6052823}, {"type": "node", "id": 4304124393, "lat": 34.2199897, "lon": -118.6052833}, {"type": "node", "id": 4304124394, "lat": 34.2199899, "lon": -118.6052403}, {"type": "node", "id": 4304124406, "lat": 34.2200262, "lon": -118.6052823}, {"type": "node", "id": 4304124407, "lat": 34.2200263, "lon": -118.6052403}, {"type": "node", "id": 4304124419, "lat": 34.2200343, "lon": -118.6052823}, {"type": "node", "id": 4304124420, "lat": 34.2200344, "lon": -118.6052683}, {"type": "node", "id": 4304124440, "lat": 34.2200883, "lon": -118.6052693}, {"type": "node", "id": 4304124441, "lat": 34.2200883, "lon": -118.6052743}, {"type": "node", "id": 4304124442, "lat": 34.2201003, "lon": -118.6052743}, {"type": "node", "id": 4304124443, "lat": 34.2201003, "lon": -118.6052833}, {"type": "node", "id": 4304124444, "lat": 34.2201017, "lon": -118.6053803}, {"type": "node", "id": 4304124445, "lat": 34.2201021, "lon": -118.6052833}, {"type": "node", "id": 4305971856, "lat": 34.1948291, "lon": -118.5354465}, {"type": "node", "id": 4305971857, "lat": 34.19483, "lon": -118.5357061}, {"type": "node", "id": 4305972006, "lat": 34.1949551, "lon": -118.5354482}, {"type": "node", "id": 4305972008, "lat": 34.1949558, "lon": -118.5356081}, {"type": "node", "id": 4305972009, "lat": 34.194956, "lon": -118.5355134}, {"type": "node", "id": 4305972010, "lat": 34.1949562, "lon": -118.5357055}, {"type": "node", "id": 4305972022, "lat": 34.194963, "lon": -118.5355133}, {"type": "node", "id": 4305972023, "lat": 34.1949634, "lon": -118.5355461}, {"type": "node", "id": 4305972026, "lat": 34.1949685, "lon": -118.535546}, {"type": "node", "id": 4305972029, "lat": 34.194969, "lon": -118.5356081}, {"type": "node", "id": 4306166660, "lat": 34.1862675, "lon": -118.5355163}, {"type": "node", "id": 4306166667, "lat": 34.1861455, "lon": -118.5355977}, {"type": "node", "id": 4306167790, "lat": 34.1861458, "lon": -118.5355155}, {"type": "node", "id": 4306167921, "lat": 34.1862676, "lon": -118.5354853}, {"type": "node", "id": 4306167975, "lat": 34.1863144, "lon": -118.5354855}, {"type": "node", "id": 4306167977, "lat": 34.1863143, "lon": -118.5355146}, {"type": "node", "id": 4306168118, "lat": 34.1863473, "lon": -118.5355148}, {"type": "node", "id": 4306168167, "lat": 34.186347, "lon": -118.5355954}, {"type": "node", "id": 4306237023, "lat": 34.178968, "lon": -118.5958327}, {"type": "node", "id": 4306237024, "lat": 34.1789691, "lon": -118.5958173}, {"type": "node", "id": 4306237029, "lat": 34.1789777, "lon": -118.5958173}, {"type": "node", "id": 4306237030, "lat": 34.1789777, "lon": -118.5958327}, {"type": "node", "id": 4308901771, "lat": 34.1986702, "lon": -118.4658757}, {"type": "node", "id": 4308901773, "lat": 34.198671, "lon": -118.4656489}, {"type": "node", "id": 4308902752, "lat": 34.19889, "lon": -118.4658768}, {"type": "node", "id": 4308902753, "lat": 34.1988907, "lon": -118.46565}, {"type": "node", "id": 4310644928, "lat": 34.2347783, "lon": -118.5358602}, {"type": "node", "id": 4310646361, "lat": 34.2348835, "lon": -118.5358404}, {"type": "node", "id": 4311235149, "lat": 34.1520187, "lon": -118.3666032}, {"type": "node", "id": 4311235150, "lat": 34.1520187, "lon": -118.3666453}, {"type": "node", "id": 4311235153, "lat": 34.1520207, "lon": -118.3666562}, {"type": "node", "id": 4311235155, "lat": 34.1520236, "lon": -118.3666038}, {"type": "node", "id": 4311235156, "lat": 34.152024, "lon": -118.3666424}, {"type": "node", "id": 4311235157, "lat": 34.1520244, "lon": -118.3665863}, {"type": "node", "id": 4311235162, "lat": 34.1520264, "lon": -118.3666504}, {"type": "node", "id": 4311235163, "lat": 34.1520266, "lon": -118.3665923}, {"type": "node", "id": 4311235184, "lat": 34.1520488, "lon": -118.3665565}, {"type": "node", "id": 4311235185, "lat": 34.1520494, "lon": -118.366689}, {"type": "node", "id": 4311235290, "lat": 34.1520526, "lon": -118.3665605}, {"type": "node", "id": 4311235302, "lat": 34.1520591, "lon": -118.3665588}, {"type": "node", "id": 4311235305, "lat": 34.1520606, "lon": -118.3665502}, {"type": "node", "id": 4311235306, "lat": 34.1520609, "lon": -118.3666947}, {"type": "node", "id": 4311235359, "lat": 34.1520938, "lon": -118.3665495}, {"type": "node", "id": 4311235362, "lat": 34.1520944, "lon": -118.366557}, {"type": "node", "id": 4311235364, "lat": 34.1520949, "lon": -118.3666941}, {"type": "node", "id": 4311235689, "lat": 34.1521088, "lon": -118.3666883}, {"type": "node", "id": 4311235693, "lat": 34.152112, "lon": -118.3665575}, {"type": "node", "id": 4311235700, "lat": 34.1521283, "lon": -118.366592}, {"type": "node", "id": 4311235701, "lat": 34.1521295, "lon": -118.3666569}, {"type": "node", "id": 4311235703, "lat": 34.1521317, "lon": -118.3666589}, {"type": "node", "id": 4311235705, "lat": 34.1521326, "lon": -118.366584}, {"type": "node", "id": 4311235706, "lat": 34.1521384, "lon": -118.3666465}, {"type": "node", "id": 4311235707, "lat": 34.1521388, "lon": -118.3666012}, {"type": "node", "id": 4312414303, "lat": 34.1520528, "lon": -118.3666842}, {"type": "node", "id": 4312414321, "lat": 34.1520611, "lon": -118.3666913}, {"type": "node", "id": 4312414359, "lat": 34.152096, "lon": -118.3666892}, {"type": "node", "id": 4312414363, "lat": 34.1520974, "lon": -118.3665594}, {"type": "node", "id": 4312414368, "lat": 34.1521014, "lon": -118.3665608}, {"type": "node", "id": 4312414371, "lat": 34.1521056, "lon": -118.3666852}, {"type": "node", "id": 4312414493, "lat": 34.152128, "lon": -118.3666557}, {"type": "node", "id": 4312414499, "lat": 34.152131, "lon": -118.3665996}, {"type": "node", "id": 4312414504, "lat": 34.1521325, "lon": -118.3666464}, {"type": "node", "id": 4313946435, "lat": 34.2598828, "lon": -118.3131663}, {"type": "node", "id": 4313946436, "lat": 34.2598831, "lon": -118.3130241}, {"type": "node", "id": 4313946453, "lat": 34.25996, "lon": -118.3131665}, {"type": "node", "id": 4313946454, "lat": 34.25996, "lon": -118.3131716}, {"type": "node", "id": 4313946456, "lat": 34.2599615, "lon": -118.3130211}, {"type": "node", "id": 4313946457, "lat": 34.2599615, "lon": -118.3130242}, {"type": "node", "id": 4313946485, "lat": 34.2600512, "lon": -118.3130213}, {"type": "node", "id": 4313946486, "lat": 34.2600512, "lon": -118.3130247}, {"type": "node", "id": 4313946541, "lat": 34.2601202, "lon": -118.3131718}, {"type": "node", "id": 4313946542, "lat": 34.2601204, "lon": -118.3130249}, {"type": "node", "id": 4319969197, "lat": 34.2210247, "lon": -118.5019819}, {"type": "node", "id": 4319969198, "lat": 34.2210303, "lon": -118.5019821}, {"type": "node", "id": 4319969199, "lat": 34.2210317, "lon": -118.5019509}, {"type": "node", "id": 4321956738, "lat": 34.2347747, "lon": -118.5357025}, {"type": "node", "id": 4321956741, "lat": 34.2348471, "lon": -118.5358404}, {"type": "node", "id": 4321956742, "lat": 34.2348471, "lon": -118.5358603}, {"type": "node", "id": 4321976315, "lat": 34.1988901, "lon": -118.4658304}, {"type": "node", "id": 4321976316, "lat": 34.1988904, "lon": -118.465758}, {"type": "node", "id": 4321976317, "lat": 34.1988944, "lon": -118.4658304}, {"type": "node", "id": 4321976318, "lat": 34.1988946, "lon": -118.465758}, {"type": "node", "id": 4361577688, "lat": 34.2845114, "lon": -118.4415764}, {"type": "node", "id": 4361577777, "lat": 34.284644, "lon": -118.4417068}, {"type": "node", "id": 4361577778, "lat": 34.2846452, "lon": -118.4415887}, {"type": "node", "id": 4361577786, "lat": 34.2846517, "lon": -118.4415797}, {"type": "node", "id": 4361577788, "lat": 34.2846593, "lon": -118.4416267}, {"type": "node", "id": 4361577792, "lat": 34.2846699, "lon": -118.4415991}, {"type": "node", "id": 4361577804, "lat": 34.2846752, "lon": -118.4416048}, {"type": "node", "id": 4361577813, "lat": 34.2846785, "lon": -118.4416594}, {"type": "node", "id": 4361590800, "lat": 34.0332312, "lon": -118.229862, "tags": {"addr:housenumber": "806", "addr:street": "Santa Fe Avenue", "amenity": "cafe", "brand": "Stumptown Coffee Roasters", "brand:wikidata": "Q2695932", "cuisine": "coffee_shop", "name": "Stumptown Coffee Roasters", "name:en": "Stumptown Coffee Roasters", "name:es": "Stumptown Coffee Roasters", "takeaway": "yes"}}, {"type": "node", "id": 4399334441, "lat": 34.0557213, "lon": -118.2702464, "tags": {"amenity": "cafe", "brand": "Starbucks", "brand:wikidata": "Q37158", "contact:website": "https://www.starbucks.com/store-locator/store/11305/wilshire-union-1601-wilshire-blvd-los-angeles-ca-900171610-us", "cuisine": "coffee_shop", "name": "Starbucks", "official_name": "Starbucks Coffee", "opening_hours": "Mo-Sa 05:00-22:00; Su 05:30-21:00", "operator": "Starbucks", "takeaway": "yes", "wheelchair": "yes"}}, {"type": "node", "id": 4399693642, "lat": 34.0246634, "lon": -118.288073, "tags": {"amenity": "cafe", "brand": "Starbucks", "brand:wikidata": "Q37158", "cuisine": "coffee_shop", "name": "Starbucks", "official_name": "Starbucks Coffee", "opening_hours": "Mo-Su 00:00-24:00", "operator": "University of Southern California", "takeaway": "yes", "wheelchair": "yes"}}, {"type": "node", "id": 4409001114, "lat": 34.056116, "lon": -118.235469}, {"type": "node", "id": 4409001123, "lat": 34.0561251, "lon": -118.235467}, {"type": "node", "id": 4409001131, "lat": 34.0561318, "lon": -118.2355757}, {"type": "node", "id": 4409001137, "lat": 34.056141, "lon": -118.2355737}, {"type": "node", "id": 4409001141, "lat": 34.0561425, "lon": -118.2355842}, {"type": "node", "id": 4409001168, "lat": 34.0561724, "lon": -118.235457}, {"type": "node", "id": 4409001176, "lat": 34.0561878, "lon": -118.2355638}, {"type": "node", "id": 4409001177, "lat": 34.0561893, "lon": -118.2355742}, {"type": "node", "id": 4430287232, "lat": 33.9706135, "lon": -118.419012, "tags": {"amenity": "cafe", "brand": "Starbucks", "brand:wikidata": "Q37158", "cuisine": "coffee_shop", "internet_access": "wlan", "name": "Starbucks", "official_name": "Starbucks Coffee", "takeaway": "yes"}}, {"type": "node", "id": 4467210089, "lat": 34.0910074, "lon": -118.3617135, "tags": {"addr:city": "West Hollywood", "addr:housenumber": "7901", "addr:postcode": "90046", "addr:state": "CA", "addr:street": "Santa Monica Boulevard", "amenity": "cafe", "brand": "Starbucks", "brand:wikidata": "Q37158", "cuisine": "coffee_shop", "internet_access": "wlan", "name": "Starbucks", "official_name": "Starbucks Coffee", "opening_hours": "Mo-Th 04:30-20:30; Fr 04:30-21:00; Sa 05:30-21:00; Su 05:30-20:30", "outdoor_seating": "yes", "phone": "+1-323-822-9733", "source": "mapillary", "takeaway": "yes", "website": "https://www.starbucks.com/store-locator/store/15200/santa-monica-fairfax-7901-santa-monica-blvd-santa-monica-fairfax-west-h"}}, {"type": "node", "id": 4489598062, "lat": 34.2347503, "lon": -118.4671655}, {"type": "node", "id": 4582147852, "lat": 34.0270635, "lon": -118.38758, "tags": {"addr:city": "Culver City", "addr:housenumber": "8830", "addr:postcode": "90232", "addr:state": "CA", "addr:street": "Washington Boulevard #103", "amenity": "cafe", "brand": "Blue Bottle Coffee", "brand:wikidata": "Q4928917", "cuisine": "coffee_shop", "internet_access": "wlan", "name": "Blue Bottle Coffee", "opening_hours": "Mo-Fr 06:30-17:00; Sa,Su 07:00-17:00", "outdoor_seating": "yes", "takeaway": "yes", "website": "https://bluebottlecoffee.com/cafes/hayden-tract"}}, {"type": "node", "id": 4597549568, "lat": 34.0491987, "lon": -118.2604695, "tags": {"amenity": "cafe", "brand": "Starbucks", "brand:wikidata": "Q37158", "contact:website": "https://www.starbucks.com/store-locator/store/8888/7th-figueroa-fi-gat-7th-735-s-figueroa-street-308-los-angeles-ca-900172563", "cuisine": "coffee_shop", "name": "Starbucks", "official_name": "Starbucks Coffee", "takeaway": "yes"}}, {"type": "node", "id": 4708595790, "lat": 34.0731026, "lon": -118.383619, "tags": {"amenity": "cafe", "brand": "Le Pain Quotidien", "brand:wikidata": "Q2046903", "cuisine": "coffee_shop", "name": "Le Pain Quotidien", "name:en": "Le Pain Quotidien Robertson", "shop": "bakery", "takeaway": "yes"}}, {"type": "node", "id": 4711222950, "lat": 34.1524029, "lon": -118.351455, "tags": {"addr:city": "Toluca Lake", "addr:housenumber": "10121", "addr:postcode": "91602", "addr:state": "CA", "addr:street": "Riverside Drive", "amenity": "cafe", "brand": "The Coffee Bean & Tea Leaf", "brand:wikidata": "Q1141384", "cuisine": "coffee_shop", "name": "The Coffee Bean & Tea Leaf", "opening_hours": "Mo-Fr 05:00-21:00; Sa, Su 06:00-20:00", "phone": "+1-818-763-4815", "takeaway": "yes", "website": "https://www.coffeebean.com/"}}, {"type": "node", "id": 4727204318, "lat": 34.0534844, "lon": -118.465181, "tags": {"addr:city": "Los Angeles", "addr:housenumber": "11698", "addr:postcode": "90049", "addr:state": "CA", "addr:street": "West San Vicente Boulevard", "amenity": "cafe", "brand": "The Coffee Bean & Tea Leaf", "brand:wikidata": "Q1141384", "cuisine": "coffee_shop", "internet_access": "wlan", "internet_access:fee": "no", "name": "The Coffee Bean & Tea Leaf", "opening_hours": "Su-Sa 10:00-22:00", "outdoor_seating": "yes", "takeaway": "yes"}}, {"type": "node", "id": 4730598229, "lat": 34.062675, "lon": -118.353905, "tags": {"amenity": "cafe", "brand": "Starbucks", "brand:wikidata": "Q37158", "contact:website": "https://www.starbucks.com/store-locator/store/19370/wilshire-curson-5757-wilshire-blvd-106-los-angeles-ca-900365810-us", "cuisine": "coffee_shop", "name": "Starbucks", "official_name": "Starbucks Coffee", "opening_hours": "Mo-Fr 05:00-20:00; Sa 05:30-19:00; Su 06:00-19:00", "takeaway": "yes"}}, {"type": "node", "id": 4757127043, "lat": 34.1407398, "lon": -118.3567781, "tags": {"amenity": "cafe", "brand": "Starbucks", "brand:wikidata": "Q37158", "contact:website": "https://www.starbucks.com/store-locator/store/1009000/un-studios-hollywood-lower-le-100-universal-city-plaza-universal-city-ca-91608-u", "cuisine": "coffee_shop", "name": "Starbucks", "official_name": "Starbucks Coffee", "takeaway": "yes"}}, {"type": "node", "id": 4757165419, "lat": 34.1364653, "lon": -118.352927, "tags": {"amenity": "cafe", "brand": "Starbucks", "brand:wikidata": "Q37158", "cuisine": "coffee_shop", "name": "Starbucks", "official_name": "Starbucks Coffee", "takeaway": "yes"}}, {"type": "node", "id": 4810513604, "lat": 33.9417177, "lon": -118.4043977, "tags": {"amenity": "cafe", "brand": "The Coffee Bean & Tea Leaf", "brand:wikidata": "Q1141384", "cuisine": "coffee_shop", "name": "The Coffee Bean & Tea Leaf", "takeaway": "yes"}}, {"type": "node", "id": 4833777021, "lat": 33.9796822, "lon": -118.438938, "tags": {"addr:housenumber": "4700", "addr:postcode": "90292", "addr:street": "Admiralty Way", "amenity": "cafe", "brand": "Starbucks", "brand:wikidata": "Q37158", "contact:website": "https://www.starbucks.com/store-locator/store/1005158/ralphs-marina-del-rey-279-4700-admiralty-way-marina-del-rey-ca-90292-us", "cuisine": "coffee_shop", "name": "Starbucks (Inside Ralphs)", "name:en": "Starbucks", "official_name": "Starbucks Coffee", "opening_hours": "Mo-Su 05:00-20:00", "phone": "+1 (310) 821-6225", "takeaway": "yes", "wheelchair": "yes"}}, {"type": "node", "id": 4885688170, "lat": 34.0459668, "lon": -118.2511885, "tags": {"addr:city": "Los Angeles", "addr:housenumber": "603", "addr:street": "South Spring Street", "amenity": "cafe", "brand": "Starbucks", "brand:wikidata": "Q37158", "contact:website": "https://www.starbucks.com/store-locator/store/91231/6th-spring-603-s-spring-street-los-angeles-ca-900141902-us", "cuisine": "coffee_shop", "name": "Starbucks", "official_name": "Starbucks Coffee", "phone": "+1 213 623 2751", "takeaway": "yes"}}, {"type": "node", "id": 4903114325, "lat": 34.0870001, "lon": -118.3814124, "tags": {"addr:city": "West Hollywood", "addr:housenumber": "8735", "addr:postcode": "90069", "addr:state": "CA", "addr:street": "Santa Monica Boulevard", "amenity": "cafe", "brand": "The Coffee Bean & Tea Leaf", "brand:wikidata": "Q1141384", "cuisine": "coffee_shop", "internet_access": "wlan", "internet_access:fee": "no", "name": "The Coffee Bean & Tea Leaf", "opening_hours": "Mo-Th 06:00-21:00; Fr-Sa 06:00-22:00; Su 19:00-22:00", "phone": "+1-310-659-8207", "source": "mapillary", "takeaway": "yes", "website": "https://www.coffeebean.com/store/usa/west-hollywood/west-hollywood"}}, {"type": "node", "id": 4984040951, "lat": 34.0481785, "lon": -118.2463485, "tags": {"addr:city": "Los Angeles", "addr:housenumber": "334", "addr:postcode": "90013", "addr:state": "CA", "addr:street": "South Main Street", "amenity": "cafe", "cuisine": "coffee_shop", "name": "Tilt Coffee Bar", "opening_hours": "Mo-Sa 07:00-19:00, Su 09:00-18:00", "outdoor_seating": "yes"}}, {"type": "node", "id": 5001851553, "lat": 34.0305454, "lon": -118.4157859}, {"type": "node", "id": 5001851554, "lat": 34.0304226, "lon": -118.4157652}, {"type": "node", "id": 5001851555, "lat": 34.0304341, "lon": -118.4156656}, {"type": "node", "id": 5001851556, "lat": 34.0305569, "lon": -118.4156863}, {"type": "node", "id": 5041640921, "lat": 34.048553, "lon": -118.337176, "tags": {"amenity": "cafe", "brand": "Starbucks", "brand:wikidata": "Q37158", "contact:website": "https://www.starbucks.com/store-locator/store/17873/pico-san-vicente-4700-west-pico-blvd-suite-b-los-angeles-ca-9001942", "cuisine": "coffee_shop", "name": "Starbucks", "name:en": "Starbucks", "name:ru": "Starbucks", "official_name": "Starbucks Coffee", "takeaway": "yes"}}, {"type": "node", "id": 5044912221, "lat": 34.0621954, "lon": -118.445595, "tags": {"addr:housenumber": "1019", "addr:postcode": "90024", "addr:street": "Westwood Boulevard", "air_conditioning": "yes", "amenity": "cafe", "brand": "Corner Bakery", "brand:wikidata": "Q5171598", "cuisine": "coffee_shop", "name": "Corner Bakery", "opening_hours": "Mo-Fr 07:00-21:00; Sa-Su 08:00-21:00", "takeaway": "yes"}}, {"type": "node", "id": 5092543669, "lat": 34.1578817, "lon": -118.6347795, "tags": {"amenity": "cafe", "brand": "Starbucks", "brand:wikidata": "Q37158", "contact:website": "https://www.starbucks.com/store-locator/store/115369/mulholland-calabasas-23335-mulholland-drive-woodland-hills-ca-913642734", "cuisine": "coffee_shop", "name": "Starbucks", "official_name": "Starbucks Coffee", "takeaway": "yes"}}, {"type": "node", "id": 5101066695, "lat": 34.0446872, "lon": -118.45442, "tags": {"amenity": "cafe", "cuisine": "coffee_shop", "name": "Good People", "outdoor_seating": "yes"}}, {"type": "node", "id": 5101879201, "lat": 34.0487978, "lon": -118.435704, "tags": {"addr:city": "Los Angeles", "addr:housenumber": "1854", "addr:postcode": "90025", "addr:state": "CA", "addr:street": "Westwood Boulevard", "amenity": "cafe", "brand": "Peet's Coffee", "brand:wikidata": "Q1094101", "cuisine": "coffee_shop", "name": "Peet's Coffee", "opening_hours": "Th-Fr 6:30-15:45, Sa-We 5:30-17:15", "phone": "+1-310-954-8558", "takeaway": "yes", "website": "https://www.peets.com/"}}, {"type": "node", "id": 5101935188, "lat": 34.0627064, "lon": -118.443909, "tags": {"amenity": "cafe", "brand": "Starbucks", "brand:wikidata": "Q37158", "contact:website": "https://www.starbucks.com/store-locator/store/89774/target-la-westwood-2774-10861-weyburn-ave-los-angeles-ca-900242957-us", "cuisine": "coffee_shop", "level": "1", "name": "Starbucks", "official_name": "Starbucks Coffee", "takeaway": "yes"}}, {"type": "node", "id": 5101935605, "lat": 34.0634774, "lon": -118.443976, "tags": {"amenity": "cafe", "brand": "Starbucks", "brand:wikidata": "Q37158", "contact:website": "https://www.starbucks.com/store-locator/store/1005300/ralphs-westwood-759-10861-weyburn-ave-westwood-ca-900242957-us", "cuisine": "coffee_shop", "level": "3", "name": "Starbucks", "official_name": "Starbucks Coffee", "takeaway": "yes"}}, {"type": "node", "id": 5101961542, "lat": 34.0702344, "lon": -118.4385067, "tags": {"amenity": "cafe", "brand": "The Coffee Bean & Tea Leaf", "brand:wikidata": "Q1141384", "cuisine": "coffee_shop", "name": "The Coffee Bean & Tea Leaf", "takeaway": "yes"}}, {"type": "node", "id": 5111896342, "lat": 34.0615432, "lon": -118.302556, "tags": {"amenity": "cafe", "brand": "The Coffee Bean & Tea Leaf", "brand:wikidata": "Q1141384", "cuisine": "coffee_shop", "name": "The Coffee Bean & Tea Leaf", "takeaway": "yes"}}, {"type": "node", "id": 5111896427, "lat": 34.0614747, "lon": -118.2998262, "tags": {"amenity": "cafe", "brand": "Starbucks", "brand:wikidata": "Q37158", "contact:website": "https://www.starbucks.com/store-locator/store/91227/wilshire-normandie-3450-wilshire-blvd-los-angeles-ca-900102208-us", "cuisine": "coffee_shop", "name": "Starbucks", "official_name": "Starbucks Coffee", "takeaway": "yes"}}, {"type": "node", "id": 5112123926, "lat": 34.0620121, "lon": -118.298986, "tags": {"amenity": "cafe", "brand": "The Coffee Bean & Tea Leaf", "brand:wikidata": "Q1141384", "cuisine": "coffee_shop", "name": "The Coffee Bean & Tea Leaf", "takeaway": "yes"}}, {"type": "node", "id": 5116078823, "lat": 34.0620242, "lon": -118.291101, "tags": {"amenity": "cafe", "brand": "The Coffee Bean & Tea Leaf", "brand:wikidata": "Q1141384", "cuisine": "coffee_shop", "name": "The Coffee Bean & Tea Leaf", "takeaway": "yes"}}, {"type": "node", "id": 5116078824, "lat": 34.0613794, "lon": -118.2912663, "tags": {"amenity": "cafe", "brand": "Starbucks", "brand:wikidata": "Q37158", "contact:website": "https://www.starbucks.com/store-locator/store/1007346/vermont-wilshire-3150-wilshire-blvd-los-angeles-ca-900101305-us", "cuisine": "coffee_shop", "name": "Starbucks", "official_name": "Starbucks Coffee", "takeaway": "yes"}}, {"type": "node", "id": 5124572330, "lat": 33.9990879, "lon": -118.4615641, "tags": {"amenity": "cafe", "brand": "Starbucks", "brand:wikidata": "Q37158", "contact:website": "https://www.starbucks.com/store-locator/store/1006778/ralphs-venice-281-910-lincoln-blvd-venice-ca-90291-us", "cuisine": "coffee_shop", "name": "Starbucks", "official_name": "Starbucks Coffee", "takeaway": "yes"}}, {"type": "node", "id": 5126042960, "lat": 34.0910301, "lon": -118.383248, "tags": {"addr:city": "West Hollywood", "addr:housenumber": "8789", "addr:postcode": "90069", "addr:state": "CA", "addr:street": "West Sunset Boulevard", "amenity": "cafe", "brand": "The Coffee Bean & Tea Leaf", "brand:wikidata": "Q1141384", "cuisine": "coffee_shop", "internet_access": "yes", "name": "The Coffee Bean & Tea Leaf", "opening_hours": "Mo-Th 05:30-23:00; Fr 05:30-00:00, Sa 06:00-00:00, Su 06:00-23:00", "phone": "+1-310-659-4592", "takeaway": "yes", "website": "https://www.coffeebean.com/store/usa/west-hollywood/sunset-and-horn"}}, {"type": "node", "id": 5162444631, "lat": 34.0719415, "lon": -118.3616547, "tags": {"amenity": "cafe", "brand": "Peet's Coffee", "brand:wikidata": "Q1094101", "cuisine": "coffee_shop", "name": "Peet's Coffee", "takeaway": "yes"}}, {"type": "node", "id": 5206110756, "lat": 34.0841454, "lon": -118.3858517, "tags": {"addr:city": "West Hollywood", "addr:housenumber": "8969", "addr:postcode": "90069", "addr:state": "CA", "addr:street": "North Robertson Boulevard", "amenity": "cafe", "brand": "Starbucks", "brand:wikidata": "Q37158", "cuisine": "coffee_shop", "internet_access": "no", "name": "Starbucks", "official_name": "Starbucks Coffee", "opening_hours": "Mo-Su 06:00-21:00", "outdoor_seating": "yes", "phone": "+1-310-595-1737", "source": "mapillary", "takeaway": "yes", "website": "https://www.starbucks.com/store-locator/store/9991/vons-west-hollywood-2739-8969-santa-monica-blvd-west-hollywood-ca-900694934"}}, {"type": "node", "id": 5206110781, "lat": 34.0835336, "lon": -118.3865519, "tags": {"addr:city": "West Hollywood", "addr:housenumber": "8951", "addr:postcode": "90069", "addr:state": "CA", "addr:street": "Santa Monica Boulevard", "amenity": "cafe", "brand": "Starbucks", "brand:wikidata": "Q37158", "cuisine": "coffee_shop", "internet_access": "wlan", "name": "Starbucks", "official_name": "Starbucks Coffee", "opening_hours": "Su-Th 05:00-21:30; Fr,Sa 05:00-23:00", "outdoor_seating": "yes", "phone": "+1-858-472-9420", "source": "mapillary", "takeaway": "yes", "website": "https://www.starbucks.com/store-locator/store/9991/vons-west-hollywood-2739-8969-santa-monica-blvd-west-hollywood-ca-900694934"}}, {"type": "node", "id": 5229416639, "lat": 34.1111365, "lon": -118.287256, "tags": {"addr:city": "Los Angeles", "addr:housenumber": "2138", "addr:postcode": "90027", "addr:state": "CA", "addr:street": "Hillhurst Avenue", "amenity": "cafe", "brand": "Starbucks Reserve", "brand:wikidata": "Q37158", "contact:website": "https://www.starbucks.com/store-locator/store/1019327/hillhurst-and-avocado-2138-hillhurst-ave-los-angeles-ca-900272012-us", "cuisine": "coffee_shop", "internet_access": "wlan", "name": "Starbucks Reserve", "opening_hours": "Mo-Su 05:00-22:00", "outdoor_seating": "yes", "phone": "+1-206-316-6270", "takeaway": "yes"}}, {"type": "node", "id": 5247087889, "lat": 34.076957, "lon": -118.3835422, "tags": {"addr:city": "West Hollywood", "addr:housenumber": "164", "addr:postcode": "90069", "addr:state": "CA", "addr:street": "North Robertson Boulevard", "amenity": "cafe", "brand": "Starbucks", "brand:wikidata": "Q37158", "cuisine": "coffee_shop", "name": "Starbucks", "official_name": "Starbucks Coffee", "opening_hours": "Mo-Fr 04:30-22:00; Sa,Su 05:00-22:00", "outdoor_seating": "yes", "phone": "+1-310-659-7370", "source": "mapillary", "takeaway": "yes", "website": "https://www.starbucks.com/store-locator/store/15639/beverly-robertson-164-n-robertson-west-hollywood-ca-900483109-us"}}, {"type": "node", "id": 5261316290, "lat": 34.024547, "lon": -118.2843329, "tags": {"addr:city": "Los Angeles", "addr:housenumber": "3201", "addr:postcode": "90089", "addr:state": "CA", "addr:street": "Hoover Street", "addr:unit": "1820", "amenity": "cafe", "brand": "Starbucks", "brand:wikidata": "Q37158", "contact:website": "https://www.starbucks.com/store-locator/store/1019324/usc-village-3201-s-hoover-st-1820-los-angeles-ca-900893545-us", "cuisine": "coffee_shop", "name": "Starbucks", "official_name": "Starbucks Coffee", "opening_hours": "Mo-Su 04:30-24:00", "takeaway": "yes"}}, {"type": "node", "id": 5287806627, "lat": 34.0595996, "lon": -118.4187233, "tags": {"addr:housenumber": "10250", "addr:postcode": "90067", "addr:street": "Santa Monica Boulevard", "amenity": "cafe", "brand": "La Colombe Coffee Roasters", "brand:wikidata": "Q23461663", "cuisine": "coffee_shop", "name": "La Colombe Coffee Roasters", "short_name": "La Colombe", "takeaway": "yes"}}, {"type": "node", "id": 5332208213, "lat": 34.3087345, "lon": -118.4315248, "tags": {"amenity": "cafe", "brand": "Starbucks", "brand:wikidata": "Q37158", "contact:website": "https://www.starbucks.com/store-locator/store/1012760/foothill-hubbard-13686-foothill-blvd-sylmar-ca-913423102-us", "cuisine": "coffee_shop", "name": "Starbucks", "official_name": "Starbucks Coffee", "takeaway": "yes"}}, {"type": "node", "id": 5335301145, "lat": 34.0507164, "lon": -118.247939, "tags": {"addr:city": "Los Angeles", "addr:housenumber": "300", "addr:postcode": "90013", "addr:state": "CA", "addr:street": "South Broadway", "amenity": "cafe", "brand": "Blue Bottle Coffee", "brand:en": "Blue Bottle Coffee", "brand:ja": "\u30d6\u30eb\u30fc\u30dc\u30c8\u30eb\u30b3\u30fc\u30d2\u30fc", "brand:wikidata": "Q4928917", "cuisine": "coffee_shop", "name": "Blue Bottle Coffee", "name:en": "Blue Bottle Coffee", "name:ja": "\u30d6\u30eb\u30fc\u30dc\u30c8\u30eb\u30b3\u30fc\u30d2\u30fc", "opening_hours": "Mo-Fr 07:00-18:00; Sa, Su 07:00-19:00", "takeaway": "yes", "website": "https://bluebottlecoffee.com/"}}, {"type": "node", "id": 5335740047, "lat": 34.0526394, "lon": -118.250898, "tags": {"amenity": "cafe", "brand": "Corner Bakery", "brand:wikidata": "Q5171598", "cuisine": "coffee_shop", "name": "Corner Bakery", "takeaway": "yes"}}, {"type": "node", "id": 5337769710, "lat": 33.942503, "lon": -118.4105158, "tags": {"amenity": "cafe", "brand": "Starbucks", "brand:wikidata": "Q37158", "contact:website": "https://www.starbucks.com/store-locator/store/1006384/lax-tom-bradley-great-hall-1-world-way-los-angeles-ca-90045-us", "cuisine": "coffee_shop", "level": "4", "name": "Starbucks", "official_name": "Starbucks Coffee", "takeaway": "yes"}}, {"type": "node", "id": 5338488654, "lat": 33.9423316, "lon": -118.4063673, "tags": {"amenity": "cafe", "brand": "Starbucks", "brand:wikidata": "Q37158", "cuisine": "coffee_shop", "level": "0", "name": "Starbucks", "official_name": "Starbucks Coffee", "takeaway": "yes"}}, {"type": "node", "id": 5338488948, "lat": 34.0515945, "lon": -118.2531755, "tags": {"amenity": "cafe", "brand": "Peet's Coffee", "brand:wikidata": "Q1094101", "cuisine": "coffee_shop", "name": "Peet's Coffee", "takeaway": "yes"}}, {"type": "node", "id": 5338488950, "lat": 34.050161, "lon": -118.2535756, "tags": {"amenity": "cafe", "brand": "Starbucks", "brand:wikidata": "Q37158", "contact:website": "https://www.starbucks.com/store-locator/store/1017881/5th-grand-gas-co-tower-555-west-5th-street-cc-56-los-angeles-ca-900131010", "cuisine": "coffee_shop", "name": "Starbucks", "official_name": "Starbucks Coffee", "takeaway": "yes"}}, {"type": "node", "id": 5396733990, "lat": 34.1148842, "lon": -118.1833608, "tags": {"amenity": "cafe", "brand": "Starbucks", "brand:wikidata": "Q37158", "contact:website": "https://www.starbucks.com/store-locator/store/1006975/figueroa-york-6240-york-ave-los-angeles-ca-900423638-us", "cuisine": "coffee_shop", "name": "Starbucks", "official_name": "Starbucks Coffee", "takeaway": "yes"}}, {"type": "node", "id": 5434485535, "lat": 34.1095026, "lon": -118.2872754, "tags": {"addr:city": "Los Angeles", "addr:housenumber": "2066", "addr:postcode": "90027", "addr:state": "CA", "addr:street": "Ambrose Avenue", "amenity": "cafe", "brand": "Blue Bottle Coffee", "brand:wikidata": "Q4928917", "cuisine": "coffee_shop", "name": "Blue Bottle Coffee", "opening_hours": "Mo-Fr 06:30-17:00", "phone": "+1-510-653-3394", "takeaway": "yes"}}, {"type": "node", "id": 5436277902, "lat": 34.1065624, "lon": -118.287282, "tags": {"addr:city": "Los Angeles", "addr:housenumber": "1936", "addr:postcode": "90027", "addr:state": "CA", "addr:street": "Hillhurst Avenue", "amenity": "cafe", "cuisine": "coffee_shop", "name": "Maru Coffee", "opening_hours": "Mo-Sa 07:00-17:00; Su 08:00-17:00", "phone": "+1-323-741-8483", "website": "https://www.marucoffee.com/"}}, {"type": "node", "id": 5436546554, "lat": 34.092146, "lon": -118.280369, "tags": {"addr:city": "Los Angeles", "addr:housenumber": "3922", "addr:postcode": "90029", "addr:state": "CA", "addr:street": "Sunset Boulevard", "amenity": "cafe", "cuisine": "coffee_shop", "name": "Intelligentsia Coffee Silver Lake Coffeebar", "opening_hours": "Su-We 06:00-20:00; Th-Sa 06:00-22:00", "phone": "+1-323-663-6173", "website": "https://www.intelligentsiacoffee.com/silver-lake-coffeebar"}}, {"type": "node", "id": 5521118046, "lat": 33.941098, "lon": -118.4017988, "tags": {"amenity": "cafe", "brand": "Peet's Coffee", "brand:wikidata": "Q1094101", "cuisine": "coffee_shop", "diet:halal": "yes", "diet:kosher": "yes", "diet:vegan": "yes", "diet:vegetarian": "yes", "indoor_seating": "no", "level": "1", "name": "Peet's Coffee", "opening_hours": "PH,Mo-Su 05:00-22:00", "outdoor_seating": "no", "takeaway": "only", "wheelchair": "yes"}}, {"type": "node", "id": 5521118061, "lat": 33.9425446, "lon": -118.4020468, "tags": {"amenity": "cafe", "brand": "Starbucks", "brand:wikidata": "Q37158", "contact:website": "https://www.starbucks.com/store-locator/store/1012148/lax-terminal-6-gate-60-201-world-way-los-angeles-ca-90045-us", "cuisine": "coffee_shop", "delivery": "no", "name": "Starbucks", "official_name": "Starbucks Coffee", "outdoor_seating": "no", "takeaway": "yes"}}, {"type": "node", "id": 5565062633, "lat": 34.0659131, "lon": -118.4433221, "tags": {"amenity": "cafe", "brand": "Starbucks", "brand:wikidata": "Q37158", "cuisine": "coffee_shop", "level": "0", "name": "Starbucks", "official_name": "Starbucks Coffee", "opening_hours": "Mo-Fr 07:00-15:30;Sa-Su closed", "takeaway": "yes", "wheelchair": "yes"}}, {"type": "node", "id": 5567718696, "lat": 34.0253528, "lon": -118.2854176, "tags": {"addr:city": "Los Angeles", "addr:housenumber": "3096", "addr:postcode": "90007", "addr:state": "CA", "addr:street": "McClintock Avenue", "amenity": "cafe", "cuisine": "coffee_shop", "internet_access": "yes", "name": "Dulce", "outdoor_seating": "yes", "smoking": "no"}}, {"type": "node", "id": 5610837239, "lat": 34.1816136, "lon": -118.6034278}, {"type": "node", "id": 5627790068, "lat": 34.0521014, "lon": -118.2632874, "tags": {"addr:city": "Los Angeles", "addr:housenumber": "1090", "addr:postcode": "90017", "addr:state": "CA", "addr:street": "Wilshire Boulevard", "amenity": "cafe", "brand": "Starbucks", "brand:wikidata": "Q37158", "contact:website": "https://www.starbucks.com/store-locator/store/14637/wilshire-bixel-1090-wilshire-blvd-los-angeles-ca-900172416-us", "cuisine": "coffee_shop", "name": "Starbucks", "official_name": "Starbucks Coffee", "takeaway": "yes"}}, {"type": "node", "id": 5634145923, "lat": 34.0588639, "lon": -118.2404092, "tags": {"addr:street": "Cesar E Chavez Avenue", "amenity": "cafe", "brand": "Starbucks", "brand:wikidata": "Q37158", "contact:website": "https://www.starbucks.com/store-locator/store/1007141/cesar-chavez-broadway-639-n-broadway-los-angeles-ca-900124500-us", "cuisine": "coffee_shop", "name": "Starbucks", "official_name": "Starbucks Coffee", "takeaway": "yes"}}, {"type": "node", "id": 5649042872, "lat": 34.0068918, "lon": -118.4125595, "tags": {"addr:housenumber": "4114", "addr:postcode": "90230", "addr:street": "Sepulveda Boulevard", "amenity": "cafe", "brand": "Starbucks", "brand:wikidata": "Q37158", "cuisine": "coffee_shop", "internet_access": "wlan", "name": "Starbucks", "official_name": "Starbucks Coffee", "opening_hours": "Mo-Su 05:30-20:00", "phone": "+1 (310) 390-3561", "takeaway": "yes", "website": "https://www.starbucks.com/store-locator/store/113207/sepulveda-washington-4114-sepulveda-blvd-culver-city-ca-902304700-us"}}, {"type": "node", "id": 5742849222, "lat": 34.0467709, "lon": -118.525567, "tags": {"amenity": "cafe", "brand": "The Coffee Bean & Tea Leaf", "brand:wikidata": "Q1141384", "cuisine": "coffee_shop", "name": "The Coffee Bean & Tea Leaf", "takeaway": "yes"}}, {"type": "node", "id": 5742849224, "lat": 34.0705003, "lon": -118.402246, "tags": {"amenity": "cafe", "brand": "Starbucks", "brand:wikidata": "Q37158", "contact:website": "https://www.starbucks.com/store-locator/store/9033/n-beverly-s-santa-monica-bl-428-north-beverly-drive-beverly-hills-ca-902104602", "cuisine": "coffee_shop", "name": "Starbucks", "official_name": "Starbucks Coffee", "takeaway": "yes"}}, {"type": "node", "id": 5882906737, "lat": 34.0981255, "lon": -118.3435591, "tags": {"amenity": "cafe", "brand": "Starbucks", "brand:wikidata": "Q37158", "contact:website": "https://www.starbucks.com/store-locator/store/11568/sunset-la-brea-7055-sunset-blvd-los-angeles-ca-900287509-us", "cuisine": "coffee_shop", "name": "Starbucks", "official_name": "Starbucks Coffee", "source": "survey", "takeaway": "yes"}}, {"type": "node", "id": 6108091191, "lat": 34.0671652, "lon": -118.3442815, "tags": {"addr:city": "Los Angeles", "addr:housenumber": "359", "addr:postcode": "90036", "addr:state": "CA", "addr:street": "South La Brea Avenue", "amenity": "cafe", "brand": "Starbucks", "brand:wikidata": "Q37158", "cuisine": "coffee_shop", "name": "Starbucks", "official_name": "Starbucks Coffee", "outdoor_seating": "yes", "takeaway": "yes"}}, {"type": "node", "id": 6188139601, "lat": 34.1411974, "lon": -118.2243463, "tags": {"amenity": "cafe", "brand": "Starbucks", "brand:wikidata": "Q37158", "contact:website": "https://www.starbucks.com/store-locator/store/68321/target-los-angeles-eagle-rock-2626-colorado-blvd-los-angeles-ca-900411070-us", "cuisine": "coffee_shop", "level": "1", "name": "Starbucks", "official_name": "Starbucks Coffee", "takeaway": "yes"}}, {"type": "node", "id": 6334723231, "lat": 34.0974286, "lon": -118.322517, "tags": {"amenity": "cafe", "brand": "Starbucks", "brand:wikidata": "Q37158", "contact:website": "https://www.starbucks.com/store-locator/store/9353/sunset-gower-6102-w-sunset-blvd-unit-6102-los-angeles-ca-900286", "cuisine": "coffee_shop", "name": "Starbucks", "official_name": "Starbucks Coffee", "takeaway": "yes"}}, {"type": "node", "id": 6380807766, "lat": 33.8580795, "lon": -118.302939, "tags": {"amenity": "cafe", "brand": "Starbucks", "brand:wikidata": "Q37158", "contact:website": "https://www.starbucks.com/store-locator/store/12049/190th-normandie-1450-190th-street-suite-f-torrance-ca-905011136-us", "cuisine": "coffee_shop", "name": "Starbucks", "official_name": "Starbucks Coffee", "start_date": "1999", "takeaway": "yes"}}, {"type": "node", "id": 6392064685, "lat": 33.9560888, "lon": -118.395947, "tags": {"addr:housenumber": "8844", "addr:postcode": "90045", "addr:street": "South Sepulveda Boulevard", "amenity": "cafe", "brand": "Starbucks", "brand:wikidata": "Q37158", "contact:website": "https://www.starbucks.com/store-locator/store/6559/sepulveda-89th-8844-s-sepulveda-blvd-westchester-ca-900454833-us", "cuisine": "coffee_shop", "internet_access": "wlan", "name": "Starbucks", "official_name": "Starbucks Coffee", "opening_hours": "Mo-Fr 04:00-22:00; Sa-Su 04:30-21:00", "phone": "+1 310-645-0416", "takeaway": "yes"}}, {"type": "node", "id": 6392070086, "lat": 33.9567738, "lon": -118.3968913, "tags": {"addr:housenumber": "8817", "addr:postcode": "90045", "addr:street": "South Sepulveda Boulevard", "amenity": "cafe", "brand": "Starbucks", "brand:wikidata": "Q37158", "contact:website": "https://www.starbucks.com/store-locator/store/8827/la-tijera-sepulveda-8817-south-sepulveda-blvd-los-angeles-ca-900454809", "cuisine": "coffee_shop", "internet_access": "wlan", "name": "Starbucks", "official_name": "Starbucks Coffee", "opening_hours": "24/7", "phone": "+1 310-342-0152", "takeaway": "yes"}}, {"type": "node", "id": 6460691785, "lat": 34.0595041, "lon": -118.419829, "tags": {"amenity": "cafe", "brand": "Blue Bottle Coffee", "brand:wikidata": "Q4928917", "cuisine": "coffee_shop", "level": "1", "name": "Blue Bottle Coffee", "opening_hours": "Mo-Su 07:00-19:00", "phone": "+1 510-653-3394", "takeaway": "yes", "website": "https://bluebottlecoffee.com/cafes"}}, {"type": "node", "id": 6466088478, "lat": 34.0447262, "lon": -118.2660349, "tags": {"amenity": "cafe", "brand": "Starbucks", "brand:wikidata": "Q37158", "contact:website": "https://www.starbucks.com/store-locator/store/18659/olympic-figueroa-la-live-800-w-olympic-blvd-102-los-angeles-ca-900151361-us", "cuisine": "coffee_shop", "name": "Starbucks", "official_name": "Starbucks Coffee", "takeaway": "yes"}}, {"type": "node", "id": 6484304248, "lat": 33.9787154, "lon": -118.4377891, "tags": {"addr:housenumber": "4724 1/2", "addr:postcode": "90292", "addr:street": "Admiralty Way", "amenity": "cafe", "brand": "Starbucks", "brand:wikidata": "Q37158", "contact:website": "https://www.starbucks.com/store-locator/store/9594/lincoln-fiji-4724-1-2-admiralty-space-a-22-marina-del-rey-ca-90", "cuisine": "coffee_shop", "internet_access": "wlan", "name": "Starbucks", "official_name": "Starbucks Coffee", "opening_hours": "Mo-Su 04:30-21:30", "phone": "+1 (310) 574-3941", "takeaway": "yes", "wheelchair": "yes"}}, {"type": "node", "id": 6486074594, "lat": 34.0465349, "lon": -118.259349, "tags": {"addr:city": "Los Angeles", "addr:housenumber": "801", "addr:state": "CA", "addr:street": "South Hope Street", "amenity": "cafe", "brand": "Philz Coffee", "brand:wikidata": "Q18156812", "cuisine": "coffee_shop", "name": "Philz Coffee", "takeaway": "yes"}}, {"type": "node", "id": 6507196849, "lat": 34.0818327, "lon": -118.3853368, "tags": {"addr:city": "West Hollywood", "addr:housenumber": "634", "addr:postcode": "90069", "addr:state": "CA", "addr:street": "North Robertson Boulevard", "amenity": "cafe", "cuisine": "coffee_shop", "name": "The Assembly", "phone": "+1-424-245-4954", "website": "http://www.theassemblycafe.com"}}, {"type": "node", "id": 6638505303, "lat": 33.9866182, "lon": -118.4418843, "tags": {"addr:housenumber": "13455", "addr:postcode": "90292", "addr:street": "Maxella Avenue", "amenity": "cafe", "brand": "Le Pain Quotidien", "brand:wikidata": "Q2046903", "cuisine": "coffee_shop", "name": "Le Pain Quotidien", "takeaway": "yes"}}, {"type": "node", "id": 6721942462, "lat": 34.0554209, "lon": -118.3967181, "tags": {"amenity": "cafe", "brand": "The Coffee Bean & Tea Leaf", "brand:wikidata": "Q1141384", "cuisine": "coffee_shop", "name": "The Coffee Bean & Tea Leaf", "takeaway": "yes"}}, {"type": "node", "id": 6898320023, "lat": 34.0725498, "lon": -118.35979, "tags": {"amenity": "cafe", "brand": "The Coffee Bean & Tea Leaf", "brand:wikidata": "Q1141384", "cuisine": "coffee_shop", "name": "The Coffee Bean & Tea Leaf", "takeaway": "yes", "website": "https://th"}}, {"type": "node", "id": 7150714185, "lat": 34.0635765, "lon": -118.376383, "tags": {"amenity": "cafe", "brand": "Starbucks", "brand:wikidata": "Q37158", "contact:website": "https://www.starbucks.com/store-locator/store/15051/la-cienega-gregory-way-257-s-la-cienega-blvd-beverly-hills-ca-902113301-u", "cuisine": "coffee_shop", "name": "Starbucks", "official_name": "Starbucks Coffee", "takeaway": "yes"}}, {"type": "node", "id": 7152018920, "lat": 34.0418588, "lon": -118.2567916, "tags": {"addr:city": "Los Angeles", "addr:housenumber": "927", "addr:postcode": "90015", "addr:state": "CA", "addr:street": "South Broadway", "amenity": "cafe", "cuisine": "coffee_shop", "name": "Best Girl Coffee Counter", "phone": "+1-213-235-9660"}}, {"type": "node", "id": 7155103307, "lat": 34.0336253, "lon": -118.2413866, "tags": {"addr:city": "Los Angeles", "addr:country": "US", "addr:housenumber": "777", "addr:postcode": "90021", "addr:state": "CA", "addr:street": "South Alameda St", "addr:unit": "150", "amenity": "cafe", "cuisine": "coffee_shop", "internet_access": "wlan", "internet_access:fee": "no", "name": "Cafe Dulce Dos", "opening_hours": "Mo-Su 08:00-17:00"}}, {"type": "node", "id": 7164563034, "lat": 34.0439579, "lon": -118.257763, "tags": {"addr:city": "Los Angeles", "addr:housenumber": "868", "addr:postcode": "90013", "addr:state": "CA", "addr:street": "South Olive Street", "amenity": "cafe", "contact:instagram": "cogcoffee", "cuisine": "coffee_shop", "internet_access": "wlan", "name": "Cognoscenti Coffee", "opening_hours": "Mo-Su 07:00-14:00", "website": "https://cogcoffee.com/"}}, {"type": "node", "id": 7235851498, "lat": 34.0272937, "lon": -118.4094353, "tags": {"addr:housenumber": "3417", "addr:postcode": "90034", "addr:street": "Motor Avenue", "amenity": "cafe", "cuisine": "coffee_shop", "drink:coffee": "yes", "drink:espresso": "yes", "internet_access": "wlan", "name": "Coffee Commissary", "opening_hours": "Mo-Su 07:00-18:00", "outdoor_seating": "yes", "phone": "1-323-782-1465", "website": "https://coffeecommissary.com"}}, {"type": "node", "id": 7237259551, "lat": 34.0348721, "lon": -118.4489665, "tags": {"amenity": "cafe", "brand": "Starbucks", "brand:wikidata": "Q37158", "contact:website": "https://www.starbucks.com/store-locator/store/1005502/ralphs-los-angeles-210-11727-w-olympic-blvd-los-angeles-ca-90064-us", "cuisine": "coffee_shop", "name": "Starbucks", "note": "Inside Ralph's", "official_name": "Starbucks Coffee", "takeaway": "yes"}}, {"type": "node", "id": 7338313056, "lat": 34.027236, "lon": -118.4277171, "tags": {"amenity": "cafe", "brand": "Starbucks", "brand:wikidata": "Q37158", "contact:website": "https://www.starbucks.com/store-locator/store/1013181/sepulveda-national-3006-s-sepulveda-blvd-los-angeles-ca-900344202-us", "cuisine": "coffee_shop", "internet_access": "wlan", "name": "Starbucks", "official_name": "Starbucks Coffee", "opening_hours": "Mo-Sa 05:30-19:00; Su 06:00-18:30", "payment:mastercard": "yes", "payment:visa": "yes", "safety:mask:covid19": "yes", "takeaway": "yes"}}, {"type": "node", "id": 7372955955, "lat": 34.1265423, "lon": -118.232228, "tags": {"addr:city": "Los Angeles", "addr:housenumber": "4155", "addr:postcode": "90065", "addr:state": "CA", "addr:street": "Verdugo Road", "amenity": "restaurant", "cuisine": "coffee_shop", "name": "Little Ripper", "outdoor_seating": "yes", "website": "https://www.littleripper.la/"}}, {"type": "node", "id": 7510039801, "lat": 34.1749692, "lon": -118.4664895, "tags": {"amenity": "cafe", "brand": "Starbucks", "brand:wikidata": "Q37158", "cuisine": "coffee_shop", "name": "Starbucks", "official_name": "Starbucks Coffee", "takeaway": "yes"}}, {"type": "node", "id": 7539501424, "lat": 34.2359818, "lon": -118.554171}, {"type": "node", "id": 7539501425, "lat": 34.2359827, "lon": -118.554042}, {"type": "node", "id": 7539501426, "lat": 34.2358032, "lon": -118.5540403}, {"type": "node", "id": 7539501427, "lat": 34.2358023, "lon": -118.5541692}, {"type": "node", "id": 7771508064, "lat": 34.2758498, "lon": -118.572571, "tags": {"addr:city": "Porter Ranch", "addr:housenumber": "20105", "addr:postcode": "91326", "addr:state": "CA", "addr:street": "Rinaldi Street", "amenity": "cafe", "brand": "Peet's Coffee", "brand:wikidata": "Q1094101", "cuisine": "coffee_shop", "internet_access": "wlan", "mapillary": "768390700530614", "name": "Peet's Coffee", "phone": "+1-818-583-6945", "takeaway": "yes", "website": "https://locations.peets.com/ll/US/CA/Porter-Ranch/20105-W_-Rinaldi-Street"}}, {"type": "node", "id": 8014688373, "lat": 34.2417479, "lon": -118.5358022, "tags": {"amenity": "cafe", "brand": "Starbucks", "brand:wikidata": "Q37158", "contact:website": "https://www.starbucks.com/store-locator/store/12476/reseda-plummer-9420-reseda-blvd-1-northridge-ca-913246001-us", "cuisine": "coffee_shop", "name": "Starbucks", "official_name": "Starbucks Coffee", "takeaway": "yes"}}, {"type": "node", "id": 8285304709, "lat": 34.0431542, "lon": -118.4316119, "tags": {"amenity": "cafe", "brand": "Starbucks", "brand:wikidata": "Q37158", "contact:website": "https://www.starbucks.com/store-locator/store/12148/olympic-westwood-2215-westwood-blvd-los-angeles-ca-900642098-us", "cuisine": "coffee_shop", "name": "Starbucks", "official_name": "Starbucks Coffee", "opening_hours": "Mo-Fr 05:00-20:00; Sa,Su 05:30-20:00", "takeaway": "yes"}}, {"type": "node", "id": 8294940063, "lat": 34.2581124, "lon": -118.5404152, "tags": {"amenity": "cafe", "brand": "The Coffee Bean & Tea Leaf", "brand:wikidata": "Q1141384", "cuisine": "coffee_shop", "name": "The Coffee Bean & Tea Leaf", "takeaway": "yes"}}, {"type": "node", "id": 8300258048, "lat": 33.9889179, "lon": -118.309883, "tags": {"amenity": "cafe", "brand": "Starbucks", "brand:wikidata": "Q37158", "contact:website": "https://www.starbucks.com/store-locator/store/14352/western-slauson-1850-w-slauson-avenue-los-angeles-ca-900471126-us", "cuisine": "coffee_shop", "name": "Starbucks", "official_name": "Starbucks Coffee", "takeaway": "yes"}}, {"type": "node", "id": 8301099754, "lat": 34.0039807, "lon": -118.40838, "tags": {"amenity": "cafe", "cuisine": "coffee_shop", "name": "Tanner's Coffee"}}, {"type": "node", "id": 8301099768, "lat": 34.0037038, "lon": -118.3934632, "tags": {"amenity": "cafe", "brand": "Starbucks", "brand:wikidata": "Q37158", "contact:website": "https://www.starbucks.com/store-locator/store/1029519/jefferson-overland-ave-10700-jefferson-blvd-culver-city-ca-902304933-us", "cuisine": "coffee_shop", "name": "Starbucks", "official_name": "Starbucks Coffee", "opening_hours": "Sa,Su 05:30-20:30; Mo-Fr 04:30-20:30", "takeaway": "yes"}}, {"type": "node", "id": 8322266840, "lat": 34.0187947, "lon": -118.4222768, "tags": {"amenity": "cafe", "brand": "Starbucks", "brand:wikidata": "Q37158", "contact:website": "https://www.starbucks.com/store-locator/store/1028035/sepulveda-palms-3505-s-sepulveda-los-angeles-ca-900346508-us", "cuisine": "coffee_shop", "name": "Starbucks", "official_name": "Starbucks Coffee", "takeaway": "yes"}}, {"type": "node", "id": 8322266868, "lat": 34.0258476, "lon": -118.4334197, "tags": {"amenity": "cafe", "brand": "Starbucks", "brand:wikidata": "Q37158", "cuisine": "coffee_shop", "name": "Starbucks", "note": "Inside Ralphs", "official_name": "Starbucks Coffee", "takeaway": "yes"}}, {"type": "node", "id": 8336631376, "lat": 34.0171322, "lon": -118.4055013, "tags": {"amenity": "cafe", "brand": "Starbucks", "brand:wikidata": "Q37158", "contact:website": "https://www.starbucks.com/store-locator/store/1023290/overland-washington-blvd-10601-washington-blvd-104-culver-city-ca-902323396", "cuisine": "coffee_shop", "name": "Starbucks", "official_name": "Starbucks Coffee", "takeaway": "yes"}}, {"type": "node", "id": 8359021427, "lat": 34.042962, "lon": -118.3767845, "tags": {"amenity": "cafe", "brand": "The Coffee Bean & Tea Leaf", "brand:wikidata": "Q1141384", "cuisine": "coffee_shop", "name": "The Coffee Bean & Tea Leaf", "takeaway": "yes"}}, {"type": "node", "id": 8369046699, "lat": 34.0480814, "lon": -118.258482, "tags": {"amenity": "cafe", "brand": "Starbucks", "brand:wikidata": "Q37158", "contact:website": "https://www.starbucks.com/store-locator/store/1009777/7th-hope-the-bloc-700-w-7th-street-gl-320-los-angeles-ca-900173768-u", "cuisine": "coffee_shop", "level": "-1", "name": "Starbucks", "official_name": "Starbucks Coffee", "takeaway": "yes"}}, {"type": "node", "id": 8423300750, "lat": 34.0419255, "lon": -118.252596, "tags": {"addr:city": "Los Angeles", "addr:postcode": "90014", "addr:state": "CA", "amenity": "cafe", "brand": "Stumptown Coffee Roasters", "brand:wikidata": "Q2695932", "cuisine": "coffee_shop", "name": "Stumptown Coffee Roasters", "takeaway": "yes"}}, {"type": "node", "id": 8424018619, "lat": 34.0454871, "lon": -118.2613958, "tags": {"amenity": "cafe", "brand": "Starbucks", "brand:wikidata": "Q37158", "building": "yes", "contact:website": "https://www.starbucks.com/store-locator/store/89075/9th-flower-600-west-9th-street-135-los-angeles-ca-900154300-u", "cuisine": "coffee_shop", "name": "Starbucks", "official_name": "Starbucks Coffee", "takeaway": "yes"}}, {"type": "node", "id": 8439536120, "lat": 34.0180995, "lon": -118.401145, "tags": {"amenity": "cafe", "brand": "The Coffee Bean & Tea Leaf", "brand:wikidata": "Q1141384", "cuisine": "coffee_shop", "name": "The Coffee Bean & Tea Leaf", "takeaway": "yes"}}, {"type": "node", "id": 8441686975, "lat": 34.0540546, "lon": -118.440401}, {"type": "node", "id": 8461651380, "lat": 34.0454948, "lon": -118.2384613, "tags": {"addr:city": "Los Angeles", "addr:housenumber": "333", "addr:postcode": "90013", "addr:state": "CA", "addr:street": "South Alameda Street", "addr:unit": "108", "amenity": "cafe", "brand": "The Coffee Bean & Tea Leaf", "brand:wikidata": "Q1141384", "cuisine": "coffee_shop", "level": "1", "name": "The Coffee Bean & Tea Leaf", "takeaway": "yes"}}, {"type": "node", "id": 8480409550, "lat": 34.0208745, "lon": -118.3964405, "tags": {"addr:housenumber": "9900", "addr:street": "Culver Boulevard", "amenity": "cafe", "check_date": "2024-01-11", "cuisine": "coffee_shop", "internet_access": "wlan", "internet_access:fee": "customers", "name": "Village Well Coffee", "outdoor_seating": "yes", "payment:cash": "yes", "payment:credit_cards": "yes", "payment:debit_cards": "yes"}}, {"type": "node", "id": 8519602526, "lat": 34.0222814, "lon": -118.3961154, "tags": {"amenity": "cafe", "brand": "Starbucks", "brand:wikidata": "Q37158", "contact:website": "https://www.starbucks.com/store-locator/store/15444/washington-culver-9718-washington-blvd-culver-city-ca-902322722-us", "cuisine": "coffee_shop", "name": "Starbucks", "official_name": "Starbucks Coffee", "takeaway": "yes"}}, {"type": "node", "id": 8519602532, "lat": 34.0242422, "lon": -118.3937045, "tags": {"amenity": "cafe", "brand": "Philz Coffee", "brand:wikidata": "Q18156812", "cuisine": "coffee_shop", "name": "Philz Coffee", "takeaway": "yes"}}, {"type": "node", "id": 8596739227, "lat": 34.2015889, "lon": -118.4304878, "tags": {"amenity": "cafe", "brand": "Starbucks", "brand:wikidata": "Q37158", "contact:website": "https://www.starbucks.com/store-locator/store/1021102/sherman-way-woodman-13641-sherman-way-los-angeles-ca-914052845-us", "cuisine": "coffee_shop", "name": "Starbucks", "official_name": "Starbucks Coffee", "takeaway": "yes"}}, {"type": "node", "id": 8634288869, "lat": 34.0322769, "lon": -118.4439707, "tags": {"amenity": "cafe", "cuisine": "coffee_shop", "name": "Federal Coffee"}}, {"type": "node", "id": 8756227298, "lat": 33.9970062, "lon": -118.4301448, "tags": {"amenity": "cafe", "cuisine": "coffee_shop", "name": "\"Le\" Coffee Shop"}}, {"type": "node", "id": 8756620440, "lat": 34.0427116, "lon": -118.444981, "tags": {"addr:city": "Los Angeles", "addr:housenumber": "1854", "addr:postcode": "90025", "addr:state": "CA", "addr:street": "Sawtelle Boulevard", "amenity": "cafe", "cuisine": "coffee_shop", "name": "Chitchat", "opening_hours": "Mo-Su 08:00-15:00", "outdoor_seating": "yes", "payment:mastercard": "yes", "payment:visa": "yes", "website": "https://www.chitchatla.com/"}}, {"type": "node", "id": 8809792872, "lat": 34.0327313, "lon": -118.4527922, "tags": {"amenity": "cafe", "brand": "The Coffee Bean & Tea Leaf", "brand:wikidata": "Q1141384", "cuisine": "coffee_shop", "name": "The Coffee Bean & Tea Leaf", "takeaway": "yes"}}, {"type": "node", "id": 8830476553, "lat": 34.0566782, "lon": -118.4428149, "tags": {"amenity": "cafe", "cuisine": "coffee_shop", "name": "Espressoteric"}}, {"type": "node", "id": 8855515484, "lat": 34.0595561, "lon": -118.4456985, "tags": {"amenity": "cafe", "brand": "Le Pain Quotidien", "brand:wikidata": "Q2046903", "cuisine": "coffee_shop", "name": "Le Pain Quotidien", "opening_hours": "Mo-Su 06:30-17:00", "takeaway": "yes"}}, {"type": "node", "id": 8873772418, "lat": 34.0561497, "lon": -118.2469531}, {"type": "node", "id": 8873772421, "lat": 34.0560997, "lon": -118.2470026}, {"type": "node", "id": 8910824330, "lat": 34.0032682, "lon": -118.4349735, "tags": {"addr:housenumber": "12511", "addr:postcode": "90066", "addr:street": "Venice Boulevard", "amenity": "cafe", "cuisine": "coffee_shop", "internet_access": "wlan", "name": "Alana's Coffee Roasters", "opening_hours": "Mo-Su 06:30-17:00", "phone": "+1 (310) 295-0099", "website": "https://alanascoffeeroasters.com"}}, {"type": "node", "id": 8946030732, "lat": 34.0598357, "lon": -118.4445342, "tags": {"amenity": "cafe", "cuisine": "coffee_shop", "name": "Alfred"}}, {"type": "node", "id": 8947033578, "lat": 34.03121, "lon": -118.3777625, "tags": {"amenity": "cafe", "cuisine": "coffee_shop", "name": "Cognoscenti"}}, {"type": "node", "id": 8971277110, "lat": 34.0510733, "lon": -118.249439, "tags": {"addr:city": "Los Angeles", "addr:housenumber": "317", "addr:postcode": "90013", "addr:state": "CA", "addr:street": "South Broadway", "amenity": "cafe", "cuisine": "coffee_shop", "name": "G&B"}}, {"type": "node", "id": 9015500174, "lat": 34.0595556, "lon": -118.3896209, "tags": {"amenity": "cafe", "brand": "Starbucks", "brand:wikidata": "Q37158", "contact:website": "https://www.starbucks.com/store-locator/store/12165/olympic-doheny-9049-olympic-blvd-beverly-hills-ca-902113541-us", "cuisine": "coffee_shop", "name": "Starbucks", "official_name": "Starbucks Coffee", "takeaway": "yes"}}, {"type": "node", "id": 9015554491, "lat": 34.0206422, "lon": -118.3995297, "tags": {"addr:housenumber": "10117", "addr:postcode": "90232", "addr:street": "Washington Boulevard", "amenity": "cafe", "contact:facebook": "conservatoryforcoffee", "contact:instagram": "conservatorycoffeeandtea", "contact:twitter": "TheConservatory", "cuisine": "coffee_shop", "email": "conservatory4coffee@gmail.com", "name": "The Conservatory for Coffee, Tea, and Cocoa", "opening_hours": "Mo-Fr 08:00-14:00", "phone": "310-558-0436", "website": "https://conservatorycoffeeandtea.com"}}, {"type": "node", "id": 9021615445, "lat": 34.094639, "lon": -118.309534}, {"type": "node", "id": 9021615446, "lat": 34.0946058, "lon": -118.3095338}, {"type": "node", "id": 9021615447, "lat": 34.0946054, "lon": -118.3094442}, {"type": "node", "id": 9021615448, "lat": 34.0946393, "lon": -118.3094444}, {"type": "node", "id": 9021615449, "lat": 34.0946058, "lon": -118.309521}, {"type": "node", "id": 9021615450, "lat": 34.0946053, "lon": -118.3094579}, {"type": "node", "id": 9021615451, "lat": 34.0945351, "lon": -118.3095206}, {"type": "node", "id": 9021615452, "lat": 34.0945353, "lon": -118.3094575}, {"type": "node", "id": 9044200435, "lat": 34.1815225, "lon": -118.6034954}, {"type": "node", "id": 9044200437, "lat": 34.1817156, "lon": -118.6036326}, {"type": "node", "id": 9044200438, "lat": 34.1817286, "lon": -118.6036574}, {"type": "node", "id": 9044200439, "lat": 34.1817124, "lon": -118.6036727}, {"type": "node", "id": 9049248776, "lat": 34.0022245, "lon": -118.3931999, "tags": {"amenity": "cafe", "brand": "Starbucks", "brand:wikidata": "Q37158", "contact:website": "https://www.starbucks.com/store-locator/store/1020112/ralphs-culver-city-284-10772-jefferson-blvd-culver-city-ca-90230-us", "cuisine": "coffee_shop", "name": "Starbucks", "note": "Inside Ralphs", "official_name": "Starbucks Coffee", "takeaway": "yes"}}, {"type": "node", "id": 9113106467, "lat": 33.9471303, "lon": -118.4012326}, {"type": "node", "id": 9113106468, "lat": 33.947239, "lon": -118.4012494}, {"type": "node", "id": 9113106469, "lat": 33.9471795, "lon": -118.4011256}, {"type": "node", "id": 9113106470, "lat": 33.9471391, "lon": -118.4011211}, {"type": "node", "id": 9113106471, "lat": 33.9471149, "lon": -118.4011379}, {"type": "node", "id": 9113106472, "lat": 33.9471112, "lon": -118.401199}, {"type": "node", "id": 9143503317, "lat": 33.9916718, "lon": -118.4214982, "tags": {"addr:city": "Los Angeles", "addr:housenumber": "4574", "addr:postcode": "90066", "addr:state": "CA", "addr:street": "South Centinela Avenue", "amenity": "cafe", "cuisine": "coffee_shop", "name": "SACHI.LA", "opening_hours": "Tu-Su 08:00-14:00", "phone": "(213) 785-7225", "website": "https://www.sachi.la"}}, {"type": "node", "id": 9225489073, "lat": 34.1990624, "lon": -118.6054348}, {"type": "node", "id": 9225489074, "lat": 34.1990655, "lon": -118.6056673}, {"type": "node", "id": 9225489075, "lat": 34.1990552, "lon": -118.6056867}, {"type": "node", "id": 9225489076, "lat": 34.1990348, "lon": -118.6056954}, {"type": "node", "id": 9225489077, "lat": 34.1989946, "lon": -118.6056996}, {"type": "node", "id": 9225489078, "lat": 34.198994, "lon": -118.6055448}, {"type": "node", "id": 9225489079, "lat": 34.1990003, "lon": -118.6055448}, {"type": "node", "id": 9225489080, "lat": 34.198999, "lon": -118.6054352}, {"type": "node", "id": 9313359699, "lat": 34.1505477, "lon": -118.4216083, "tags": {"addr:city": "Sherman Oaks", "addr:housenumber": "13251", "addr:postcode": "91423", "addr:state": "CA", "addr:street": "Moorpark Street", "amenity": "cafe", "cuisine": "coffee_shop", "email": "info@mstreetcoffee.com", "internet_access": "wlan", "internet_access:fee": "no", "name": "M Street Coffee", "opening_hours": "Mo-Fr 07:00-17:00; Sa-Su 08:00-17:00", "outdoor_seating": "yes", "phone": "+1-818-907-1400", "website": "https://mstreetcoffee.com/"}}, {"type": "node", "id": 9333531965, "lat": 33.9851103, "lon": -118.394513, "tags": {"amenity": "cafe", "brand": "Starbucks", "brand:wikidata": "Q37158", "contact:website": "https://www.starbucks.com/store-locator/store/9831/target-culver-city-south-2632-6000-sepulveda-blvd-ste-2250-culver-city-ca-902306", "cuisine": "coffee_shop", "level": "1", "level:ref": "2", "name": "Starbucks", "note": "Inside Target", "official_name": "Starbucks Coffee", "takeaway": "yes"}}, {"type": "node", "id": 9369266283, "lat": 34.1862134, "lon": -118.5355981}, {"type": "node", "id": 9369266284, "lat": 34.1862134, "lon": -118.5356083}, {"type": "node", "id": 9369266285, "lat": 34.1862695, "lon": -118.5356086}, {"type": "node", "id": 9369266286, "lat": 34.1862696, "lon": -118.535595}, {"type": "node", "id": 9369396009, "lat": 34.2505762, "lon": -118.5017646}, {"type": "node", "id": 9369396010, "lat": 34.2506782, "lon": -118.5017646}, {"type": "node", "id": 9369396011, "lat": 34.2506799, "lon": -118.5019798}, {"type": "node", "id": 9369396012, "lat": 34.250671, "lon": -118.5019818}, {"type": "node", "id": 9369396013, "lat": 34.2506715, "lon": -118.5020361}, {"type": "node", "id": 9369396014, "lat": 34.2506089, "lon": -118.5020348}, {"type": "node", "id": 9369396015, "lat": 34.2506089, "lon": -118.5020167}, {"type": "node", "id": 9369396016, "lat": 34.2505834, "lon": -118.502014}, {"type": "node", "id": 9482710840, "lat": 33.8375631, "lon": -118.3088712}, {"type": "node", "id": 9482710841, "lat": 33.8375463, "lon": -118.3087996}, {"type": "node", "id": 9482710842, "lat": 33.837555, "lon": -118.3087967}, {"type": "node", "id": 9482710843, "lat": 33.8375397, "lon": -118.3087317}, {"type": "node", "id": 9482710844, "lat": 33.8375302, "lon": -118.3087349}, {"type": "node", "id": 9482710845, "lat": 33.837508, "lon": -118.3086404}, {"type": "node", "id": 9482710846, "lat": 33.8374417, "lon": -118.3086629}, {"type": "node", "id": 9482710847, "lat": 33.8374491, "lon": -118.3086942}, {"type": "node", "id": 9482710848, "lat": 33.8374381, "lon": -118.308698}, {"type": "node", "id": 9482710849, "lat": 33.8374482, "lon": -118.3087411}, {"type": "node", "id": 9482710850, "lat": 33.8374622, "lon": -118.3087363}, {"type": "node", "id": 9482710851, "lat": 33.837499, "lon": -118.308893}, {"type": "node", "id": 9500000255, "lat": 34.0909156, "lon": -118.3384056, "tags": {"amenity": "cafe", "cuisine": "coffee_shop", "name": "Trejo's Coffee and Donuts"}}, {"type": "node", "id": 9559516342, "lat": 34.0480835, "lon": -118.444975, "tags": {"amenity": "cafe", "cuisine": "coffee_shop", "name": "C+M"}}, {"type": "node", "id": 9559516379, "lat": 34.0459546, "lon": -118.4510394, "tags": {"amenity": "cafe", "brand": "Starbucks", "brand:wikidata": "Q37158", "contact:website": "https://www.starbucks.com/store-locator/store/1031884/santa-monica-blvd-purdue-11401-santa-monica-blvd-los-angeles-ca-900253009-u", "cuisine": "coffee_shop", "name": "Starbucks", "official_name": "Starbucks Coffee", "takeaway": "yes"}}, {"type": "node", "id": 9592778056, "lat": 34.0460601, "lon": -118.3760588, "tags": {"amenity": "cafe", "brand": "Starbucks", "brand:wikidata": "Q37158", "contact:website": "https://www.starbucks.com/store-locator/store/1014988/la-cienega-and-airdrome-1742-s-la-cienega-los-angeles-ca-900354602-us", "cuisine": "coffee_shop", "name": "Starbucks", "official_name": "Starbucks Coffee", "takeaway": "yes"}}, {"type": "node", "id": 9630495539, "lat": 34.2565885, "lon": -118.5370435}, {"type": "node", "id": 9668604231, "lat": 34.0283549, "lon": -118.3889125, "tags": {"amenity": "cafe", "cuisine": "coffee_shop", "name": "Equator Coffee"}}, {"type": "node", "id": 9673870606, "lat": 34.2014492, "lon": -118.4682946, "tags": {"amenity": "cafe", "brand": "Starbucks", "brand:wikidata": "Q37158", "contact:website": "https://www.starbucks.com/store-locator/store/14071/sherman-way-sepulveda-15355-sherman-way-a-van-nuys-ca-914064200-us", "cuisine": "coffee_shop", "name": "Starbucks", "official_name": "Starbucks Coffee", "takeaway": "yes"}}, {"type": "node", "id": 9683728968, "lat": 34.0247114, "lon": -118.2201868, "tags": {"addr:city": "Los Angeles", "addr:housenumber": "2675", "addr:postcode": "90023", "addr:state": "CA", "addr:street": "East Olympic Boulevard", "amenity": "cafe", "brand": "Starbucks", "brand:wikidata": "Q37158", "contact:website": "https://www.starbucks.com/store-locator/store/1007345/olympic-soto-2675-e-olympic-blvd-los-angeles-ca-900232607-us", "cuisine": "coffee_shop", "name": "Starbucks", "official_name": "Starbucks Coffee", "phone": "+1 323-265-3457", "takeaway": "yes"}}, {"type": "node", "id": 9684100262, "lat": 34.0517191, "lon": -118.3439388, "tags": {"addr:city": "Los Angeles", "addr:housenumber": "1250", "addr:postcode": "90019", "addr:state": "CA", "addr:street": "S La Brea Avenue", "amenity": "cafe", "brand": "Starbucks", "brand:wikidata": "Q37158", "contact:website": "https://www.starbucks.com/store-locator/store/1024882/la-brea-dockweiler-1250-s-la-brea-ave-los-angeles-ca-900191628-us", "cuisine": "coffee_shop", "name": "Starbucks", "official_name": "Starbucks Coffee", "outdoor_seating": "yes", "takeaway": "yes"}}, {"type": "node", "id": 9701939321, "lat": 34.2856474, "lon": -118.4384069, "tags": {"addr:city": "San Fernando", "addr:housenumber": "231", "addr:postcode": "91340", "addr:state": "CA", "addr:street": "Maclay Street", "amenity": "cafe", "cuisine": "coffee_shop", "name": "Horchateria Rio Luna", "opening_hours": "Mo-Su 09:00-22:00", "outdoor_seating": "yes", "phone": "(818) 403-6167", "website": "https://www.horchateriarl.com"}}, {"type": "node", "id": 9705471775, "lat": 34.0766586, "lon": -118.4689764, "tags": {"addr:city": "los angeles", "addr:housenumber": "651", "addr:postcode": "90049", "addr:state": "CA", "addr:street": "North Sepulveda Boulevard", "amenity": "cafe", "cuisine": "coffee_shop", "internet_access": "yes", "internet_access:fee": "no", "name": "Organic Coffee and Fine Tea"}}, {"type": "node", "id": 9733769938, "lat": 34.27515, "lon": -118.5635422, "tags": {"addr:city": "Northridge", "addr:housenumber": "19759", "addr:postcode": "91326", "addr:state": "CA", "addr:street": "Rinaldi Street", "amenity": "cafe", "brand": "Starbucks", "brand:wikidata": "Q37158", "contact:website": "https://www.starbucks.com/store-locator/store/11851/rinaldi-corbin-19759-rinaldi-st-northridge-ca-913264143-us", "cuisine": "coffee_shop", "name": "Starbucks", "official_name": "Starbucks Coffee", "takeaway": "yes"}}, {"type": "node", "id": 9736184934, "lat": 33.980764, "lon": -118.437765, "tags": {"addr:city": "Marina del Rey", "addr:housenumber": "4706", "addr:postcode": "90292", "addr:state": "CA", "addr:street": "Lincoln Boulevard", "amenity": "cafe", "brand": "Peet's Coffee", "brand:wikidata": "Q1094101", "cuisine": "coffee_shop", "email": "customerservice@peets.com", "internet_access": "yes", "name": "Peet's Coffee", "opening_hours": "Mo-Su 05:00-17:30", "phone": "+1 310-823-1335", "takeaway": "yes", "website": "https://locations.peets.com/ll/US/CA/Marina-Del-Rey/4706-Lincoln-Blvd"}}, {"type": "node", "id": 9765149417, "lat": 33.996738, "lon": -118.4291886, "tags": {"addr:housenumber": "12430", "addr:postcode": "90066", "addr:street": "Washington Boulevard", "amenity": "cafe", "cuisine": "coffee_shop", "name": "Menotti's Coffee Stop", "opening_hours": "Mo-Su 07:00-14:00", "phone": "+1 (916) 501-2472", "website": "https://menottis.com/"}}, {"type": "node", "id": 9772395168, "lat": 34.0522379, "lon": -118.2874}, {"type": "node", "id": 9772395169, "lat": 34.0522378, "lon": -118.2873686}, {"type": "node", "id": 9772395170, "lat": 34.0522497, "lon": -118.2873685}, {"type": "node", "id": 9772395171, "lat": 34.0522496, "lon": -118.2872841}, {"type": "node", "id": 9772395172, "lat": 34.0520562, "lon": -118.2872844}, {"type": "node", "id": 9772395173, "lat": 34.0520563, "lon": -118.2873248}, {"type": "node", "id": 9772395174, "lat": 34.0520847, "lon": -118.2873247}, {"type": "node", "id": 9772395175, "lat": 34.0520848, "lon": -118.2874003}, {"type": "node", "id": 9808876823, "lat": 34.2211556, "lon": -118.366992, "tags": {"addr:city": "Los Angeles", "addr:housenumber": "8274", "addr:state": "CA", "addr:street": "Sunland Boulevard", "amenity": "cafe", "brand": "Starbucks", "brand:wikidata": "Q37158", "contact:website": "https://www.starbucks.com/store-locator/store/1019760/sunland-i-5-8274-sunland-blvd-sun-valley-ca-913523301-us", "cuisine": "coffee_shop", "name": "Starbucks", "official_name": "Starbucks Coffee", "takeaway": "yes"}}, {"type": "node", "id": 9818207567, "lat": 33.9860302, "lon": -118.4431457, "tags": {"addr:housenumber": "4264", "addr:street": "Lincoln Boulevard", "amenity": "cafe", "brand": "Starbucks", "brand:wikidata": "Q37158", "cuisine": "coffee_shop", "level": "0", "name": "Starbucks", "official_name": "Starbucks Coffee", "opening_hours": "Mo-Su 05:00-20:00", "takeaway": "yes", "website": "https://www.starbucks.com/store-locator/store/11307/lincoln-maxella-4264-lincoln-boulevard-marina-del-rey-ca-902925654"}}, {"type": "node", "id": 9851947956, "lat": 34.0569277, "lon": -118.2482473}, {"type": "node", "id": 9852034544, "lat": 34.0569937, "lon": -118.2481362}, {"type": "node", "id": 9852034545, "lat": 34.0570313, "lon": -118.2481975}, {"type": "node", "id": 9852034546, "lat": 34.0569445, "lon": -118.2482751}, {"type": "node", "id": 9852034547, "lat": 34.0569069, "lon": -118.2482138}, {"type": "node", "id": 9888693223, "lat": 34.0415751, "lon": -118.2623079, "tags": {"amenity": "cafe", "brand": "Starbucks", "brand:wikidata": "Q37158", "contact:website": "https://www.starbucks.com/store-locator/store/10036/11-th-grand-1111-south-grand-avenue-los-angeles-ca-900152176-u", "cuisine": "coffee_shop", "name": "Starbucks", "official_name": "Starbucks Coffee", "outdoor_seating": "yes", "takeaway": "yes"}}, {"type": "node", "id": 9906488270, "lat": 34.0473061, "lon": -118.3190254, "tags": {"amenity": "cafe", "cuisine": "coffee_shop", "name": "The History Coffee"}}, {"type": "node", "id": 9910176150, "lat": 33.7362075, "lon": -118.292082, "tags": {"addr:city": "San Pedro", "addr:housenumber": "682", "addr:postcode": "90731", "addr:state": "CA", "addr:street": "West 9th Street", "amenity": "cafe", "brand": "Starbucks", "brand:wikidata": "Q37158", "contact:website": "https://www.starbucks.com/store-locator/store/1021094/gaffey-9th-682-west-9th-street-san-pedro-ca-907313108-us", "cuisine": "coffee_shop", "description": "Drive-thru and walk up window.", "name": "Starbucks", "official_name": "Starbucks Coffee", "takeaway": "yes"}}, {"type": "node", "id": 9913073787, "lat": 34.0391374, "lon": -118.2644066, "tags": {"addr:housenumber": "1251", "addr:street": "South Grand Avenue", "amenity": "cafe", "brand": "Starbucks", "brand:wikidata": "Q37158", "check_date": "2024-02-26", "contact:website": "https://www.starbucks.com/store-locator/store/1017891/pico-grand-1251-s-grand-ave-los-angeles-ca-900152105-us", "cuisine": "coffee_shop", "name": "Starbucks", "official_name": "Starbucks Coffee", "outdoor_seating": "yes", "takeaway": "yes", "wheelchair": "yes"}}, {"type": "node", "id": 9953188014, "lat": 34.0308487, "lon": -118.380391, "tags": {"amenity": "cafe", "cuisine": "coffee_shop", "internet_access": "wlan", "name": "Super Domestic", "outdoor_seating": "yes"}}, {"type": "node", "id": 9968370873, "lat": 34.0249065, "lon": -118.3940171, "tags": {"addr:housenumber": "9355", "addr:postcode": "90232", "addr:street": "Culver Boulevard", "alt_name": "Good Boy Bob", "amenity": "cafe", "contact:instagram": "goodboybobcoffee", "cuisine": "coffee_shop", "level": "0", "name": "goodboybob", "opening_hours": "Mo 07:00-15:00; Su, Tu-Th 07:00-18:00; Fr-Sa 07:00-21:00", "outdoor_seating": "yes", "phone": "1 (424) 581 7046", "website": "https://goodboybob.com/"}}, {"type": "node", "id": 9982332935, "lat": 34.0626067, "lon": -118.3511662, "tags": {"amenity": "cafe", "brand": "Starbucks", "brand:wikidata": "Q37158", "contact:website": "https://www.starbucks.com/store-locator/store/1006844/ralphs-los-angeles-289-5601-wilshire-blvd-los-angeles-ca-90036-us", "cuisine": "coffee_shop", "name": "Starbucks", "official_name": "Starbucks Coffee", "takeaway": "yes"}}, {"type": "node", "id": 9998598105, "lat": 34.0977771, "lon": -118.33012, "tags": {"amenity": "cafe", "brand": "Philz Coffee", "brand:wikidata": "Q18156812", "cuisine": "coffee_shop", "name": "Philz Coffee", "takeaway": "yes"}}, {"type": "node", "id": 10068030352, "lat": 34.0508324, "lon": -118.4597036, "tags": {"amenity": "cafe", "cuisine": "coffee_shop", "name": "Bluestone Lane"}}, {"type": "node", "id": 10133254411, "lat": 34.08438, "lon": -118.3205644, "tags": {"amenity": "cafe", "brand": "The Coffee Bean & Tea Leaf", "brand:wikidata": "Q1141384", "cuisine": "coffee_shop", "name": "The Coffee Bean & Tea Leaf", "takeaway": "yes"}}, {"type": "node", "id": 10180090926, "lat": 34.0537556, "lon": -118.4660759, "tags": {"amenity": "cafe", "brand": "Starbucks", "brand:wikidata": "Q37158", "contact:website": "https://www.starbucks.com/store-locator/store/15249/san-vicente-barrington-11707-san-vicente-blvd-los-angeles-ca-900496628-us", "cuisine": "coffee_shop", "name": "Starbucks", "official_name": "Starbucks Coffee", "takeaway": "yes"}}, {"type": "node", "id": 10181219305, "lat": 34.0523965, "lon": -118.4705499, "tags": {"amenity": "cafe", "brand": "Joe & The Juice", "brand:wikidata": "Q26221514", "cuisine": "coffee_shop", "name": "Joe & The Juice", "takeaway": "yes"}}, {"type": "node", "id": 10203928503, "lat": 34.2496913, "lon": -118.5803418}, {"type": "node", "id": 10203928504, "lat": 34.2496913, "lon": -118.5803254}, {"type": "node", "id": 10203928505, "lat": 34.2496846, "lon": -118.5803254}, {"type": "node", "id": 10203928506, "lat": 34.2496846, "lon": -118.5801992}, {"type": "node", "id": 10203928507, "lat": 34.2497076, "lon": -118.5801992}, {"type": "node", "id": 10203928508, "lat": 34.2497076, "lon": -118.5801297}, {"type": "node", "id": 10203928509, "lat": 34.2497436, "lon": -118.5801297}, {"type": "node", "id": 10203928510, "lat": 34.2497436, "lon": -118.5801341}, {"type": "node", "id": 10203928511, "lat": 34.2498031, "lon": -118.5801337}, {"type": "node", "id": 10203928512, "lat": 34.2498034, "lon": -118.5801962}, {"type": "node", "id": 10203928513, "lat": 34.2497991, "lon": -118.5802018}, {"type": "node", "id": 10203928514, "lat": 34.2497986, "lon": -118.5803085}, {"type": "node", "id": 10203928515, "lat": 34.2497852, "lon": -118.5803084}, {"type": "node", "id": 10203928516, "lat": 34.249785, "lon": -118.5803424}, {"type": "node", "id": 10292148350, "lat": 34.2566412, "lon": -118.537043}, {"type": "node", "id": 10292148351, "lat": 34.2566414, "lon": -118.5370808}, {"type": "node", "id": 10292148352, "lat": 34.2566856, "lon": -118.5370804}, {"type": "node", "id": 10292148353, "lat": 34.2566867, "lon": -118.5371749}, {"type": "node", "id": 10292148354, "lat": 34.2565889, "lon": -118.537176}, {"type": "node", "id": 10294383022, "lat": 33.9986255, "lon": -118.4733471, "tags": {"amenity": "cafe", "cuisine": "coffee_shop", "name": "Bluestone Lane"}}, {"type": "node", "id": 10297575875, "lat": 34.0600771, "lon": -118.4189974, "tags": {"amenity": "cafe", "cuisine": "coffee_shop", "level": "2", "name": "La Terazza", "outdoor_seating": "yes"}}, {"type": "node", "id": 10301547753, "lat": 34.0683507, "lon": -118.4040251, "tags": {"amenity": "cafe", "cuisine": "coffee_shop", "name": "Brighton Coffee Shop"}}, {"type": "node", "id": 10553190201, "lat": 34.041184, "lon": -118.444033, "tags": {"addr:city": "Los Angeles", "addr:housenumber": "1947", "addr:postcode": "90025", "addr:state": "CA", "addr:street": "Sawtelle Boulevard", "addr:unit": "B", "amenity": "cafe", "branch": "Sawtelle", "cuisine": "coffee_shop", "name": "10 Speed Coffee", "opening_hours": "Mo-Su 06:00-18:00", "phone": "+1-424-208-3445", "website": "https://www.10speedcoffee.com/sawtelle"}}, {"type": "node", "id": 10706370429, "lat": 34.238643, "lon": -118.5559748, "tags": {"amenity": "cafe", "brand": "Starbucks", "brand:wikidata": "Q37158", "contact:website": "https://www.starbucks.com/store-locator/store/90552/northridge-fashion-center-9301-tampa-avenue-northridge-ca-913242503-us", "cuisine": "coffee_shop", "level": "1", "name": "Starbucks", "official_name": "Starbucks Coffee", "takeaway": "yes"}}, {"type": "node", "id": 10724690508, "lat": 34.1153931, "lon": -118.2640702, "tags": {"addr:housenumber": "2999", "addr:postcode": "90039", "addr:street": "Glendale Boulevard", "amenity": "cafe", "check_date": "2023-03-31", "cuisine": "coffee_shop", "name": "Cafecito Organico", "outdoor_seating": "yes", "payment:mastercard": "yes", "payment:visa": "yes"}}, {"type": "node", "id": 10728948007, "lat": 33.9894117, "lon": -118.4627914, "tags": {"amenity": "cafe", "cuisine": "coffee_shop", "name": "Alfred"}}, {"type": "node", "id": 10738084068, "lat": 34.0577687, "lon": -118.4187913, "tags": {"amenity": "cafe", "brand": "The Coffee Bean & Tea Leaf", "brand:wikidata": "Q1141384", "cuisine": "coffee_shop", "level": "1", "name": "The Coffee Bean & Tea Leaf", "takeaway": "yes"}}, {"type": "node", "id": 10778795089, "lat": 34.0635118, "lon": -118.4475263, "tags": {"amenity": "cafe", "cuisine": "coffee_shop", "name": "Upside Down"}}, {"type": "node", "id": 10797302596, "lat": 34.0119064, "lon": -118.4203237, "tags": {"amenity": "cafe", "cuisine": "coffee_shop", "name": "Kind Grounds"}}, {"type": "node", "id": 10798690187, "lat": 34.0264345, "lon": -118.2775259, "tags": {"amenity": "cafe", "brand": "Starbucks", "brand:wikidata": "Q37158", "contact:website": "https://www.starbucks.com/store-locator/store/1009663/figueroa-28th-2735-s-figueroa-st-los-angeles-ca-900073256-us", "cuisine": "coffee_shop", "name": "Starbucks", "official_name": "Starbucks Coffee", "takeaway": "yes"}}, {"type": "node", "id": 10882023105, "lat": 33.7398823, "lon": -118.2921072, "tags": {"addr:city": "San Pedro", "addr:housenumber": "438", "addr:postcode": "90731", "addr:state": "CA", "addr:street": "South Gaffey Street", "amenity": "cafe", "brand": "Starbucks", "brand:wikidata": "Q37158", "contact:website": "https://www.starbucks.com/store-locator/store/7009/gaffey-5th-san-pedro-438-s-gaffey-ave-san-pedro-ca-907312436-us", "cuisine": "coffee_shop", "name": "Starbucks", "official_name": "Starbucks Coffee", "takeaway": "yes"}}, {"type": "node", "id": 10897791807, "lat": 33.9990757, "lon": -118.4141829, "tags": {"amenity": "cafe", "cuisine": "coffee_shop", "name": "Coffee Commissary"}}, {"type": "node", "id": 10903261844, "lat": 34.2724887, "lon": -118.4681852}, {"type": "node", "id": 10903261845, "lat": 34.2723408, "lon": -118.4681559}, {"type": "node", "id": 10903261846, "lat": 34.2723382, "lon": -118.4681744}, {"type": "node", "id": 10903261847, "lat": 34.272294, "lon": -118.4681656}, {"type": "node", "id": 10903261848, "lat": 34.2723074, "lon": -118.4680667}, {"type": "node", "id": 10903261849, "lat": 34.2723438, "lon": -118.4680739}, {"type": "node", "id": 10903261850, "lat": 34.2723517, "lon": -118.4680155}, {"type": "node", "id": 10903261851, "lat": 34.2723419, "lon": -118.4680136}, {"type": "node", "id": 10903261852, "lat": 34.2723487, "lon": -118.4679632}, {"type": "node", "id": 10903261853, "lat": 34.2724041, "lon": -118.4679742}, {"type": "node", "id": 10903261854, "lat": 34.2725134, "lon": -118.468003}, {"type": "node", "id": 10903261855, "lat": 34.2724032, "lon": -118.4679812}, {"type": "node", "id": 10919986339, "lat": 34.0335462, "lon": -118.4483951, "tags": {"amenity": "cafe", "cuisine": "coffee_shop", "name": "Motoring Coffee", "opening_hours": "Mo-Su 07:00-16:00"}}, {"type": "node", "id": 10925637205, "lat": 33.996608, "lon": -118.435086, "tags": {"addr:housenumber": "12712", "addr:postcode": "90066", "addr:street": "Washington Boulevard", "amenity": "cafe", "cuisine": "coffee_shop", "internet_access": "wlan", "name": "The Boy & The Bear - Coffee Roastery", "opening_hours": "Mo-Su 07:00-16:00", "website": "https://theboyandthebear.com/pages/store/the-grey-store"}}, {"type": "node", "id": 10933394784, "lat": 34.0637234, "lon": -118.2963514, "tags": {"amenity": "cafe", "cuisine": "coffee_shop", "name": "Sharp Specialty Coffee"}}, {"type": "node", "id": 10933394800, "lat": 34.0637289, "lon": -118.2970113, "tags": {"amenity": "cafe", "brand": "Starbucks", "brand:wikidata": "Q37158", "contact:website": "https://www.starbucks.com/store-locator/store/1022792/6th-kenmore-chapman-market-3465-w-6th-street-30-40-los-angeles-ca-900202567-u", "cuisine": "coffee_shop", "name": "Starbucks", "official_name": "Starbucks Coffee", "takeaway": "yes"}}, {"type": "node", "id": 10933444910, "lat": 34.0631358, "lon": -118.3039153, "tags": {"amenity": "cafe", "cuisine": "coffee_shop", "name": "3Thyme"}}, {"type": "node", "id": 10933487030, "lat": 34.2347784, "lon": -118.5357531}, {"type": "node", "id": 10933487031, "lat": 34.2347747, "lon": -118.5357531}, {"type": "node", "id": 10933487032, "lat": 34.2348837, "lon": -118.5357026}, {"type": "node", "id": 10944868497, "lat": 34.1237311, "lon": -118.219566, "tags": {"amenity": "cafe", "brand": "Starbucks", "brand:wikidata": "Q37158", "contact:website": "https://www.starbucks.com/store-locator/store/7693/eagle-rock-york-eagle-rock-4430-york-blvd-los-angeles-ca-900413328-us", "cuisine": "coffee_shop", "internet_access": "wlan", "internet_access:fee": "no", "name": "Starbucks", "official_name": "Starbucks Coffee", "takeaway": "yes"}}, {"type": "node", "id": 10969604350, "lat": 34.010107, "lon": -118.4386506, "tags": {"amenity": "cafe", "cuisine": "coffee_shop", "name": "Love Coffee Bar"}}, {"type": "node", "id": 10969742022, "lat": 33.9864447, "lon": -118.440046, "tags": {"addr:city": "Marina Del Rey", "addr:housenumber": "13420", "addr:postcode": "90292", "addr:state": "CA", "addr:street": "Maxella Avenue", "addr:unit": "C20", "amenity": "cafe", "brand": "The Coffee Bean & Tea Leaf", "brand:wikidata": "Q1141384", "cuisine": "coffee_shop", "internet_access": "wlan", "name": "The Coffee Bean & Tea Leaf", "opening_hours": "Mo-Fr 05:30-22:00, Sa-Su 06:00-22:00", "outdoor_seating": "yes", "phone": "+1-310-823-0858", "takeaway": "yes", "website": "https://www.coffeebean.com/stores/ca/marina-del-rey/13420-maxella"}}, {"type": "node", "id": 11126800457, "lat": 34.1950351, "lon": -118.449188, "tags": {"amenity": "cafe", "brand": "Starbucks", "brand:wikidata": "Q37158", "cuisine": "coffee_shop", "name": "Starbucks", "official_name": "Starbucks Coffee", "takeaway": "yes"}}, {"type": "node", "id": 11195936940, "lat": 34.2353818, "lon": -118.485914}, {"type": "node", "id": 11195936941, "lat": 34.2353821, "lon": -118.4860082}, {"type": "node", "id": 11195936942, "lat": 34.2351926, "lon": -118.4860097}, {"type": "node", "id": 11195936943, "lat": 34.2351921, "lon": -118.4859152}, {"type": "node", "id": 11197122602, "lat": 34.2846543, "lon": -118.4416335}, {"type": "node", "id": 11197122603, "lat": 34.2845626, "lon": -118.4416198}, {"type": "node", "id": 11197122604, "lat": 34.284558, "lon": -118.4416261}, {"type": "node", "id": 11255964565, "lat": 34.0746788, "lon": -118.376289, "tags": {"amenity": "cafe", "brand": "Corner Bakery", "brand:wikidata": "Q5171598", "cuisine": "coffee_shop", "name": "Corner Bakery", "takeaway": "yes"}}, {"type": "node", "id": 11276281697, "lat": 34.1588837, "lon": -118.3714871}, {"type": "node", "id": 11276281698, "lat": 34.1589039, "lon": -118.3714866}, {"type": "node", "id": 11276281699, "lat": 34.1589037, "lon": -118.3714751}, {"type": "node", "id": 11276281700, "lat": 34.1589279, "lon": -118.3714745}, {"type": "node", "id": 11276281701, "lat": 34.1589262, "lon": -118.3713712}, {"type": "node", "id": 11276281702, "lat": 34.1589462, "lon": -118.3713707}, {"type": "node", "id": 11276281703, "lat": 34.1589456, "lon": -118.371331}, {"type": "node", "id": 11276281704, "lat": 34.1588738, "lon": -118.3713328}, {"type": "node", "id": 11276281705, "lat": 34.1588744, "lon": -118.3713691}, {"type": "node", "id": 11276281706, "lat": 34.1588817, "lon": -118.3713689}, {"type": "node", "id": 11276281853, "lat": 34.1788572, "lon": -118.5957969}, {"type": "node", "id": 11276281854, "lat": 34.1789691, "lon": -118.5957934}, {"type": "node", "id": 11289879340, "lat": 33.9595765, "lon": -118.4194422, "tags": {"amenity": "cafe", "cuisine": "coffee_shop", "level": "0"}}, {"type": "node", "id": 11347894484, "lat": 34.2209243, "lon": -118.4215659, "tags": {"addr:housenumber": "13248", "addr:street": "Roscoe Boulevard", "amenity": "cafe", "cuisine": "coffee_shop", "email": "abarnes@gracechurch.org", "name": "Steeple House Coffee", "opening_hours": "Mo-Fr 08:00-15:00; Su 12:30-20:00", "phone": "818-909-5727"}}, {"type": "node", "id": 11375852203, "lat": 34.0767049, "lon": -118.3089482, "tags": {"amenity": "cafe", "cuisine": "coffee_shop", "name": "Balcony"}}, {"type": "node", "id": 11378679117, "lat": 34.0760177, "lon": -118.255218, "tags": {"amenity": "cafe", "cuisine": "coffee_shop", "name": "Stereoscope Coffee"}}, {"type": "node", "id": 11378679119, "lat": 34.0761391, "lon": -118.2563405, "tags": {"amenity": "cafe", "cuisine": "coffee_shop", "name": "Woodcat"}}, {"type": "node", "id": 11391069586, "lat": 34.0855597, "lon": -118.2751157, "tags": {"amenity": "cafe", "cuisine": "coffee_shop", "name": "Dayglow"}}, {"type": "node", "id": 11391069612, "lat": 34.0920535, "lon": -118.2802605, "tags": {"amenity": "cafe", "cuisine": "coffee_shop", "name": "Intelligentsia"}}, {"type": "node", "id": 11391331154, "lat": 33.9879522, "lon": -118.257156, "tags": {"amenity": "cafe", "brand": "Starbucks", "brand:wikidata": "Q37158", "cuisine": "coffee_shop", "name": "Starbucks", "official_name": "Starbucks Coffee", "takeaway": "yes"}}, {"type": "node", "id": 11406555806, "lat": 34.057005, "lon": -118.2481543}, {"type": "node", "id": 11415460228, "lat": 34.0382672, "lon": -118.441919, "tags": {"addr:city": "Los Angeles", "addr:housenumber": "11301", "addr:postcode": "90064", "addr:state": "CA", "addr:street": "West Olympic Boulevard", "addr:unit": "120", "amenity": "cafe", "branch": "Sawtelle", "cuisine": "coffee_shop", "name": "Alfred", "outdoor_seating": "yes", "phone": "+1-424-535-3145", "website": "https://alfred.la/"}}, {"type": "node", "id": 11472263945, "lat": 34.0534695, "lon": -118.4625413, "tags": {"amenity": "cafe", "cuisine": "coffee_shop", "name": "Caffe Luxxe"}}, {"type": "node", "id": 11473884924, "lat": 34.0137257, "lon": -118.4087007, "tags": {"amenity": "cafe", "cuisine": "coffee_shop", "name": "Cofax"}}, {"type": "node", "id": 11506147499, "lat": 34.1576794, "lon": -118.4916304, "tags": {"amenity": "cafe", "brand": "Starbucks", "brand:wikidata": "Q37158", "cuisine": "coffee_shop", "name": "Starbucks", "official_name": "Starbucks Coffee", "takeaway": "yes"}}, {"type": "node", "id": 11535809537, "lat": 34.0716192, "lon": -118.4033803, "tags": {"amenity": "cafe", "cuisine": "coffee_shop", "name": "Alfred Coffee"}}, {"type": "node", "id": 11582338320, "lat": 33.7233152, "lon": -118.3120289}, {"type": "node", "id": 11582338321, "lat": 33.7233699, "lon": -118.3121159}, {"type": "node", "id": 11582338322, "lat": 33.7234488, "lon": -118.312044}, {"type": "node", "id": 11582338323, "lat": 33.7234073, "lon": -118.311978}, {"type": "node", "id": 11582338324, "lat": 33.7233671, "lon": -118.3119816}, {"type": "node", "id": 11609727182, "lat": 34.1675852, "lon": -118.5895421, "tags": {"amenity": "cafe", "brand": "Blue Bottle Coffee", "brand:en": "Blue Bottle Coffee", "brand:ja": "\u30d6\u30eb\u30fc\u30dc\u30c8\u30eb\u30b3\u30fc\u30d2\u30fc", "brand:wikidata": "Q4928917", "cuisine": "coffee_shop", "name": "Blue Bottle Coffee", "name:en": "Blue Bottle Coffee", "name:ja": "\u30d6\u30eb\u30fc\u30dc\u30c8\u30eb\u30b3\u30fc\u30d2\u30fc", "takeaway": "yes"}}, {"type": "node", "id": 11638566469, "lat": 34.0251218, "lon": -118.4072738, "tags": {"addr:housenumber": "3570", "addr:postcode": "90034", "addr:street": "Motor Avenue", "amenity": "cafe", "contact:instagram": "thelittlemarionetteusa", "cuisine": "coffee_shop", "email": "info@thelittlemarionetteusa.com", "internet_access": "wlan", "name": "The Little Marionette", "opening_hours": "Mo-Su 07:00-16:00", "website": "https://thelittlemarionetteusa.com/"}}, {"type": "node", "id": 11650164380, "lat": 34.0869093, "lon": -118.3388752, "tags": {"amenity": "cafe", "brand": "Starbucks", "brand:wikidata": "Q37158", "cuisine": "coffee_shop", "name": "Starbucks", "official_name": "Starbucks Coffee", "outdoor_seating": "yes", "takeaway": "yes"}}, {"type": "node", "id": 11666977563, "lat": 33.8578495, "lon": -118.2939356, "tags": {"amenity": "cafe", "cuisine": "coffee_shop", "name": "Nook Coffee Bar"}}, {"type": "way", "id": 133752174, "nodes": [1472144050, 1472144049, 1472144045, 4306237023, 4306237030, 4306237029, 4306237024, 11276281854, 1472144044, 1472144022, 11276281853, 1472144023, 1472144012, 3886657135, 1472144050], "tags": {"amenity": "cafe", "brand": "Starbucks", "brand:wikidata": "Q37158", "building": "commercial", "contact:website": "https://www.starbucks.com/store-locator/store/1033628/oxnard-canoga-21322-w-oxnard-st-woodland-hills-ca-913675016-us", "cuisine": "coffee_shop", "ele": "260.1", "height": "5.9", "lacounty:ain": "2149002013", "lacounty:bld_id": "381448888024", "name": "Starbucks", "official_name": "Starbucks Coffee", "start_date": "1979", "takeaway": "yes"}}, {"type": "way", "id": 265895144, "nodes": [2715023554, 2715023553, 2715023548, 2715023549, 2715023554], "tags": {"addr:city": "Los Angeles", "addr:housenumber": "5020", "addr:postcode": "90036", "addr:state": "CA", "addr:street": "Wilshire Boulevard", "amenity": "cafe", "brand": "Starbucks", "brand:wikidata": "Q37158", "building": "retail", "contact:website": "https://www.starbucks.com/store-locator/store/8668/wilshire-highland-5020-wilshire-blvd-los-angeles-ca-900364315-us", "cuisine": "coffee_shop", "ele": "64.0", "height": "4.4", "internet_access": "wlan", "lacounty:ain": "5507028029", "lacounty:bld_id": "459030845086", "name": "Starbucks", "official_name": "Starbucks Coffee", "phone": "+1 323 936 2989", "smoking": "no", "start_date": "1981", "takeaway": "yes"}}, {"type": "way", "id": 274459958, "nodes": [2791749179, 2791749182, 2791749181, 2791749180, 2791749179], "tags": {"addr:city": "Los Angeles", "addr:housenumber": "3470", "addr:postcode": "90034", "addr:street": "Sepulveda Boulevard", "amenity": "cafe", "brand": "The Coffee Bean & Tea Leaf", "brand:wikidata": "Q1141384", "building": "yes", "building:levels": "1", "cuisine": "coffee_shop", "ele": "45.5", "height": "4.8", "lacounty:ain": "4251028031", "lacounty:bld_id": "433757829821", "name": "The Coffee Bean & Tea Leaf", "phone": "+1-310-3130259", "smoking": "outside", "start_date": "2002", "takeaway": "yes"}}, {"type": "way", "id": 303883932, "nodes": [3083678367, 3083678369, 3083678368, 4319969197, 4319969198, 4319969199, 3083678358, 3083678357, 3083678354, 3083678356, 3083678352, 3083678350, 3083678351, 3083678349, 3083678367], "tags": {"amenity": "cafe", "brand": "Starbucks", "brand:wikidata": "Q37158", "building": "commercial", "contact:website": "https://www.starbucks.com/store-locator/store/116630/roscoe-balboa-16926-roscoe-blvd-van-nuys-ca-914061101-us", "cuisine": "coffee_shop", "ele": "253.7", "height": "7.6", "lacounty:ain": "2205002004", "lacounty:bld_id": "409886903196", "name": "Starbucks", "official_name": "Starbucks Coffee", "start_date": "1970", "takeaway": "yes"}}, {"type": "way", "id": 313005654, "nodes": [3189210033, 3189210034, 3189210035, 3189210036, 3189210033], "tags": {"addr:city": "Marina Del Rey", "addr:housenumber": "100", "addr:postcode": "90292", "addr:state": "CA", "addr:street": "Washington Boulevard", "amenity": "cafe", "brand": "Starbucks", "brand:wikidata": "Q37158", "building": "retail", "check_date": "2024-02-27", "contact:website": "https://www.starbucks.com/store-locator/store/13317/washington-pacific-100-washington-blvd-marina-del-rey-ca-902925126-us", "cuisine": "coffee_shop", "ele": "12.4", "height": "8.5", "internet_access": "yes", "lacounty:ain": "4225002001", "lacounty:bld_id": "420600815315", "name": "Starbucks", "office": "yes", "official_name": "Starbucks Coffee", "outdoor_seating": "no", "phone": "+1 310 821 5233", "takeaway": "yes"}}, {"type": "way", "id": 316837302, "nodes": [4211961567, 4211961570, 4211961560, 4211961554, 4211961546, 4211961542, 3230208664, 4211961527, 4211961521, 4211961513, 4211961518, 3230208665, 3230208662, 4211961595, 4211961589, 3230208663, 4211961567], "tags": {"addr:city": "Marina del Rey", "addr:housenumber": "13431", "addr:postcode": "90292", "addr:state": "CA", "addr:street": "W Washington Boulevard", "amenity": "cafe", "brand": "Starbucks", "brand:wikidata": "Q37158", "building": "retail", "building:units": "4", "check_date": "2015-04-10", "cuisine": "coffee_shop", "ele": "14.8", "height": "7.7", "internet_access": "yes", "lacounty:ain": "4236029008", "lacounty:bld_id": "426304819553", "name": "Starbucks", "official_name": "Starbucks Coffee", "opening_hours": "Mo-Su 5:00-20:00", "phone": "+1 310 306 8990", "start_date": "1999", "takeaway": "yes"}}, {"type": "way", "id": 317268254, "nodes": [3235183218, 3235183217, 3235183220, 3235183219, 3235183218], "tags": {"amenity": "cafe", "brand": "Starbucks", "brand:wikidata": "Q37158", "building": "commercial", "contact:website": "https://www.starbucks.com/store-locator/store/16915/victory-coldwater-12848-victory-blvd-north-hollywood-ca-916063013-us", "cuisine": "coffee_shop", "ele": "219.4", "height": "5.8", "internet_access": "yes", "lacounty:ain": "2332001009", "lacounty:bld_id": "436609890490", "name": "Starbucks", "official_name": "Starbucks Coffee", "start_date": "1975", "takeaway": "yes"}}, {"type": "way", "id": 340025395, "nodes": [3472319865, 3472319883, 3472319866, 3472319867, 3472383707, 3472319868, 3472319865], "tags": {"addr:city": "Sherman Oaks", "addr:housenumber": "14622", "addr:postcode": "91403", "addr:state": "CA", "addr:street": "Ventura Boulevard", "amenity": "cafe", "brand": "Starbucks", "brand:wikidata": "Q37158", "building": "retail", "check_date": "2015", "cuisine": "coffee_shop", "ele": "212.2", "height": "9.8", "internet_access": "wlan", "lacounty:ain": "2276002066", "lacounty:bld_id": "2014102419050000", "level": "1", "name": "Starbucks", "official_name": "Starbucks Coffee", "opening_hours": "Mo-Th 05:00-21:30, Fr,Sa 05:00-22:00; Su 06:00-22:00", "phone": "+1 818 501 6535", "start_date": "1938", "takeaway": "yes"}}, {"type": "way", "id": 380719081, "nodes": [3840429394, 4299728260, 4299728265, 4299728264, 4299728267, 4299728266, 4299728263, 4299728262, 4299728261, 3840429395, 4299728259, 4299728258, 3840429396, 4299728251, 4299728239, 4299728238, 4299728249, 4299728250, 4299728235, 4299728234, 4299728244, 3840429397, 3840429394], "tags": {"amenity": "cafe", "brand": "Starbucks", "brand:wikidata": "Q37158", "building": "retail", "contact:website": "https://www.starbucks.com/store-locator/store/10209/canoga-sherman-way-7258-canoga-ave-canoga-park-ca-913031627-us", "cuisine": "coffee_shop", "ele": "249.9", "height": "6.6", "lacounty:ain": "2111029001", "lacounty:bld_id": "381032896728", "name": "Starbucks", "official_name": "Starbucks Coffee", "start_date": "2007", "takeaway": "yes"}}, {"type": "way", "id": 398074544, "nodes": [4304007493, 4008496490, 4008496489, 4304007587, 4304007695, 4008496492, 4304007518, 4304007500, 4008496491, 4304007489, 4304007493], "tags": {"amenity": "cafe", "brand": "Starbucks", "brand:wikidata": "Q37158", "building": "commercial", "contact:website": "https://www.starbucks.com/store-locator/store/1006924/ventura-de-soto-20903-ventura-blvd-woodland-hills-ca-913642331-us", "cuisine": "coffee_shop", "ele": "286.8", "height": "10.5", "lacounty:ain": "2167001015", "lacounty:bld_id": "2014121106350000", "name": "Starbucks", "official_name": "Starbucks Coffee", "takeaway": "yes"}}, {"type": "way", "id": 401895844, "nodes": [4043067034, 4281438172, 4281438171, 4043067030, 4043067031, 4281438291, 4281438299, 4043067032, 4043067033, 4043067034], "tags": {"addr:housenumber": "2560", "addr:postcode": "90039", "addr:street": "Glendale Boulevard", "air_conditioning": "yes", "amenity": "cafe", "bar": "no", "brand": "Starbucks", "brand:wikidata": "Q37158", "building": "yes", "building:levels": "1", "building:units": "3", "contact:website": "https://www.starbucks.com/store-locator/store/12246/glendale-fletcher-2560-glendale-blvd-los-angeles-ca-900393220-us", "cuisine": "coffee_shop", "drive_through": "no", "ele": "132.5", "height": "7.4", "lacounty:ain": "5440001002", "lacounty:bld_id": "483280860370", "name": "Starbucks", "official_name": "Starbucks Coffee", "opening_hours": "Mo-Fr 04:00-20:00; Sa-Su 04:30-20:00", "smoking": "no", "start_date": "1998", "takeaway": "yes", "toilets": "yes", "wheelchair": "yes"}}, {"type": "way", "id": 407341922, "nodes": [2819286068, 4093860191, 4093860228, 4093860229, 4093860233, 4093860234, 4093859752, 4093859753, 4093859739, 4093859737, 4093859706, 4093859705, 4093859375, 4093859373, 4093859704, 4093859700, 4093859378, 4093859377, 4093859703, 4093859701, 4093859374, 4093859372, 4093859702, 4093859699, 4093859371, 4093859370, 4093859379, 4093859376, 4093859696, 4093859693, 4093859758, 4093859759, 4093860239, 4093860243, 4093860244, 4093860238, 2819286068], "tags": {"addr:city": "San Pedro", "addr:housenumber": "3821", "addr:postcode": "90731", "addr:street": "South Pacific Avenue", "amenity": "restaurant", "building": "commercial", "cuisine": "coffee_shop", "ele": "43.3", "height": "4.3", "lacounty:ain": "7467019014;7467019015", "lacounty:bld_id": "474008716669;473960716700", "name": "Pacific Diner", "opening_hours": "06:00-15:00", "smoking": "outside"}}, {"type": "way", "id": 420114002, "nodes": [4200929004, 4200928994, 4200928985, 4200928984, 4200928979, 4200928980, 4200928974, 4200928975, 4200928960, 4200928961, 4200928972, 4200928973, 4200928963, 4200928964, 4200928982, 4200928981, 4200928987, 4200928986, 4200928988, 4200928989, 4200929002, 4200929003, 4200929004], "tags": {"addr:city": "Los Angeles", "addr:housenumber": "534", "addr:postcode": "90026", "addr:state": "CA", "addr:street": "Hoover Street", "amenity": "cafe", "building": "retail", "cuisine": "coffee_shop", "ele": "101.8", "height": "5.6", "internet_access": "wlan", "lacounty:ain": "5401009051", "lacounty:bld_id": "475595851762", "name": "Cafecito Org\u00e1nico", "opening_hours": "Mo-Fr 06:00-19:00;Sa-Su 07:00-19:00", "start_date": "1920"}}, {"type": "way", "id": 425132648, "nodes": [4244533301, 4244533300, 4244533298, 4244533297, 4244533296, 4244533293, 4244533295, 4244533292, 4244533291, 4244533290, 4244533286, 4244533283, 4244533285, 4244533284, 4244533287, 4244533282, 4244533310, 4244533313, 4244533314, 4244533323, 4244533320, 4244533322, 4244533319, 4244533321, 4244533309, 4244533308, 4244533302, 4244533303, 4244533301], "tags": {"addr:housenumber": "3061", "addr:street": "Sawtelle Boulevard", "amenity": "cafe", "brand": "Starbucks", "brand:wikidata": "Q37158", "building": "yes", "contact:website": "https://www.starbucks.com/store-locator/store/1025090/sawtelle-clover-3061-sawtelle-blvd-los-angeles-ca-900661407-us", "cuisine": "coffee_shop", "ele": "46.0", "height": "7.8", "lacounty:ain": "4250026036", "lacounty:bld_id": "431029831955", "name": "Starbucks", "official_name": "Starbucks Coffee", "takeaway": "yes"}}, {"type": "way", "id": 425139630, "nodes": [4244564912, 4244564917, 4244564913, 4244564910, 4244564909, 4244564907, 4244564905, 4244564908, 4244564906, 4244564912], "tags": {"addr:housenumber": "11155", "amenity": "cafe", "brand": "Starbucks", "brand:wikidata": "Q37158", "building": "yes", "building:units": "2", "contact:website": "https://www.starbucks.com/store-locator/store/15441/santa-monica-pontius-11155-santa-monica-blvd-west-los-angeles-ca-900253", "cuisine": "coffee_shop", "ele": "80.3", "height": "4.7", "lacounty:ain": "4324035010", "lacounty:bld_id": "426795839997", "name": "Starbucks", "official_name": "Starbucks Coffee", "start_date": "1946", "takeaway": "yes"}}, {"type": "way", "id": 425427744, "nodes": [4247507081, 4247507093, 4247507088, 4247507089, 4247507082, 4247507080, 4247507076, 4247507069, 8441686975, 4247507081], "tags": {"amenity": "cafe", "brand": "Starbucks", "brand:wikidata": "Q37158", "building": "commercial", "building:units": "1", "contact:website": "https://www.starbucks.com/store-locator/store/1027492/westwood-ohio-1500-westwood-blvd-westwood-ca-900245602-us", "cuisine": "coffee_shop", "ele": "94.6", "height": "6.5", "lacounty:ain": "4325020001", "lacounty:bld_id": "428284842363", "name": "Starbucks", "official_name": "Starbucks Coffee", "start_date": "1970", "takeaway": "yes"}}, {"type": "way", "id": 425561703, "nodes": [4248538585, 4248538598, 4248538594, 4248538602, 4248538560, 4248538561, 4248538546, 4248538545, 4248538543, 4248538540, 4248538534, 4248538529, 4248538585], "tags": {"addr:city": "Los Angeles", "addr:housenumber": "12100", "addr:street": "Santa Monica Boulevard", "amenity": "cafe", "brand": "Starbucks", "brand:wikidata": "Q37158", "building": "retail", "contact:website": "https://www.starbucks.com/store-locator/store/13311/santa-monica-bundy-12100-santa-monica-blvd-west-los-angeles-ca-900252", "cuisine": "coffee_shop", "ele": "70.2", "height": "5.7", "internet_access": "wlan", "lacounty:ain": "4263037021", "lacounty:bld_id": "421303837366", "name": "Starbucks", "official_name": "Starbucks Coffee", "opening_hours": "Mo-Fr 04:30-22:00; Sa-Su 05:00-22:00", "outdoor_seating": "yes", "phone": "+1 310 571 9262", "smoking": "no", "source": "Bing", "start_date": "1948", "takeaway": "yes", "wheelchair": "limited"}}, {"type": "way", "id": 425993526, "nodes": [4253188252, 4253188259, 4253188258, 4253188267, 4253188287, 4253188278, 4253188274, 4253188270, 8873772418, 8873772421, 4253188252], "tags": {"amenity": "cafe", "brand": "Starbucks", "brand:wikidata": "Q37158", "building": "commercial", "contact:website": "https://www.starbucks.com/store-locator/store/69543/dtla-grand-park-217-n-hill-street-los-angeles-ca-900122705-us", "cuisine": "coffee_shop", "ele": "116.7", "height": "7.8", "lacounty:ain": "5161004908", "lacounty:bld_id": "2014092851800000", "name": "Starbucks", "official_name": "Starbucks Coffee", "takeaway": "yes"}}, {"type": "way", "id": 426706984, "nodes": [4259759705, 4259759706, 4259759708, 4259759707, 4259759710, 4259759719, 4259759716, 4259759720, 4259759714, 4259759713, 4259759712, 4259759711, 4259759704, 4259758781, 4259758783, 4259758782, 4259758784, 4259758786, 4259758787, 4259758785, 4259758788, 4259759690, 4259759691, 4259759689, 4259759692, 4259759694, 4259759695, 4259759693, 4259759696, 4259759697, 4259759698, 4259759699, 4259759700, 4259759702, 4259759701, 4259759703, 4259759705], "tags": {"air_conditioning": "yes", "amenity": "cafe", "bar": "no", "brand": "Starbucks", "brand:wikidata": "Q37158", "building": "commercial", "building:units": "1", "contact:website": "https://www.starbucks.com/store-locator/store/1028237/glendale-montana-1400-glendale-blvd-los-angeles-ca-900262429-us", "cuisine": "coffee_shop", "ele": "130.5", "height": "8.5", "lacounty:ain": "5419020033", "lacounty:bld_id": "482962851532", "name": "Starbucks", "official_name": "Starbucks Coffee", "outdoor_seating": "yes", "smoking": "no", "start_date": "1989", "takeaway": "yes", "toilets": "yes", "wheelchair": "yes"}}, {"type": "way", "id": 428519750, "nodes": [4276093455, 4276093434, 4276093429, 4276093413, 4276093414, 4276093258, 4276093279, 4276093445, 4276093444, 4276093477, 4276093455], "tags": {"amenity": "cafe", "brand": "Starbucks", "brand:wikidata": "Q37158", "building": "yes", "contact:website": "https://www.starbucks.com/store-locator/store/7663/crenshaw-washington-los-ang-4177-w-washington-blvd-los-angeles-ca-900181055-us", "cuisine": "coffee_shop", "drive_through": "yes", "ele": "62.6", "height": "5.0", "lacounty:ain": "5072001033", "lacounty:bld_id": "2014102448240000", "name": "Starbucks", "official_name": "Starbucks Coffee", "takeaway": "yes"}}, {"type": "way", "id": 429116929, "nodes": [4282369504, 4282369569, 4282369582, 4282369626, 4282369624, 4282369633, 4282369498, 4282369288, 4282369504], "tags": {"amenity": "cafe", "brand": "Starbucks", "brand:wikidata": "Q37158", "building": "yes", "building:units": "1", "building:use": "fast_food", "contact:website": "https://www.starbucks.com/store-locator/store/1022915/figueroa-cypress-3241-n-figueroa-street-los-angeles-ca-900651525-us", "cuisine": "coffee_shop", "ele": "114.6", "height": "4.3", "lacounty:ain": "5446009028;5446009029", "lacounty:bld_id": "495204853929;495170853932", "name": "Starbucks", "official_name": "Starbucks Coffee", "takeaway": "yes"}}, {"type": "way", "id": 429313746, "nodes": [4284320282, 4284320286, 4284320270, 4284320266, 4284320282], "tags": {"addr:city": "West Hollywood", "addr:housenumber": "8363", "addr:postcode": "90069", "addr:state": "CA", "addr:street": "West Sunset Boulevard", "amenity": "cafe", "brand": "Starbucks", "brand:wikidata": "Q37158", "building": "commercial", "cuisine": "coffee_shop", "ele": "122.5", "height": "4.3", "internet_access": "wlan", "internet_access:fee": "customers", "lacounty:ain": "5555021003", "lacounty:bld_id": "449007857434", "name": "Starbucks", "official_name": "Starbucks Coffee", "opening_hours": "Mo-Sa 05:30-21:00; Su 05:30-20:00", "phone": "+1-323-848-8663", "source": "mapillary", "start_date": "1931", "takeaway": "yes", "website": "https://www.starbucks.com/store-locator/store/13332/sunset-blvd-n-kings-rd-8363-n-e-sunset-blvd-west-hollywood-ca-900691515-u"}}, {"type": "way", "id": 430682906, "nodes": [4299505176, 4299505177, 4299505195, 4299505199, 4299505178, 4299505180, 4299505130, 4299505129, 4299505124, 4299505123, 4299504770, 4299504769, 4299505132, 4299505131, 4299505176], "tags": {"amenity": "cafe", "brand": "Starbucks", "brand:wikidata": "Q37158", "building": "retail", "building:units": "2", "contact:website": "https://www.starbucks.com/store-locator/store/8261/saticoy-louise-17272-saticoy-street-van-nuys-ca-914062103-us", "cuisine": "coffee_shop", "ele": "241.7", "height": "7.2", "lacounty:ain": "2203017045;2203017043", "lacounty:bld_id": "407586898388;407581898360", "name": "Starbucks", "official_name": "Starbucks Coffee", "start_date": "1986", "takeaway": "yes"}}, {"type": "way", "id": 430781632, "nodes": [4300511671, 4300511672, 4300511601, 4300511602, 4300511480, 4300511465, 4300511464, 4300511457, 4300511456, 4300511466, 4300511467, 4300511595, 4300511596, 4300511669, 4300511670, 4300511674, 4300511675, 4300511671], "tags": {"amenity": "cafe", "brand": "Starbucks", "brand:wikidata": "Q37158", "building": "yes", "building:use": "fast_food", "contact:website": "https://www.starbucks.com/store-locator/store/1019193/sherman-way-winnetka-20056-sherman-way-canoga-park-ca-913063607-us", "cuisine": "coffee_shop", "ele": "240.8", "height": "6.2", "lacounty:ain": "2135007020", "lacounty:bld_id": "389168895913", "name": "Starbucks", "official_name": "Starbucks Coffee", "start_date": "1978", "takeaway": "yes"}}, {"type": "way", "id": 431015931, "nodes": [4302640083, 4302640084, 4302640071, 4302640070, 4302640038, 4302640039, 4302640031, 4302640032, 4302639934, 4302639933, 4302639983, 4302639984, 4302640124, 4302640123, 4302640121, 4302640122, 4302640083], "tags": {"amenity": "cafe", "brand": "Starbucks", "brand:wikidata": "Q37158", "building": "yes", "building:use": "commercial", "contact:website": "https://www.starbucks.com/store-locator/store/1009982/chatsworth-zelzah-17901-chatsworth-street-granada-hills-ca-913445606", "cuisine": "coffee_shop", "ele": "322.1", "height": "6.6", "lacounty:ain": "2715025055", "lacounty:bld_id": "403411919320", "name": "Starbucks", "official_name": "Starbucks Coffee", "start_date": "1961", "takeaway": "yes"}}, {"type": "way", "id": 431140996, "nodes": [4303894100, 4303894102, 4303894226, 4303894227, 4303894269, 4303894268, 4303894280, 4303894389, 4303894409, 4303894406, 4303894423, 4489598062]}, {"type": "way", "id": 431156059, "nodes": [4304036178, 4304036175, 4304036174, 4304036162, 4304036161, 4304036164, 4304036163, 4304036169, 4304036172, 4304036173, 4304036181, 4304036178], "tags": {"amenity": "cafe", "brand": "Starbucks", "brand:wikidata": "Q37158", "building": "commercial", "building:use": "fast_food", "cuisine": "coffee_shop", "ele": "191.7", "height": "5.2", "lacounty:ain": "2353023022", "lacounty:bld_id": "447098880069", "name": "Starbucks", "official_name": "Starbucks Coffee", "start_date": "2007", "takeaway": "yes"}}, {"type": "way", "id": 431159601, "nodes": [4304066528, 4304066539, 4304066538, 4304066548, 4304066550, 4304066564, 4304066563, 4304066567, 4304066566, 4304066556, 4304066555, 4304066534, 4304066533, 4304066529, 4304066530, 4304066527, 4304066528], "tags": {"amenity": "cafe", "brand": "Starbucks", "brand:wikidata": "Q37158", "building": "yes", "building:use": "fast_food", "contact:website": "https://www.starbucks.com/store-locator/store/1024527/ventura-newcastle-18025-ventura-blvd-encino-ca-913163517-us", "cuisine": "coffee_shop", "ele": "253.6", "height": "6.6", "lacounty:ain": "2162005086", "lacounty:bld_id": "402762882866", "name": "Starbucks", "official_name": "Starbucks Coffee", "start_date": "1980", "takeaway": "yes"}}, {"type": "way", "id": 431165035, "nodes": [4304124440, 4304124420, 4304124419, 4304124406, 4304124407, 4304124394, 4304124393, 4304124226, 4304124225, 4304124444, 4304124445, 4304124443, 4304124442, 4304124441, 4304124440], "tags": {"amenity": "cafe", "brand": "Starbucks", "brand:wikidata": "Q37158", "building": "commercial", "contact:website": "https://www.starbucks.com/store-locator/store/1034193/roscoe-topanga-canyon-21929-w-roscoe-blvd-canoga-park-ca-913043959-us", "cuisine": "coffee_shop", "ele": "264.0", "height": "8.0", "lacounty:ain": "2779037029", "lacounty:bld_id": "378651902970", "layer": "-1", "name": "Starbucks", "official_name": "Starbucks Coffee", "start_date": "1967", "takeaway": "yes"}}, {"type": "way", "id": 431394506, "nodes": [4305971857, 4305972010, 4305972008, 4305972029, 4305972026, 4305972023, 4305972022, 4305972009, 4305972006, 4305971856, 4305971857], "tags": {"amenity": "cafe", "brand": "Starbucks", "brand:wikidata": "Q37158", "building": "retail", "building:units": "7", "contact:website": "https://www.starbucks.com/store-locator/store/11246/reseda-vanowen-6840-reseda-blvd-reseda-ca-913354204-us", "cuisine": "coffee_shop", "ele": "229.3", "height": "6.0", "lacounty:ain": "2125010019", "lacounty:bld_id": "399712893737", "name": "Starbucks", "official_name": "Starbucks Coffee", "start_date": "1957", "takeaway": "yes"}}, {"type": "way", "id": 431416196, "nodes": [4306166667, 9369266283, 9369266284, 9369266285, 9369266286, 4306168167, 4306168118, 4306167977, 4306167975, 4306167921, 4306166660, 4306167790, 4306166667], "tags": {"amenity": "cafe", "brand": "Starbucks", "brand:wikidata": "Q37158", "building": "yes", "contact:website": "https://www.starbucks.com/store-locator/store/1030278/victory-reseda-6360-reseda-blvd-los-angeles-ca-913356943-us", "cuisine": "coffee_shop", "ele": "228.5", "height": "5.8", "name": "Starbucks", "official_name": "Starbucks Coffee", "takeaway": "yes"}}, {"type": "way", "id": 431663467, "nodes": [4308901773, 4308901771, 4308902752, 4321976315, 4321976317, 4321976318, 4321976316, 4308902753, 4308901773], "tags": {"addr:housenumber": "7040", "addr:postcode": "91405", "addr:street": "Sepulveda Boulevard", "amenity": "cafe", "brand": "Starbucks", "brand:wikidata": "Q37158", "building": "yes", "building:levels": "1", "contact:website": "https://www.starbucks.com/store-locator/store/1030754/sepulveda-vose-7040-sepulveda-blvd-van-nuys-ca-914052926-us", "cuisine": "coffee_shop", "ele": "232.5", "height": "3.9", "lacounty:ain": "2220022010", "lacounty:bld_id": "420832895060", "name": "Starbucks", "official_name": "Starbucks Coffee", "start_date": "1958", "takeaway": "yes"}}, {"type": "way", "id": 432073078, "nodes": [4312414504, 4311235706, 4311235707, 4312414499, 4160530657, 4311235700, 4311235705, 4311235693, 4312414368, 4160530656, 4312414363, 4311235362, 4311235359, 4311235305, 4311235302, 4311235290, 4311235184, 4311235157, 4311235163, 4311235155, 4311235149, 4311235150, 4311235156, 4311235162, 4311235153, 4311235185, 4312414303, 4160530660, 4312414321, 4311235306, 4311235364, 4312414359, 4160530659, 4312414371, 4311235689, 4311235703, 4311235701, 4312414493, 4160530658, 4312414504], "tags": {"amenity": "cafe", "brand": "The Coffee Bean & Tea Leaf", "brand:wikidata": "Q1141384", "building": "retail", "cuisine": "coffee_shop", "ele": "187.7", "height": "8.5", "lacounty:ain": "2423005011", "lacounty:bld_id": "450749877927", "name": "The Coffee Bean & Tea Leaf", "office": "yes", "start_date": "1989", "takeaway": "yes"}}, {"type": "way", "id": 432316442, "nodes": [4313946541, 4313946542, 4313946486, 4313946485, 4313946456, 4313946457, 4313946436, 4313946435, 4313946453, 4313946454, 4313946541], "tags": {"amenity": "cafe", "brand": "Starbucks", "brand:wikidata": "Q37158", "building": "yes", "building:units": "1", "contact:website": "https://www.starbucks.com/store-locator/store/1010155/foothill-oro-vista-8241-foothill-blvd-sunland-ca-910402807-us", "cuisine": "coffee_shop", "ele": "428.3", "height": "4.7", "lacounty:ain": "2555022029", "lacounty:bld_id": "467058917117", "name": "Starbucks", "official_name": "Starbucks Coffee", "start_date": "1999", "takeaway": "yes"}}, {"type": "way", "id": 438411318, "nodes": [2615832157, 4361577688, 11197122604, 11197122603, 4361577777, 4361577813, 11197122602, 4361577788, 4361577804, 4361577792, 4361577786, 4361577778, 2615832157], "tags": {"addr:city": "San Fernando", "addr:housenumber": "1135", "addr:postcode": "91340", "addr:state": "CA", "addr:street": "Truman Street", "amenity": "cafe", "brand": "Starbucks", "brand:wikidata": "Q37158", "building": "retail", "building:units": "1", "contact:website": "https://www.starbucks.com/store-locator/store/11293/truman-maclay-1135-truman-street-san-fernando-ca-913403200-us", "cuisine": "coffee_shop", "ele": "333.0", "height": "5.2", "lacounty:ain": "2521034012", "lacounty:bld_id": "428270926250", "name": "Starbucks", "official_name": "Starbucks Coffee", "start_date": "1990", "takeaway": "yes"}}, {"type": "way", "id": 443287381, "nodes": [4409001114, 4409001131, 4409001137, 4409001141, 4409001177, 4409001176, 4409001168, 4409001123, 4409001114], "tags": {"amenity": "cafe", "brand": "Starbucks", "brand:wikidata": "Q37158", "building:part": "yes", "contact:website": "https://www.starbucks.com/store-locator/store/20070/dtla-union-station-main-concou-800-n-alameda-street-s-2-los-angeles-ca-900123742-", "cuisine": "coffee_shop", "indoor": "room", "internet_access": "wlan", "level": "0", "name": "Starbucks", "official_name": "Starbucks Coffee", "outdoor_seating": "no", "room": "shop", "smoking": "no", "takeaway": "yes", "toilets": "no", "wheelchair": "yes"}}, {"type": "way", "id": 452156984, "nodes": [4303894100, 4489598062]}, {"type": "way", "id": 511312413, "nodes": [5001851553, 5001851554, 5001851555, 5001851556, 5001851553], "tags": {"amenity": "cafe", "brand": "Starbucks", "brand:wikidata": "Q37158", "building": "yes", "contact:website": "https://www.starbucks.com/store-locator/store/1037364/pickup-national-overland-10612-national-blvd-los-angeles-ca-900343518-us", "cuisine": "coffee_shop", "disused:amenity": "cafe", "disused:cuisine": "coffee_shop", "disused:name": "Coffee Bean & Tea Leaf", "name": "Starbucks", "official_name": "Starbucks Coffee", "takeaway": "yes"}}, {"type": "way", "id": 806256799, "nodes": [7539501424, 7539501425, 7539501426, 7539501427, 7539501424], "tags": {"amenity": "cafe", "brand": "Starbucks", "brand:wikidata": "Q37158", "building": "yes", "contact:website": "https://www.starbucks.com/store-locator/store/1023909/tampa-nordhoff-19301-nordhoff-street-los-angeles-ca-913242416-us", "cuisine": "coffee_shop", "drive_through": "yes", "layer": "-1", "name": "Starbucks", "official_name": "Starbucks Coffee", "outdoor_seating": "yes", "takeaway": "yes"}}, {"type": "way", "id": 974871763, "nodes": [9021615445, 9021615446, 9021615449, 9021615451, 9021615452, 9021615450, 9021615447, 9021615448, 9021615445], "tags": {"addr:city": "Los Angeles", "addr:housenumber": "1277", "addr:postcode": "90029", "addr:state": "CA", "addr:street": "North Western Avenue", "amenity": "cafe", "brand": "Starbucks", "brand:wikidata": "Q37158", "building": "yes", "cuisine": "coffee_shop", "drive_through": "yes", "internet_access": "wlan", "name": "Starbucks", "official_name": "Starbucks Coffee", "opening_hours": "04:30-24:00", "phone": "+1-323-490-0544", "takeaway": "yes", "website": "https://www.starbucks.com/store-locator/store/1017205/western-fountain-1277-n-western-avenue-los-angeles-ca-900291018-us"}}, {"type": "way", "id": 977419024, "nodes": [4094934882, 9044200435, 5610837239, 9044200437, 9044200438, 4094934866, 9044200439, 4094519244, 4094519221, 4094934881, 4094934883, 4094934882], "tags": {"amenity": "cafe", "brand": "Corner Bakery", "brand:wikidata": "Q5171598", "building:part": "yes", "cuisine": "coffee_shop", "level": "0", "name": "Corner Bakery", "outdoor_seating": "yes", "takeaway": "yes", "website": "https://www.cornerbakerycafe.com/"}}, {"type": "way", "id": 985772236, "nodes": [9113106467, 9113106468, 9113106469, 9113106470, 9113106471, 9113106472, 9113106467], "tags": {"amenity": "cafe", "brand": "The Coffee Bean & Tea Leaf", "brand:wikidata": "Q1141384", "cuisine": "coffee_shop", "indoor": "retail", "indoor:level": "2", "name": "The Coffee Bean & Tea Leaf", "takeaway": "yes"}}, {"type": "way", "id": 999287620, "nodes": [9225489073, 9225489074, 9225489075, 9225489076, 9225489077, 9225489078, 9225489079, 9225489080, 9225489073], "tags": {"amenity": "cafe", "brand": "Starbucks", "brand:wikidata": "Q37158", "building": "yes", "contact:website": "https://www.starbucks.com/store-locator/store/1016829/topanga-canyon-and-gault-7050-topanga-canyon-blvd-canoga-park-ca-913031960-", "cuisine": "coffee_shop", "name": "Starbucks", "official_name": "Starbucks Coffee", "takeaway": "yes"}}, {"type": "way", "id": 1015762614, "nodes": [9369396009, 9369396010, 9369396011, 9369396012, 9369396013, 9369396014, 9369396015, 9369396016, 9369396009], "tags": {"amenity": "cafe", "brand": "Starbucks", "brand:wikidata": "Q37158", "building": "yes", "contact:website": "https://www.starbucks.com/store-locator/store/1014911/balboa-lassen-9900-balboa-blvd-northridge-ca-913255403-us", "cuisine": "coffee_shop", "name": "Starbucks", "official_name": "Starbucks Coffee", "takeaway": "yes"}}, {"type": "way", "id": 1028570347, "nodes": [9482710840, 9482710841, 9482710842, 9482710843, 9482710844, 9482710845, 9482710846, 9482710847, 9482710848, 9482710849, 9482710850, 9482710851, 9482710840], "tags": {"amenity": "cafe", "brand": "Starbucks", "brand:wikidata": "Q37158", "building": "yes", "contact:website": "https://www.starbucks.com/store-locator/store/1017590/torrance-western-21176-s-western-ave-torrance-ca-905011720-us", "cuisine": "coffee_shop", "name": "Starbucks", "official_name": "Starbucks Coffee", "takeaway": "yes"}}, {"type": "way", "id": 1063988423, "nodes": [9772395168, 9772395169, 9772395170, 9772395171, 9772395172, 9772395173, 9772395174, 9772395175, 9772395168], "tags": {"addr:city": "Los Angeles", "addr:housenumber": "2580", "addr:postcode": "90006", "addr:state": "CA", "addr:street": "West Olympic Boulevard", "amenity": "cafe", "building": "yes", "cuisine": "coffee_shop", "name": "Coffee M.CO", "outdoor_seating": "yes", "phone": "+12136747381", "website": "https://www.coffeemco.com/"}}, {"type": "way", "id": 1074067459, "nodes": [9852034544, 11406555806, 9852034545, 9852034546, 9851947956, 9852034547, 9852034544], "tags": {"amenity": "cafe", "building": "yes", "cuisine": "coffee_shop", "name": "Go Get Em Tiger"}}, {"type": "way", "id": 1115713808, "nodes": [10203928503, 10203928504, 10203928505, 10203928506, 10203928507, 10203928508, 10203928509, 10203928510, 10203928511, 10203928512, 10203928513, 10203928514, 10203928515, 10203928516, 10203928503], "tags": {"amenity": "cafe", "brand": "Starbucks", "brand:wikidata": "Q37158", "building": "yes", "contact:website": "https://www.starbucks.com/store-locator/store/1026158/mason-lassen-9857-mason-avenue-chatsworth-ca-913115212-us", "cuisine": "coffee_shop", "drive_through": "yes", "name": "Starbucks", "official_name": "Starbucks Coffee", "outdoor_seating": "yes", "smoking": "no", "takeaway": "yes", "toilets": "yes", "wheelchair": "yes"}}, {"type": "way", "id": 1125492894, "nodes": [9630495539, 10292148350, 10292148351, 10292148352, 10292148353, 10292148354, 9630495539], "tags": {"amenity": "cafe", "brand": "Starbucks", "brand:wikidata": "Q37158", "building": "yes", "contact:website": "https://www.starbucks.com/store-locator/store/16552/reseda-and-devonshire-10235-reseda-blvd-ste-d-4-d-6-northridge-ca-913241", "cuisine": "coffee_shop", "name": "Starbucks", "official_name": "Starbucks Coffee", "takeaway": "yes"}}, {"type": "way", "id": 1173486756, "nodes": [10903261844, 10903261845, 10903261846, 10903261847, 10903261848, 10903261849, 10903261850, 10903261851, 10903261852, 10903261853, 10903261855, 10903261854, 10903261844], "tags": {"amenity": "cafe", "brand": "Starbucks", "brand:wikidata": "Q37158", "building": "yes", "contact:website": "https://www.starbucks.com/store-locator/store/1018261/san-fernando-mission-sepulve-11109-sepulveda-blvd-mission-hills-ca-913451129-us", "cuisine": "coffee_shop", "name": "Starbucks", "official_name": "Starbucks Coffee", "takeaway": "yes"}}, {"type": "way", "id": 1176851977, "nodes": [4321956738, 10933487031, 10933487030, 4310644928, 4321956742, 4321956741, 4310646361, 10933487032, 4321956738], "tags": {"amenity": "cafe", "brand": "Starbucks", "brand:wikidata": "Q37158", "contact:website": "https://www.starbucks.com/store-locator/store/1008739/reseda-nordhoff-9020-n-reseda-unit-a-northridge-ca-913243923-us", "cuisine": "coffee_shop", "name": "Starbucks", "official_name": "Starbucks Coffee", "takeaway": "yes"}}, {"type": "way", "id": 1208289198, "nodes": [11195936940, 11195936941, 11195936942, 11195936943, 4302256174, 11195936940], "tags": {"amenity": "cafe", "brand": "Starbucks", "brand:wikidata": "Q37158", "building": "yes", "cuisine": "coffee_shop", "layer": "-1", "name": "Starbucks", "official_name": "Starbucks Coffee", "takeaway": "yes"}}, {"type": "way", "id": 1216953501, "nodes": [11276281697, 11276281698, 11276281699, 11276281700, 11276281701, 11276281702, 11276281703, 11276281704, 11276281705, 11276281706, 11276281697], "tags": {"amenity": "cafe", "brand": "Starbucks", "brand:wikidata": "Q37158", "building": "commercial", "cuisine": "coffee_shop", "name": "Starbucks", "official_name": "Starbucks Coffee", "takeaway": "yes"}}, {"type": "way", "id": 1245885899, "nodes": [11582338320, 11582338321, 11582338322, 11582338323, 11582338324, 11582338320], "tags": {"amenity": "cafe", "brand": "Starbucks", "brand:wikidata": "Q37158", "building": "yes", "cuisine": "coffee_shop", "name": "Starbucks", "official_name": "Starbucks Coffee", "takeaway": "yes"}}, {"type": "relation", "id": 6699374, "members": [{"type": "way", "ref": 452156984, "role": "outer"}, {"type": "way", "ref": 431140996, "role": "outer"}], "tags": {"addr:city": "North Hills", "addr:country": "US", "addr:state": "CA", "amenity": "cafe", "brand": "Starbucks", "brand:wikidata": "Q37158", "contact:website": "https://www.starbucks.com/store-locator/store/9729/sepulveda-nordhoff-9002-sepulveda-blvd-north-hills-ca-913434308-us", "cuisine": "coffee_shop", "drive_through": "yes", "internet_access": "wlan", "name": "Starbucks", "official_name": "Starbucks Coffee", "takeaway": "yes", "type": "multipolygon"}}]}