{"version": 0.6, "generator": "Overpass API 0.7.61.5 4133829e", "osm3s": {"timestamp_osm_base": "2024-02-28T05:50:10Z", "copyright": "The data included in this document is from www.openstreetmap.org. The data is made available under ODbL."}, "elements": [{"type": "node", "id": 3230208662, "lat": 33.9914411, "lon": -118.4467097}, {"type": "node", "id": 3230208663, "lat": 33.9915136, "lon": -118.44653}, {"type": "node", "id": 3230208664, "lat": 33.9913587, "lon": -118.4464484}, {"type": "node", "id": 3230208665, "lat": 33.9912839, "lon": -118.4465977}, {"type": "node", "id": 4075193955, "lat": 33.9968767, "lon": -118.394214, "tags": {"amenity": "cafe", "brand": "Starbucks", "brand:wikidata": "Q37158", "contact:website": "https://www.starbucks.com/store-locator/store/11275/pavilions-culver-city-2212-11030-jefferson-blvd-culver-city-ca-902305520-us", "cuisine": "coffee_shop", "internet_access": "wlan", "name": "Starbucks", "official_name": "Starbucks Coffee", "takeaway": "yes"}}, {"type": "node", "id": 4211961513, "lat": 33.9912809, "lon": -118.4465677}, {"type": "node", "id": 4211961518, "lat": 33.9912941, "lon": -118.4465771}, {"type": "node", "id": 4211961521, "lat": 33.9913008, "lon": -118.4465273}, {"type": "node", "id": 4211961527, "lat": 33.9913148, "lon": -118.4465373}, {"type": "node", "id": 4211961542, "lat": 33.9913454, "lon": -118.4464389}, {"type": "node", "id": 4211961546, "lat": 33.9913558, "lon": -118.4464178}, {"type": "node", "id": 4211961554, "lat": 33.9913709, "lon": -118.4464285}, {"type": "node", "id": 4211961560, "lat": 33.9913792, "lon": -118.4464119}, {"type": "node", "id": 4211961567, "lat": 33.9913967, "lon": -118.4464467}, {"type": "node", "id": 4211961570, "lat": 33.9914049, "lon": -118.4464302}, {"type": "node", "id": 4211961589, "lat": 33.9914466, "lon": -118.4466656}, {"type": "node", "id": 4211961595, "lat": 33.9914586, "lon": -118.4466742}, {"type": "node", "id": 4582147852, "lat": 34.0270635, "lon": -118.38758, "tags": {"addr:city": "Culver City", "addr:housenumber": "8830", "addr:postcode": "90232", "addr:state": "CA", "addr:street": "Washington Boulevard #103", "amenity": "cafe", "brand": "Blue Bottle Coffee", "brand:wikidata": "Q4928917", "cuisine": "coffee_shop", "internet_access": "wlan", "name": "Blue Bottle Coffee", "opening_hours": "Mo-Fr 06:30-17:00; Sa,Su 07:00-17:00", "outdoor_seating": "yes", "takeaway": "yes", "website": "https://bluebottlecoffee.com/cafes/hayden-tract"}}, {"type": "node", "id": 5649042872, "lat": 34.0068918, "lon": -118.4125595, "tags": {"addr:housenumber": "4114", "addr:postcode": "90230", "addr:street": "Sepulveda Boulevard", "amenity": "cafe", "brand": "Starbucks", "brand:wikidata": "Q37158", "cuisine": "coffee_shop", "internet_access": "wlan", "name": "Starbucks", "official_name": "Starbucks Coffee", "opening_hours": "Mo-Su 05:30-20:00", "phone": "+1 (310) 390-3561", "takeaway": "yes", "website": "https://www.starbucks.com/store-locator/store/113207/sepulveda-washington-4114-sepulveda-blvd-culver-city-ca-902304700-us"}}, {"type": "node", "id": 8301099754, "lat": 34.0039807, "lon": -118.40838, "tags": {"amenity": "cafe", "cuisine": "coffee_shop", "name": "Tanner's Coffee"}}, {"type": "node", "id": 8301099768, "lat": 34.0037038, "lon": -118.3934632, "tags": {"amenity": "cafe", "brand": "Starbucks", "brand:wikidata": "Q37158", "contact:website": "https://www.starbucks.com/store-locator/store/1029519/jefferson-overland-ave-10700-jefferson-blvd-culver-city-ca-902304933-us", "cuisine": "coffee_shop", "name": "Starbucks", "official_name": "Starbucks Coffee", "opening_hours": "Sa,Su 05:30-20:30; Mo-Fr 04:30-20:30", "takeaway": "yes"}}, {"type": "node", "id": 8439536120, "lat": 34.0180995, "lon": -118.401145, "tags": {"amenity": "cafe", "brand": "The Coffee Bean & Tea Leaf", "brand:wikidata": "Q1141384", "cuisine": "coffee_shop", "name": "The Coffee Bean & Tea Leaf", "takeaway": "yes"}}, {"type": "node", "id": 8480409550, "lat": 34.0208745, "lon": -118.3964405, "tags": {"addr:housenumber": "9900", "addr:street": "Culver Boulevard", "amenity": "cafe", "check_date": "2024-01-11", "cuisine": "coffee_shop", "internet_access": "wlan", "internet_access:fee": "customers", "name": "Village Well Coffee", "outdoor_seating": "yes", "payment:cash": "yes", "payment:credit_cards": "yes", "payment:debit_cards": "yes"}}, {"type": "node", "id": 8519602526, "lat": 34.0222814, "lon": -118.3961154, "tags": {"amenity": "cafe", "brand": "Starbucks", "brand:wikidata": "Q37158", "contact:website": "https://www.starbucks.com/store-locator/store/15444/washington-culver-9718-washington-blvd-culver-city-ca-902322722-us", "cuisine": "coffee_shop", "name": "Starbucks", "official_name": "Starbucks Coffee", "takeaway": "yes"}}, {"type": "node", "id": 8519602532, "lat": 34.0242422, "lon": -118.3937045, "tags": {"amenity": "cafe", "brand": "Philz Coffee", "brand:wikidata": "Q18156812", "cuisine": "coffee_shop", "name": "Philz Coffee", "takeaway": "yes"}}, {"type": "node", "id": 8756227298, "lat": 33.9970062, "lon": -118.4301448, "tags": {"amenity": "cafe", "cuisine": "coffee_shop", "name": "\"Le\" Coffee Shop"}}, {"type": "node", "id": 8947033578, "lat": 34.03121, "lon": -118.3777625, "tags": {"amenity": "cafe", "cuisine": "coffee_shop", "name": "Cognoscenti"}}, {"type": "node", "id": 9015554491, "lat": 34.0206422, "lon": -118.3995297, "tags": {"addr:housenumber": "10117", "addr:postcode": "90232", "addr:street": "Washington Boulevard", "amenity": "cafe", "contact:facebook": "conservatoryforcoffee", "contact:instagram": "conservatorycoffeeandtea", "contact:twitter": "TheConservatory", "cuisine": "coffee_shop", "email": "conservatory4coffee@gmail.com", "name": "The Conservatory for Coffee, Tea, and Cocoa", "opening_hours": "Mo-Fr 08:00-14:00", "phone": "310-558-0436", "website": "https://conservatorycoffeeandtea.com"}}, {"type": "node", "id": 9049248776, "lat": 34.0022245, "lon": -118.3931999, "tags": {"amenity": "cafe", "brand": "Starbucks", "brand:wikidata": "Q37158", "contact:website": "https://www.starbucks.com/store-locator/store/1020112/ralphs-culver-city-284-10772-jefferson-blvd-culver-city-ca-90230-us", "cuisine": "coffee_shop", "name": "Starbucks", "note": "Inside Ralphs", "official_name": "Starbucks Coffee", "takeaway": "yes"}}, {"type": "node", "id": 9333531965, "lat": 33.9851103, "lon": -118.394513, "tags": {"amenity": "cafe", "brand": "Starbucks", "brand:wikidata": "Q37158", "contact:website": "https://www.starbucks.com/store-locator/store/9831/target-culver-city-south-2632-6000-sepulveda-blvd-ste-2250-culver-city-ca-902306", "cuisine": "coffee_shop", "level": "1", "level:ref": "2", "name": "Starbucks", "note": "Inside Target", "official_name": "Starbucks Coffee", "takeaway": "yes"}}, {"type": "node", "id": 9668604231, "lat": 34.0283549, "lon": -118.3889125, "tags": {"amenity": "cafe", "cuisine": "coffee_shop", "name": "Equator Coffee"}}, {"type": "node", "id": 9765149417, "lat": 33.996738, "lon": -118.4291886, "tags": {"addr:housenumber": "12430", "addr:postcode": "90066", "addr:street": "Washington Boulevard", "amenity": "cafe", "cuisine": "coffee_shop", "name": "Menotti's Coffee Stop", "opening_hours": "Mo-Su 07:00-14:00", "phone": "+1 (916) 501-2472", "website": "https://menottis.com/"}}, {"type": "node", "id": 9953188014, "lat": 34.0308487, "lon": -118.380391, "tags": {"amenity": "cafe", "cuisine": "coffee_shop", "internet_access": "wlan", "name": "Super Domestic", "outdoor_seating": "yes"}}, {"type": "node", "id": 9968370873, "lat": 34.0249065, "lon": -118.3940171, "tags": {"addr:housenumber": "9355", "addr:postcode": "90232", "addr:street": "Culver Boulevard", "alt_name": "Good Boy Bob", "amenity": "cafe", "contact:instagram": "goodboybobcoffee", "cuisine": "coffee_shop", "level": "0", "name": "goodboybob", "opening_hours": "Mo 07:00-15:00; Su, Tu-Th 07:00-18:00; Fr-Sa 07:00-21:00", "outdoor_seating": "yes", "phone": "1 (424) 581 7046", "website": "https://goodboybob.com/"}}, {"type": "node", "id": 10925637205, "lat": 33.996608, "lon": -118.435086, "tags": {"addr:housenumber": "12712", "addr:postcode": "90066", "addr:street": "Washington Boulevard", "amenity": "cafe", "cuisine": "coffee_shop", "internet_access": "wlan", "name": "The Boy & The Bear - Coffee Roastery", "opening_hours": "Mo-Su 07:00-16:00", "website": "https://theboyandthebear.com/pages/store/the-grey-store"}}, {"type": "node", "id": 11473884924, "lat": 34.0137257, "lon": -118.4087007, "tags": {"amenity": "cafe", "cuisine": "coffee_shop", "name": "Cofax"}}, {"type": "way", "id": 316837302, "nodes": [4211961567, 4211961570, 4211961560, 4211961554, 4211961546, 4211961542, 3230208664, 4211961527, 4211961521, 4211961513, 4211961518, 3230208665, 3230208662, 4211961595, 4211961589, 3230208663, 4211961567], "tags": {"addr:city": "Marina del Rey", "addr:housenumber": "13431", "addr:postcode": "90292", "addr:state": "CA", "addr:street": "W Washington Boulevard", "amenity": "cafe", "brand": "Starbucks", "brand:wikidata": "Q37158", "building": "retail", "building:units": "4", "check_date": "2015-04-10", "cuisine": "coffee_shop", "ele": "14.8", "height": "7.7", "internet_access": "yes", "lacounty:ain": "4236029008", "lacounty:bld_id": "426304819553", "name": "Starbucks", "official_name": "Starbucks Coffee", "opening_hours": "Mo-Su 5:00-20:00", "phone": "+1 310 306 8990", "start_date": "1999", "takeaway": "yes"}}]}